{
"type": "FeatureCollection",
"name": "KLAMBU_WILALUNG_UPSTREAM",
"crs": { "type": "name", "properties": { "name": "urn:ogc:def:crs:OGC:1.3:CRS84" } },
"features": [
{ "type": "Feature", "properties": { "Name": "Downstream", "descriptio": null, "timestamp": null, "begin": null, "end": null, "altitudeMo": null, "tessellate": -1, "extrude": 0, "visibility": -1, "drawOrder": null, "icon": null, "KDPPUM": null, "NAMOBJ": "Undaan Tengah", "REMARK": "Wilayah Administrasi Keluruhan/Desa", "KDPBPS": null, "FCODE": null, "LUASWH": 0.0, "UUPP": null, "SRS_ID": null, "LCODE": "BA0020", "METADATA": null, "KDEBPS": null, "KDEPUM": null, "KDCBPS": null, "KDCPUM": null, "KDBBPS": null, "KDBPUM": null, "WADMKD": null, "WIADKD": null, "WADMKC": "Undaan", "WIADKC": null, "WADMKK": "Kudus", "WIADKK": null, "WADMPR": "Jawa Tengah", "WIADPR": null, "TIPADM": 0.0, "SHAPE_Leng": 0.11654582404, "SHAPE_Area": 0.00041753918, "Name_2": null, "descript_1": null, "timestamp_": null, "begin_2": null, "end_2": null, "altitude_1": null, "tessella_1": null, "extrude_2": null, "visibili_1": null, "drawOrder_": null, "icon_2": null, "KDPPUM_2": null, "NAMOBJ_2": null, "REMARK_2": null, "KDPBPS_2": null, "FCODE_2": null, "LUASWH_2": null, "UUPP_2": null, "SRS_ID_2": null, "LCODE_2": null, "METADATA_2": null, "KDEBPS_2": null, "KDEPUM_2": null, "KDCBPS_2": null, "KDCPUM_2": null, "KDBBPS_2": null, "KDBPUM_2": null, "WADMKD_2": null, "WIADKD_2": null, "WADMKC_2": null, "WIADKC_2": null, "WADMKK_2": null, "WIADKK_2": null, "WADMPR_2": null, "WIADPR_2": null, "TIPADM_2": null, "SHAPE_Le_1": null, "SHAPE_Ar_1": null, "layer": "Villborder_undaantengah", "path": "/home/shohibul/KERJA/Pemetaan/Klambu Wilalung/Supplementary data files/3. Shapefiles/1. Kudus/14. Undaan Tengah/Border/Villborder_undaantengah.shp" }, "geometry": { "type": "MultiPolygon", "coordinates": [ [ [ [ 110.849192, -6.911933, 0.0 ], [ 110.848955, -6.912605, 0.0 ], [ 110.848773, -6.913314, 0.0 ], [ 110.848736, -6.913931, 0.0 ], [ 110.848972, -6.914858, 0.0 ], [ 110.849445, -6.916184, 0.0 ], [ 110.849497, -6.916346, 0.0 ], [ 110.848385, -6.916194, 0.0 ], [ 110.846864, -6.916016, 0.0 ], [ 110.84518, -6.915886, 0.0 ], [ 110.843481, -6.915853, 0.0 ], [ 110.841085, -6.916111, 0.0 ], [ 110.839255, -6.916563, 0.0 ], [ 110.837264, -6.916934, 0.0 ], [ 110.83482, -6.917192, 0.0 ], [ 110.833751, -6.917369, 0.0 ], [ 110.831938, -6.91753, 0.0 ], [ 110.830044, -6.917562, 0.0 ], [ 110.82807, -6.917593, 0.0 ], [ 110.826839, -6.917431, 0.0 ], [ 110.825447, -6.917156, 0.0 ], [ 110.823651, -6.916428, 0.0 ], [ 110.821676, -6.915684, 0.0 ], [ 110.82022, -6.914972, 0.0 ], [ 110.818253, -6.913482, 0.0 ], [ 110.818027, -6.913323, 0.0 ], [ 110.817516, -6.912947, 0.0 ], [ 110.815826, -6.911566, 0.0 ], [ 110.815386, -6.911168, 0.0 ], [ 110.814815, -6.910661, 0.0 ], [ 110.814557, -6.910445, 0.0 ], [ 110.813494, -6.909544, 0.0 ], [ 110.812715, -6.90898, 0.0 ], [ 110.81268, -6.908956, 0.0 ], [ 110.812536, -6.908863, 0.0 ], [ 110.81244, -6.908801, 0.0 ], [ 110.811906, -6.908528, 0.0 ], [ 110.811431, -6.908285, 0.0 ], [ 110.810862, -6.90797700099997, 0.0 ], [ 110.80902, -6.906753, 0.0 ], [ 110.807212, -6.905467, 0.0 ], [ 110.805402, -6.904231, 0.0 ], [ 110.80468, -6.903812, 0.0 ], [ 110.80444, -6.903676, 0.0 ], [ 110.80462, -6.902813, 0.0 ], [ 110.804831, -6.902102, 0.0 ], [ 110.804912, -6.901358, 0.0 ], [ 110.804831, -6.901148, 0.0 ], [ 110.80386, -6.900663, 0.0 ], [ 110.803116, -6.900129, 0.0 ], [ 110.802468, -6.899547, 0.0 ], [ 110.801414, -6.898823, 0.0 ], [ 110.80165, -6.898586, 0.0 ], [ 110.801851, -6.898314, 0.0 ], [ 110.802014, -6.898023, 0.0 ], [ 110.802087, -6.897696, 0.0 ], [ 110.802124, -6.89686100099993, 0.0 ], [ 110.80227, -6.896243, 0.0 ], [ 110.802525, -6.895626, 0.0 ], [ 110.802889, -6.895135, 0.0 ], [ 110.803399, -6.894845, 0.0 ], [ 110.804054, -6.8947, 0.0 ], [ 110.804873, -6.894627, 0.0 ], [ 110.805236, -6.894373, 0.0 ], [ 110.805437, -6.894046, 0.0 ], [ 110.805564, -6.89342900099992, 0.0 ], [ 110.805583, -6.892357, 0.0 ], [ 110.805875, -6.891194, 0.0 ], [ 110.806257, -6.889887, 0.0 ], [ 110.806585, -6.889251, 0.0 ], [ 110.807313, -6.887816, 0.0 ], [ 110.807515, -6.887323, 0.0 ], [ 110.807714, -6.886835, 0.0 ], [ 110.807951, -6.885836, 0.0 ], [ 110.80817, -6.88467300099993, 0.0 ], [ 110.808189, -6.882639, 0.0 ], [ 110.808244, -6.881494000999981, 0.0 ], [ 110.808463, -6.880822, 0.0 ], [ 110.808899, -6.880259, 0.0 ], [ 110.809165, -6.880027, 0.0 ], [ 110.809336, -6.879878, 0.0 ], [ 110.81001, -6.879551, 0.0 ], [ 110.811174, -6.879116, 0.0 ], [ 110.811993, -6.878698, 0.0 ], [ 110.812448, -6.878353, 0.0 ], [ 110.812648, -6.87799, 0.0 ], [ 110.812685, -6.877336, 0.0 ], [ 110.812467, -6.876318, 0.0 ], [ 110.812249, -6.875573, 0.0 ], [ 110.812284937, -6.875, 0.0 ], [ 110.812285, -6.874999000999931, 0.0 ], [ 110.812579, -6.874361, 0.0 ], [ 110.813393, -6.873806, 0.0 ], [ 110.814166, -6.873139, 0.0 ], [ 110.815001, -6.872598, 0.0 ], [ 110.815794, -6.871973, 0.0 ], [ 110.8164, -6.871285, 0.0 ], [ 110.817089, -6.87066, 0.0 ], [ 110.81782, -6.869806, 0.0 ], [ 110.818175, -6.869368, 0.0 ], [ 110.818551, -6.868826, 0.0 ], [ 110.818564, -6.868808, 0.0 ], [ 110.818906, -6.868326, 0.0 ], [ 110.819063, -6.868356, 0.0 ], [ 110.82009, -6.86862200099996, 0.0 ], [ 110.820415, -6.868685, 0.0 ], [ 110.820467, -6.868706, 0.0 ], [ 110.820822, -6.868761, 0.0 ], [ 110.821337, -6.86874000099995, 0.0 ], [ 110.82186, -6.868647, 0.0 ], [ 110.821882, -6.868643, 0.0 ], [ 110.822453, -6.868483, 0.0 ], [ 110.822608, -6.868363, 0.0 ], [ 110.822754, -6.8681350009999, 0.0 ], [ 110.822778, -6.86802, 0.0 ], [ 110.822794, -6.867947, 0.0 ], [ 110.822769, -6.867653, 0.0 ], [ 110.822656, -6.867263, 0.0 ], [ 110.822083, -6.865821, 0.0 ], [ 110.821842, -6.86491700100001, 0.0 ], [ 110.821813, -6.864461, 0.0 ], [ 110.82193, -6.86328, 0.0 ], [ 110.822087, -6.862715, 0.0 ], [ 110.822194, -6.86249900099996, 0.0 ], [ 110.822318, -6.862392, 0.0 ], [ 110.82264, -6.862227, 0.0 ], [ 110.823403, -6.861962, 0.0 ], [ 110.823665, -6.861929, 0.0 ], [ 110.824515, -6.861767, 0.0 ], [ 110.82463, -6.861745, 0.0 ], [ 110.825115, -6.861771, 0.0 ], [ 110.825549, -6.861735, 0.0 ], [ 110.826521, -6.861552, 0.0 ], [ 110.826754, -6.861476, 0.0 ], [ 110.827033, -6.861384999999891, 0.0 ], [ 110.827663, -6.861243, 0.0 ], [ 110.828096, -6.861217, 0.0 ], [ 110.828473, -6.861194, 0.0 ], [ 110.828646, -6.861135999999891, 0.0 ], [ 110.828766, -6.861096, 0.0 ], [ 110.828977, -6.861032, 0.0 ], [ 110.829577, -6.860793, 0.0 ], [ 110.829786, -6.860623, 0.0 ], [ 110.829883, -6.860543, 0.0 ], [ 110.829918, -6.86041300099993, 0.0 ], [ 110.829877, -6.860141, 0.0 ], [ 110.829745, -6.859824, 0.0 ], [ 110.829604, -6.859483, 0.0 ], [ 110.829156, -6.858966, 0.0 ], [ 110.82887, -6.85856000099992, 0.0 ], [ 110.828872, -6.85829, 0.0 ], [ 110.828955, -6.85773, 0.0 ], [ 110.829074, -6.85762400100001, 0.0 ], [ 110.829255, -6.857567, 0.0 ], [ 110.82983, -6.857565000999921, 0.0 ], [ 110.830455, -6.857584001, 0.0 ], [ 110.831011, -6.857503, 0.0 ], [ 110.831524, -6.857375, 0.0 ], [ 110.83195, -6.857081, 0.0 ], [ 110.832253, -6.85677, 0.0 ], [ 110.832393, -6.856521, 0.0 ], [ 110.832438, -6.856178, 0.0 ], [ 110.832411, -6.855892, 0.0 ], [ 110.832192, -6.85493200099994, 0.0 ], [ 110.831785, -6.853603, 0.0 ], [ 110.8318, -6.853415, 0.0 ], [ 110.831906, -6.853201, 0.0 ], [ 110.832275, -6.852599, 0.0 ], [ 110.8324, -6.85247, 0.0 ], [ 110.832477, -6.852391, 0.0 ], [ 110.833106, -6.85273, 0.0 ], [ 110.833687, -6.852997, 0.0 ], [ 110.834468, -6.853373001, 0.0 ], [ 110.834566, -6.853421, 0.0 ], [ 110.835799, -6.854018, 0.0 ], [ 110.835843, -6.853861, 0.0 ], [ 110.835888, -6.853854, 0.0 ], [ 110.836406, -6.854059, 0.0 ], [ 110.836851, -6.854217, 0.0 ], [ 110.836884, -6.854228, 0.0 ], [ 110.837342, -6.854383, 0.0 ], [ 110.83776, -6.854506, 0.0 ], [ 110.83899, -6.854885, 0.0 ], [ 110.839703, -6.855172, 0.0 ], [ 110.840233, -6.855414, 0.0 ], [ 110.841009, -6.855822, 0.0 ], [ 110.841104, -6.855879, 0.0 ], [ 110.841228, -6.855931, 0.0 ], [ 110.841754, -6.856124, 0.0 ], [ 110.842473, -6.856373, 0.0 ], [ 110.842626, -6.856427, 0.0 ], [ 110.842632, -6.856429, 0.0 ], [ 110.843348, -6.856672, 0.0 ], [ 110.843576, -6.856758, 0.0 ], [ 110.843825, -6.856777, 0.0 ], [ 110.844044, -6.856742, 0.0 ], [ 110.844046, -6.856742, 0.0 ], [ 110.844047, -6.856741, 0.0 ], [ 110.844108, -6.856865, 0.0 ], [ 110.844174, -6.856998, 0.0 ], [ 110.844218, -6.857043, 0.0 ], [ 110.844502, -6.857126, 0.0 ], [ 110.845362, -6.85731100099996, 0.0 ], [ 110.846034, -6.857438, 0.0 ], [ 110.847274, -6.857743, 0.0 ], [ 110.848067, -6.857938, 0.0 ], [ 110.849205, -6.858333, 0.0 ], [ 110.850823, -6.858838, 0.0 ], [ 110.851508, -6.85909, 0.0 ], [ 110.852428, -6.859448, 0.0 ], [ 110.852587, -6.85951, 0.0 ], [ 110.854477, -6.86015900099997, 0.0 ], [ 110.855102, -6.86035400099994, 0.0 ], [ 110.856064, -6.860651, 0.0 ], [ 110.856539, -6.860768, 0.0 ], [ 110.856541, -6.860768, 0.0 ], [ 110.85653, -6.86086, 0.0 ], [ 110.856799, -6.860925, 0.0 ], [ 110.857545, -6.861189, 0.0 ], [ 110.858034, -6.861395, 0.0 ], [ 110.858819, -6.861697, 0.0 ], [ 110.85914, -6.861803, 0.0 ], [ 110.859888, -6.862017, 0.0 ], [ 110.860359, -6.862166, 0.0 ], [ 110.861938, -6.862667, 0.0 ], [ 110.862387, -6.862749, 0.0 ], [ 110.862461, -6.862805, 0.0 ], [ 110.862516, -6.862837, 0.0 ], [ 110.862672, -6.862927, 0.0 ], [ 110.86299, -6.863111, 0.0 ], [ 110.863069, -6.863224, 0.0 ], [ 110.863084, -6.863395, 0.0 ], [ 110.863012, -6.863709, 0.0 ], [ 110.862919, -6.864069, 0.0 ], [ 110.863085, -6.86411, 0.0 ], [ 110.863175, -6.864136, 0.0 ], [ 110.864028, -6.86426, 0.0 ], [ 110.864069, -6.864269, 0.0 ], [ 110.864058, -6.864304, 0.0 ], [ 110.865149, -6.864698, 0.0 ], [ 110.86585, -6.86491700100001, 0.0 ], [ 110.866259, -6.864986, 0.0 ], [ 110.867326, -6.865182, 0.0 ], [ 110.867412, -6.865197, 0.0 ], [ 110.868491, -6.865422, 0.0 ], [ 110.869973, -6.86589, 0.0 ], [ 110.870208, -6.865973, 0.0 ], [ 110.870859, -6.866182, 0.0 ], [ 110.871201, -6.866302000999939, 0.0 ], [ 110.871983, -6.866564, 0.0 ], [ 110.872149, -6.866619, 0.0 ], [ 110.873245, -6.866944, 0.0 ], [ 110.87328, -6.866954, 0.0 ], [ 110.873519, -6.866953, 0.0 ], [ 110.873645, -6.867855, 0.0 ], [ 110.873838, -6.868517, 0.0 ], [ 110.873922, -6.868877, 0.0 ], [ 110.873904, -6.869217, 0.0 ], [ 110.873842, -6.869609, 0.0 ], [ 110.873729, -6.87002700099995, 0.0 ], [ 110.873618, -6.870374, 0.0 ], [ 110.87357, -6.870507, 0.0 ], [ 110.873464, -6.8708, 0.0 ], [ 110.873559, -6.87078, 0.0 ], [ 110.873874, -6.87073, 0.0 ], [ 110.874178, -6.870717, 0.0 ], [ 110.874532, -6.870664, 0.0 ], [ 110.874883, -6.870604, 0.0 ], [ 110.875000003666997, -6.87049099966664, 0.0 ], [ 110.875162103938294, -6.870464732090321, 0.0 ], [ 110.875480684931503, -6.870445373288119, 0.0 ], [ 110.875671293787093, -6.870413801464316, 0.0 ], [ 110.876131657149998, -6.870356883335011, 0.0 ], [ 110.876587562653597, -6.870289254064851, 0.0 ], [ 110.876963543030598, -6.870319853825901, 0.0 ], [ 110.877491997918895, -6.87052677427282, 0.0 ], [ 110.878099401294506, -6.870762772527558, 0.0 ], [ 110.878449915410002, -6.870995789043797, 0.0 ], [ 110.878942082405203, -6.871266544087481, 0.0 ], [ 110.879266285886601, -6.871449497585408, 0.0 ], [ 110.879842829389105, -6.871523251885485, 0.0 ], [ 110.880181460616697, -6.871612360629217, 0.0 ], [ 110.880211088332004, -6.87244541544985, 0.0 ], [ 110.880208157556694, -6.873144392530206, 0.0 ], [ 110.880317925455998, -6.873729700076767, 0.0 ], [ 110.880457413823606, -6.874232506877153, 0.0 ], [ 110.880587912487201, -6.874586619766109, 0.0 ], [ 110.880681497271098, -6.874805406991999, 0.0 ], [ 110.880848956707396, -6.875067908313967, 0.0 ], [ 110.881029253107997, -6.87564936133705, 0.0 ], [ 110.881086263057696, -6.876365812212269, 0.0 ], [ 110.881237967466305, -6.876839227837647, 0.0 ], [ 110.881425629590495, -6.877265926144885, 0.0 ], [ 110.881662020609198, -6.877690080307414, 0.0 ], [ 110.881841249304401, -6.878005168505329, 0.0 ], [ 110.882047696492506, -6.878325282621199, 0.0 ], [ 110.882396799163303, -6.878685195095243, 0.0 ], [ 110.882822828833397, -6.879365760920601, 0.0 ], [ 110.883015126415202, -6.87979310370986, 0.0 ], [ 110.883035240121103, -6.880092249148709, 0.0 ], [ 110.883071070100499, -6.88047113825238, 0.0 ], [ 110.882975736890501, -6.880959013643514, 0.0 ], [ 110.882875098985295, -6.881331381454816, 0.0 ], [ 110.882903859663699, -6.881553016111164, 0.0 ], [ 110.882834879612901, -6.881770446308153, 0.0 ], [ 110.882810897640297, -6.882053352067974, 0.0 ], [ 110.882804273877994, -6.882342304501536, 0.0 ], [ 110.882813976137797, -6.882576161028076, 0.0 ], [ 110.882757566624207, -6.882950441252857, 0.0 ], [ 110.882742342311701, -6.883541960940456, 0.0 ], [ 110.882757867101304, -6.883902031825971, 0.0 ], [ 110.882679137066205, -6.884262431201384, 0.0 ], [ 110.882691239356802, -6.884680217480606, 0.0 ], [ 110.882645091658304, -6.885171217621133, 0.0 ], [ 110.882669153260693, -6.885566018028567, 0.0 ], [ 110.882669555492896, -6.88593294345633, 0.0 ], [ 110.882673253245201, -6.88625541367808, 0.0 ], [ 110.882655509279701, -6.886501367924435, 0.0 ], [ 110.882639218855203, -6.886781567525693, 0.0 ], [ 110.882626587354395, -6.887123615525449, 0.0 ], [ 110.882592953854598, -6.887532322620178, 0.0 ], [ 110.882524654816294, -6.887952974889488, 0.0 ], [ 110.882512670201393, -6.888084566245342, 0.0 ], [ 110.882617405659701, -6.888714951100105, 0.0 ], [ 110.882762367471301, -6.889278870591798, 0.0 ], [ 110.882884610314406, -6.889787789750594, 0.0 ], [ 110.882907401112803, -6.890084452835358, 0.0 ], [ 110.882987237306907, -6.890654703419142, 0.0 ], [ 110.8829905943565, -6.891024592866339, 0.0 ], [ 110.882933972635897, -6.891365243107233, 0.0 ], [ 110.882917892773705, -6.891846879044537, 0.0 ], [ 110.882963200631295, -6.892405475456955, 0.0 ], [ 110.882986142335795, -6.892895028312759, 0.0 ], [ 110.883113554037294, -6.893327258220296, 0.0 ], [ 110.883228301684198, -6.893754788658307, 0.0 ], [ 110.883264439879198, -6.894116088568933, 0.0 ], [ 110.883292676379696, -6.89446228400962, 0.0 ], [ 110.883308474287404, -6.894803809546763, 0.0 ], [ 110.883367871959294, -6.895120506510971, 0.0 ], [ 110.883357523779495, -6.895496768777145, 0.0 ], [ 110.883310984838303, -6.895823624327173, 0.0 ], [ 110.8832949251168, -6.896289817282091, 0.0 ], [ 110.8833014124709, -6.896564123892941, 0.0 ], [ 110.883258819035902, -6.896879213842604, 0.0 ], [ 110.8832499568949, -6.897222737662405, 0.0 ], [ 110.883250290353502, -6.897497600474078, 0.0 ], [ 110.883264516742003, -6.897785903074864, 0.0 ], [ 110.883309098137602, -6.898050565551593, 0.0 ], [ 110.883347090451196, -6.898493963770142, 0.0 ], [ 110.883379471257697, -6.898855856890814, 0.0 ], [ 110.883457112722397, -6.899095417866653, 0.0 ], [ 110.883490208849693, -6.899229256178665, 0.0 ], [ 110.883543905769798, -6.899490415331494, 0.0 ], [ 110.883607561187503, -6.899580698095556, 0.0 ], [ 110.883552249668, -6.899750858732332, 0.0 ], [ 110.883602418989, -6.900173022302122, 0.0 ], [ 110.883739787379199, -6.900544691967938, 0.0 ], [ 110.883863537768207, -6.900775210382331, 0.0 ], [ 110.883940470046994, -6.900930525406052, 0.0 ], [ 110.883985002290601, -6.90116711627946, 0.0 ], [ 110.884050157429698, -6.901441269366775, 0.0 ], [ 110.884099244117195, -6.901690529407261, 0.0 ], [ 110.884089636801704, -6.901922050443545, 0.0 ], [ 110.884125943494197, -6.902081223841979, 0.0 ], [ 110.884097080499004, -6.902516058080686, 0.0 ], [ 110.884093338423398, -6.903094604360667, 0.0 ], [ 110.8841333216523, -6.903433581813458, 0.0 ], [ 110.884190573952907, -6.903694449730872, 0.0 ], [ 110.884165634977805, -6.903929635778669, 0.0 ], [ 110.884265047567695, -6.904219028460764, 0.0 ], [ 110.884354810019204, -6.904523587678083, 0.0 ], [ 110.884447205945804, -6.904866828081631, 0.0 ], [ 110.884544715073702, -6.905408020891186, 0.0 ], [ 110.884589599995607, -6.905608791647286, 0.0 ], [ 110.884562077010301, -6.905833574269051, 0.0 ], [ 110.884190482894397, -6.905967847284219, 0.0 ], [ 110.883593962769694, -6.90597962223219, 0.0 ], [ 110.882674124842595, -6.905807781440423, 0.0 ], [ 110.882084631675099, -6.905587920445504, 0.0 ], [ 110.881805367625802, -6.905497556161177, 0.0 ], [ 110.881612930131993, -6.905425919412824, 0.0 ], [ 110.881349695379697, -6.905444124802286, 0.0 ], [ 110.880948971192595, -6.905350201151452, 0.0 ], [ 110.8804934080908, -6.905284082274554, 0.0 ], [ 110.879889423969502, -6.905165945776104, 0.0 ], [ 110.879568918569902, -6.905124199573673, 0.0 ], [ 110.879140765569304, -6.905017338990882, 0.0 ], [ 110.878627853595802, -6.904957570674637, 0.0 ], [ 110.878347408556493, -6.904867844185072, 0.0 ], [ 110.877883703736799, -6.904875497756284, 0.0 ], [ 110.877463302269504, -6.904979818455714, 0.0 ], [ 110.877228154583904, -6.905156307783834, 0.0 ], [ 110.876791479626107, -6.905414618908131, 0.0 ], [ 110.876338928081694, -6.905793485230247, 0.0 ], [ 110.875897596901694, -6.906132308802995, 0.0 ], [ 110.875505527204098, -6.906323639232196, 0.0 ], [ 110.875, -6.90635900099994, 0.0 ], [ 110.874195, -6.906091, 0.0 ], [ 110.87303, -6.905654, 0.0 ], [ 110.871939, -6.905254, 0.0 ], [ 110.870083, -6.904236, 0.0 ], [ 110.867845, -6.903673, 0.0 ], [ 110.866044, -6.903182, 0.0 ], [ 110.863587, -6.9026, 0.0 ], [ 110.86155, -6.902, 0.0 ], [ 110.858529, -6.901308001, 0.0 ], [ 110.857147, -6.900981, 0.0 ], [ 110.8556, -6.900981, 0.0 ], [ 110.854435, -6.901144, 0.0 ], [ 110.854316, -6.901223, 0.0 ], [ 110.854217, -6.901289, 0.0 ], [ 110.853744, -6.902215, 0.0 ], [ 110.853143, -6.90448600099996, 0.0 ], [ 110.852705, -6.905885, 0.0 ], [ 110.851486, -6.907992, 0.0 ], [ 110.850557, -6.909608, 0.0 ], [ 110.850214, -6.910242, 0.0 ], [ 110.849938, -6.910752, 0.0 ], [ 110.849192, -6.911933, 0.0 ] ], [ [ 110.829959, -6.87535100099992, 0.0 ], [ 110.829916122, -6.875, 0.0 ], [ 110.829916, -6.874999000999931, 0.0 ], [ 110.829839, -6.874539, 0.0 ], [ 110.829915, -6.874999000999931, 0.0 ], [ 110.829915125, -6.875, 0.0 ], [ 110.829959, -6.87535100099992, 0.0 ] ] ] ] } }
]
}
