{
"type": "FeatureCollection",
"name": "KLAMBU_WILALUNG_UPSTREAMS",
"crs": { "type": "name", "properties": { "name": "urn:ogc:def:crs:OGC:1.3:CRS84" } },
"features": [
{ "type": "Feature", "properties": { "KDPPUM": null, "NAMOBJ": "Upstream", "REMARK": "Wilayah Administrasi Keluruhan/Desa", "KDPBPS": null, "FCODE": null, "LUASWH": 0.0, "UUPP": null, "SRS_ID": null, "LCODE": "BA0020", "METADATA": null, "KDEBPS": null, "KDEPUM": null, "KDCBPS": null, "KDCPUM": null, "KDBBPS": null, "KDBPUM": null, "WADMKD": null, "WIADKD": null, "WADMKC": "Undaan", "WIADKC": null, "WADMKK": "Kudus", "WIADKK": null, "WADMPR": "Jawa Tengah", "WIADPR": null, "TIPADM": "0", "SHAPE_Leng": 0.10704028089000001, "SHAPE_Area": 0.00039885325, "Name": null, "descriptio": null, "timestamp": null, "begin": null, "end": null, "altitudeMo": null, "tessellate": null, "extrude": null, "visibility": null, "drawOrder": null, "icon": null, "layer": "Villborder_jenengan", "path": "/home/shohibul/KERJA/Pemetaan/Klambu Wilalung/Supplementary data files/3. Shapefiles/2. Grobogan/4. Jenengan/Border/Villborder_jenengan.shp" }, "geometry": { "type": "MultiPolygon", "coordinates": [ [ [ [ 110.811263, -7.000514, 0.0 ], [ 110.811244, -7.000785000999922, 0.0 ], [ 110.81127, -7.001329, 0.0 ], [ 110.811273, -7.001386, 0.0 ], [ 110.811219, -7.001619, 0.0 ], [ 110.811120000000116, -7.001826, 0.0 ], [ 110.810922, -7.002011, 0.0 ], [ 110.81053, -7.002171, 0.0 ], [ 110.809518, -7.002576, 0.0 ], [ 110.809391, -7.002716000999911, 0.0 ], [ 110.809377, -7.002813000999943, 0.0 ], [ 110.809424, -7.003053, 0.0 ], [ 110.809443, -7.00315, 0.0 ], [ 110.809552, -7.003593001, 0.0 ], [ 110.809431, -7.003803, 0.0 ], [ 110.809253, -7.003912, 0.0 ], [ 110.809087, -7.003953, 0.0 ], [ 110.809015, -7.004015, 0.0 ], [ 110.80886, -7.004254, 0.0 ], [ 110.808818, -7.004401, 0.0 ], [ 110.808748, -7.004671, 0.0 ], [ 110.808643, -7.004922, 0.0 ], [ 110.808398, -7.005283, 0.0 ], [ 110.808255000000116, -7.005304, 0.0 ], [ 110.807826, -7.005257, 0.0 ], [ 110.807793, -7.005253, 0.0 ], [ 110.80744, -7.005466000999984, 0.0 ], [ 110.807290000000123, -7.00562, 0.0 ], [ 110.807149, -7.00588, 0.0 ], [ 110.806996, -7.005921, 0.0 ], [ 110.806796000000105, -7.006018, 0.0 ], [ 110.806551, -7.006255, 0.0 ], [ 110.806656, -7.006319, 0.0 ], [ 110.806848, -7.006343000999983, 0.0 ], [ 110.806935, -7.006381, 0.0 ], [ 110.807062, -7.006544, 0.0 ], [ 110.807027, -7.006683, 0.0 ], [ 110.806907, -7.006879, 0.0 ], [ 110.806718, -7.007072, 0.0 ], [ 110.806538, -7.007139, 0.0 ], [ 110.806254000000109, -7.007149, 0.0 ], [ 110.806073, -7.007167, 0.0 ], [ 110.805801000000116, -7.007243, 0.0 ], [ 110.805688, -7.007302, 0.0 ], [ 110.805182, -7.007224, 0.0 ], [ 110.804772, -7.007139, 0.0 ], [ 110.803951, -7.007033, 0.0 ], [ 110.803427, -7.006983, 0.0 ], [ 110.802677, -7.00699, 0.0 ], [ 110.801849, -7.00699, 0.0 ], [ 110.801262, -7.007025000999924, 0.0 ], [ 110.80083, -7.007081, 0.0 ], [ 110.800653, -7.007166, 0.0 ], [ 110.800469000000106, -7.007342, 0.0 ], [ 110.800122, -7.007639, 0.0 ], [ 110.799711, -7.008006, 0.0 ], [ 110.799279, -7.008472, 0.0 ], [ 110.798918000000114, -7.008924, 0.0 ], [ 110.798727, -7.00927, 0.0 ], [ 110.798571, -7.009687, 0.0 ], [ 110.798451, -7.010025999999893, 0.0 ], [ 110.798422000000102, -7.010337, 0.0 ], [ 110.798479, -7.010754, 0.0 ], [ 110.79857, -7.011051, 0.0 ], [ 110.798818, -7.011623, 0.0 ], [ 110.799313, -7.012202, 0.0 ], [ 110.799837000000124, -7.012761, 0.0 ], [ 110.800268, -7.013192, 0.0 ], [ 110.8006010000001, -7.013616, 0.0 ], [ 110.800749, -7.013941, 0.0 ], [ 110.800834000000108, -7.014337, 0.0 ], [ 110.800855, -7.014725, 0.0 ], [ 110.800791000000103, -7.01493, 0.0 ], [ 110.800522, -7.015326, 0.0 ], [ 110.800104, -7.015629, 0.0 ], [ 110.799736, -7.015848, 0.0 ], [ 110.799007000000103, -7.016137, 0.0 ], [ 110.798122, -7.016398, 0.0 ], [ 110.797153, -7.016695, 0.0 ], [ 110.796247, -7.016998, 0.0 ], [ 110.795227, -7.017308, 0.0 ], [ 110.794434, -7.017591, 0.0 ], [ 110.79416, -7.017688, 0.0 ], [ 110.794268, -7.01725, 0.0 ], [ 110.794455, -7.016357, 0.0 ], [ 110.79454800000012, -7.015777, 0.0 ], [ 110.794571, -7.015185, 0.0 ], [ 110.794397, -7.014628, 0.0 ], [ 110.794037, -7.014106, 0.0 ], [ 110.793607, -7.013596, 0.0 ], [ 110.793143, -7.013259, 0.0 ], [ 110.792724, -7.013143, 0.0 ], [ 110.792259, -7.013131, 0.0 ], [ 110.791864, -7.013235, 0.0 ], [ 110.791260000000108, -7.01356, 0.0 ], [ 110.790609, -7.013965, 0.0 ], [ 110.789975000000112, -7.014317, 0.0 ], [ 110.789648, -7.014471, 0.0 ], [ 110.789191, -7.014757, 0.0 ], [ 110.78886, -7.014885000999939, 0.0 ], [ 110.788707, -7.014932, 0.0 ], [ 110.788601000000114, -7.014965, 0.0 ], [ 110.787619, -7.015264, 0.0 ], [ 110.787068, -7.015418, 0.0 ], [ 110.786435, -7.015651999999896, 0.0 ], [ 110.786221, -7.015757, 0.0 ], [ 110.786, -7.015975, 0.0 ], [ 110.785869, -7.01612, 0.0 ], [ 110.785677000000121, -7.016243, 0.0 ], [ 110.785495, -7.016375, 0.0 ], [ 110.785421, -7.016499, 0.0 ], [ 110.785501, -7.016621000999958, 0.0 ], [ 110.785551, -7.016653, 0.0 ], [ 110.784422000000106, -7.016857, 0.0 ], [ 110.783934, -7.016775, 0.0 ], [ 110.783736, -7.016648, 0.0 ], [ 110.78355, -7.016427, 0.0 ], [ 110.783457, -7.016114000999931, 0.0 ], [ 110.783434, -7.015777, 0.0 ], [ 110.783527, -7.015418, 0.0 ], [ 110.783760000000129, -7.014815, 0.0 ], [ 110.784132, -7.014188, 0.0 ], [ 110.784377, -7.013806, 0.0 ], [ 110.784644, -7.01326, 0.0 ], [ 110.78483, -7.012727, 0.0 ], [ 110.784889000000106, -7.012216, 0.0 ], [ 110.784877, -7.01188, 0.0 ], [ 110.784657, -7.011543, 0.0 ], [ 110.784389, -7.011323, 0.0 ], [ 110.784679, -7.010874, 0.0 ], [ 110.78492, -7.010504, 0.0 ], [ 110.785161, -7.010123, 0.0 ], [ 110.785292, -7.009712, 0.0 ], [ 110.785322, -7.009441, 0.0 ], [ 110.785252, -7.00927, 0.0 ], [ 110.784961, -7.008999, 0.0 ], [ 110.784549, -7.008789, 0.0 ], [ 110.783816, -7.008417, 0.0 ], [ 110.783203, -7.008006, 0.0 ], [ 110.782822, -7.007575, 0.0 ], [ 110.782641, -7.006953, 0.0 ], [ 110.782541, -7.006391, 0.0 ], [ 110.78243100000013, -7.00601, 0.0 ], [ 110.782281, -7.005833, 0.0 ], [ 110.781725, -7.005768, 0.0 ], [ 110.781663, -7.005756, 0.0 ], [ 110.781609, -7.005758000999986, 0.0 ], [ 110.78129, -7.005743999999893, 0.0 ], [ 110.781156, -7.005705, 0.0 ], [ 110.780658, -7.005593, 0.0 ], [ 110.780484, -7.005557, 0.0 ], [ 110.78021, -7.005465001, 0.0 ], [ 110.780176, -7.005450999999898, 0.0 ], [ 110.779733, -7.00522, 0.0 ], [ 110.779487, -7.005023, 0.0 ], [ 110.779421, -7.004953, 0.0 ], [ 110.779114, -7.004583, 0.0 ], [ 110.779091, -7.004546, 0.0 ], [ 110.778873, -7.004134, 0.0 ], [ 110.77877, -7.003935, 0.0 ], [ 110.778468, -7.003319, 0.0 ], [ 110.778381, -7.003148, 0.0 ], [ 110.778104, -7.002556, 0.0 ], [ 110.77792, -7.002153, 0.0 ], [ 110.77778, -7.001816, 0.0 ], [ 110.777636, -7.001465, 0.0 ], [ 110.777256, -7.000502, 0.0 ], [ 110.777235, -7.000447, 0.0 ], [ 110.777086, -7.000133, 0.0 ], [ 110.777075, -7.000114, 0.0 ], [ 110.777096000000128, -7.000052, 0.0 ], [ 110.777108755000114, -7.0, 0.0 ], [ 110.777109, -6.999999, 0.0 ], [ 110.77711, -6.999994, 0.0 ], [ 110.777212, -6.999576000999987, 0.0 ], [ 110.777274, -6.999227, 0.0 ], [ 110.777333, -6.99904, 0.0 ], [ 110.777586, -6.998295, 0.0 ], [ 110.777604, -6.998216, 0.0 ], [ 110.777792, -6.997281999999895, 0.0 ], [ 110.778015, -6.996444, 0.0 ], [ 110.778081, -6.996166, 0.0 ], [ 110.7781090000001, -6.996046000999947, 0.0 ], [ 110.778211, -6.995592, 0.0 ], [ 110.778256, -6.995303, 0.0 ], [ 110.778267000000113, -6.995165, 0.0 ], [ 110.778276, -6.9945, 0.0 ], [ 110.778321, -6.994156, 0.0 ], [ 110.778417, -6.993274, 0.0 ], [ 110.778521, -6.992715, 0.0 ], [ 110.778626, -6.992370999999899, 0.0 ], [ 110.778503, -6.992379, 0.0 ], [ 110.778042, -6.992245, 0.0 ], [ 110.777431, -6.991986, 0.0 ], [ 110.777279, -6.991901, 0.0 ], [ 110.776988, -6.991828, 0.0 ], [ 110.77575, -6.991347001, 0.0 ], [ 110.775501, -6.991264, 0.0 ], [ 110.775438, -6.991257, 0.0 ], [ 110.7754, -6.991266, 0.0 ], [ 110.774416, -6.991227, 0.0 ], [ 110.774206, -6.991158999999893, 0.0 ], [ 110.773981, -6.991165, 0.0 ], [ 110.773012, -6.991257, 0.0 ], [ 110.772615000000101, -6.991146, 0.0 ], [ 110.772584, -6.991071, 0.0 ], [ 110.772386, -6.990962, 0.0 ], [ 110.772570000000101, -6.99068, 0.0 ], [ 110.772655, -6.990314, 0.0 ], [ 110.772684000000126, -6.989679, 0.0 ], [ 110.772515, -6.988917, 0.0 ], [ 110.772190000000109, -6.98831, 0.0 ], [ 110.771738, -6.987774, 0.0 ], [ 110.770566000000116, -6.98666, 0.0 ], [ 110.769831, -6.986053, 0.0 ], [ 110.76928, -6.985587, 0.0 ], [ 110.768292, -6.984853000999937, 0.0 ], [ 110.767854, -6.984345000999916, 0.0 ], [ 110.767635, -6.984161, 0.0 ], [ 110.767416, -6.983978, 0.0 ], [ 110.766583, -6.983793999999889, 0.0 ], [ 110.765608, -6.983793999999889, 0.0 ], [ 110.7649720000001, -6.983949, 0.0 ], [ 110.763912, -6.984343, 0.0 ], [ 110.762894000000117, -6.984949, 0.0 ], [ 110.762244, -6.985245, 0.0 ], [ 110.762145000000132, -6.985174, 0.0 ], [ 110.761722, -6.984765, 0.0 ], [ 110.761651000000114, -6.984441, 0.0 ], [ 110.761595, -6.983721000999978, 0.0 ], [ 110.761426, -6.983256, 0.0 ], [ 110.761369, -6.982945, 0.0 ], [ 110.761398, -6.98224, 0.0 ], [ 110.761483, -6.981366, 0.0 ], [ 110.761611, -6.980717, 0.0 ], [ 110.762049, -6.980238, 0.0 ], [ 110.762713, -6.979758, 0.0 ], [ 110.763038, -6.979632, 0.0 ], [ 110.763462, -6.979576, 0.0 ], [ 110.764027, -6.979576, 0.0 ], [ 110.764677, -6.979689, 0.0 ], [ 110.76592, -6.979943, 0.0 ], [ 110.76681000000012, -6.980126999999882, 0.0 ], [ 110.767517, -6.980184, 0.0 ], [ 110.768068000000113, -6.980156, 0.0 ], [ 110.768548, -6.980072, 0.0 ], [ 110.768888000000103, -6.979705, 0.0 ], [ 110.769764000000109, -6.979014, 0.0 ], [ 110.771036, -6.978014, 0.0 ], [ 110.771757, -6.977661, 0.0 ], [ 110.772591, -6.977112, 0.0 ], [ 110.773368, -6.976421, 0.0 ], [ 110.773905, -6.975885, 0.0 ], [ 110.774245, -6.975307, 0.0 ], [ 110.774316, -6.974757, 0.0 ], [ 110.774217, -6.974503, 0.0 ], [ 110.773991, -6.974207, 0.0 ], [ 110.773511, -6.973939, 0.0 ], [ 110.772395000000103, -6.973402, 0.0 ], [ 110.770629, -6.973373, 0.0 ], [ 110.769060000000124, -6.97357, 0.0 ], [ 110.76752, -6.973682, 0.0 ], [ 110.766616, -6.973639000999967, 0.0 ], [ 110.76574, -6.973441, 0.0 ], [ 110.765104, -6.973046, 0.0 ], [ 110.764808000000116, -6.972665, 0.0 ], [ 110.764667, -6.972143, 0.0 ], [ 110.764865, -6.97069, 0.0 ], [ 110.76512, -6.969915, 0.0 ], [ 110.765572, -6.969323, 0.0 ], [ 110.766307, -6.968674, 0.0 ], [ 110.767523, -6.967969, 0.0 ], [ 110.768979, -6.967335, 0.0 ], [ 110.770759, -6.966532, 0.0 ], [ 110.774271, -6.965137, 0.0 ], [ 110.775272000000115, -6.964792, 0.0 ], [ 110.775373, -6.964748, 0.0 ], [ 110.776018000000107, -6.964466, 0.0 ], [ 110.776364, -6.964157, 0.0 ], [ 110.776546, -6.963703, 0.0 ], [ 110.776528, -6.963085, 0.0 ], [ 110.776292, -6.962486, 0.0 ], [ 110.775801000000101, -6.961741, 0.0 ], [ 110.774892000000108, -6.960687, 0.0 ], [ 110.774382000000102, -6.959923, 0.0 ], [ 110.774146000000115, -6.959469, 0.0 ], [ 110.773946, -6.958833, 0.0 ], [ 110.773892, -6.958197, 0.0 ], [ 110.773965, -6.957598, 0.0 ], [ 110.774238, -6.95669, 0.0 ], [ 110.774348000000131, -6.955927, 0.0 ], [ 110.774294, -6.955, 0.0 ], [ 110.773821, -6.95371, 0.0 ], [ 110.773476000000102, -6.952856, 0.0 ], [ 110.773385, -6.95202, 0.0 ], [ 110.773531, -6.951621001000021, 0.0 ], [ 110.773895, -6.951185, 0.0 ], [ 110.774496, -6.95104, 0.0 ], [ 110.775442, -6.950968, 0.0 ], [ 110.775843000000108, -6.950913, 0.0 ], [ 110.776734, -6.950514, 0.0 ], [ 110.777626, -6.949897, 0.0 ], [ 110.778227000000101, -6.94937, 0.0 ], [ 110.778537, -6.948898, 0.0 ], [ 110.778607, -6.948654, 0.0 ], [ 110.779451, -6.948984, 0.0 ], [ 110.780761, -6.949166, 0.0 ], [ 110.78198, -6.949458, 0.0 ], [ 110.78269, -6.94993, 0.0 ], [ 110.783053, -6.950765999999888, 0.0 ], [ 110.783344, -6.951911, 0.0 ], [ 110.783765, -6.951627, 0.0 ], [ 110.785157, -6.951062, 0.0 ], [ 110.786906, -6.950546, 0.0 ], [ 110.788752, -6.950175, 0.0 ], [ 110.790743, -6.949965, 0.0 ], [ 110.791909, -6.949998, 0.0 ], [ 110.793382, -6.950387, 0.0 ], [ 110.794773, -6.951131, 0.0 ], [ 110.796376, -6.95189099999989, 0.0 ], [ 110.797363, -6.952118, 0.0 ], [ 110.798247494510704, -6.951759902413709, 0.0 ], [ 110.798592935606706, -6.952004928684989, 0.0 ], [ 110.798865724813197, -6.95219654157356, 0.0 ], [ 110.800401660721505, -6.953302263911651, 0.0 ], [ 110.801672460059905, -6.95420413940859, 0.0 ], [ 110.802626007332293, -6.953997248817561, 0.0 ], [ 110.803013091022095, -6.954732658239236, 0.0 ], [ 110.803344684116098, -6.955389289029201, 0.0 ], [ 110.8034764552403, -6.955422326654927, 0.0 ], [ 110.804795152707001, -6.954421292356382, 0.0 ], [ 110.805302, -6.955073001, 0.0 ], [ 110.805961, -6.955241, 0.0 ], [ 110.806421, -6.95539, 0.0 ], [ 110.806516, -6.955433, 0.0 ], [ 110.806687, -6.955451, 0.0 ], [ 110.808241, -6.955516, 0.0 ], [ 110.809309, -6.955339, 0.0 ], [ 110.810426, -6.955242, 0.0 ], [ 110.811333, -6.955307000999909, 0.0 ], [ 110.812328, -6.955484, 0.0 ], [ 110.814037, -6.957828, 0.0 ], [ 110.814965, -6.95922700099989, 0.0 ], [ 110.81571, -6.961008, 0.0 ], [ 110.816074, -6.96228, 0.0 ], [ 110.81631, -6.963551, 0.0 ], [ 110.816309, -6.964605, 0.0 ], [ 110.81589, -6.965986, 0.0 ], [ 110.81518, -6.967639, 0.0 ], [ 110.814742, -6.969019, 0.0 ], [ 110.814378, -6.970854, 0.0 ], [ 110.814031, -6.972543, 0.0 ], [ 110.813485, -6.973905, 0.0 ], [ 110.812793, -6.975104, 0.0 ], [ 110.81201, -6.976157, 0.0 ], [ 110.811136, -6.977229, 0.0 ], [ 110.809862, -6.978482, 0.0 ], [ 110.808951, -6.979299, 0.0 ], [ 110.808059, -6.979608, 0.0 ], [ 110.806858, -6.979752, 0.0 ], [ 110.805384, -6.979734, 0.0 ], [ 110.80391, -6.979569, 0.0 ], [ 110.803549000000118, -6.98075, 0.0 ], [ 110.803294, -6.981786, 0.0 ], [ 110.803239, -6.982839, 0.0 ], [ 110.803275, -6.983584000999922, 0.0 ], [ 110.803348, -6.984547, 0.0 ], [ 110.803401, -6.986327, 0.0 ], [ 110.803565, -6.987944, 0.0 ], [ 110.803782, -6.988998, 0.0 ], [ 110.804073, -6.989688000999951, 0.0 ], [ 110.804375, -6.990207, 0.0 ], [ 110.80442, -6.990253, 0.0 ], [ 110.804668, -6.990558, 0.0 ], [ 110.805111, -6.990989, 0.0 ], [ 110.80541, -6.991174, 0.0 ], [ 110.805477, -6.991217, 0.0 ], [ 110.805553000000117, -6.991269000999935, 0.0 ], [ 110.805802000000114, -6.991356, 0.0 ], [ 110.806219, -6.991485, 0.0 ], [ 110.806407, -6.991667, 0.0 ], [ 110.806634000000116, -6.991922, 0.0 ], [ 110.806709, -6.991991999999893, 0.0 ], [ 110.807031, -6.992249, 0.0 ], [ 110.807046, -6.992257, 0.0 ], [ 110.807214, -6.992295, 0.0 ], [ 110.807574, -6.992262, 0.0 ], [ 110.807836, -6.992189, 0.0 ], [ 110.807946, -6.992201, 0.0 ], [ 110.808189, -6.992289, 0.0 ], [ 110.808312, -6.99241, 0.0 ], [ 110.808594, -6.99281, 0.0 ], [ 110.808662, -6.993195, 0.0 ], [ 110.808758, -6.993581, 0.0 ], [ 110.8089, -6.993866, 0.0 ], [ 110.808975000000103, -6.993963, 0.0 ], [ 110.809012, -6.994033, 0.0 ], [ 110.809216, -6.994344, 0.0 ], [ 110.809282, -6.99452, 0.0 ], [ 110.809302, -6.994756, 0.0 ], [ 110.809064, -6.99608600099997, 0.0 ], [ 110.809069, -6.996351, 0.0 ], [ 110.809145, -6.99654, 0.0 ], [ 110.809253, -6.996771, 0.0 ], [ 110.809288, -6.996849, 0.0 ], [ 110.809402, -6.997095, 0.0 ], [ 110.809488, -6.997173, 0.0 ], [ 110.80973, -6.997412000999905, 0.0 ], [ 110.809985, -6.998156, 0.0 ], [ 110.810403, -6.999119, 0.0 ], [ 110.810907, -6.999999, 0.0 ], [ 110.810908715000039, -7.0, 0.0 ], [ 110.811449, -7.000315, 0.0 ], [ 110.811295000000115, -7.000407, 0.0 ], [ 110.811263, -7.000514, 0.0 ] ] ] ] } }
]
}
