{
"type": "FeatureCollection",
"name": "TALANG_MIDDLE",
"crs": { "type": "name", "properties": { "name": "urn:ogc:def:crs:OGC:1.3:CRS84" } },
"features": [
{ "type": "Feature", "properties": { "Name": "Middle", "descriptio": null, "timestamp": null, "begin": null, "end": null, "altitudeMo": null, "tessellate": -1, "extrude": 0, "visibility": -1, "drawOrder": null, "icon": null, "GID_4": "IDN.11.8.8.7_1", "GID_0": "IDN", "COUNTRY": "Indonesia", "GID_1": "IDN.11_1", "NAME_1": "Jawa Timur", "GID_2": "IDN.11.8_1", "NAME_2": "Jember", "GID_3": "IDN.11.8.8_1", "NAME_3": "Jenggawah", "NAME_4": "Sruni", "VARNAME_4": "NA", "TYPE_4": "Desa", "ENGTYPE_4": "Village", "CC_4": "3509100004", "layer": "ADM_SRUNI", "path": "/home/shohibul/KERJA/DATA/Irigasi Talang 2023/TALANG MAP/JENGGAWAH/Sruni/ADM_SRUNI.shp" }, "geometry": { "type": "MultiPolygon", "coordinates": [ [ [ [ 113.66318512, -8.332769393999969, 0.0 ], [ 113.661956787, -8.3324003219999, 0.0 ], [ 113.661087037, -8.332116125999899, 0.0 ], [ 113.660354615, -8.33194637299982, 0.0 ], [ 113.659996033, -8.33202075899993, 0.0 ], [ 113.659622193, -8.332096099999941, 0.0 ], [ 113.659103394, -8.332307814999981, 0.0 ], [ 113.658172608, -8.33239650699994, 0.0 ], [ 113.657760621, -8.33242797799994, 0.0 ], [ 113.65700531, -8.332550048999961, 0.0 ], [ 113.656097413, -8.332555769999891, 0.0 ], [ 113.655250549, -8.33244514399996, 0.0 ], [ 113.654403686, -8.33233451899997, 0.0 ], [ 113.653533935, -8.33225345499983, 0.0 ], [ 113.653068543, -8.33221817099991, 0.0 ], [ 113.65283203, -8.33220004999993, 0.0 ], [ 113.65209198, -8.332067488999879, 0.0 ], [ 113.651893616, -8.33203220299993, 0.0 ], [ 113.651107789, -8.331833837999911, 0.0 ], [ 113.650527954, -8.33183765299998, 0.0 ], [ 113.649734497, -8.33184337599994, 0.0 ], [ 113.649635315, -8.33184337599994, 0.0 ], [ 113.649040222, -8.331848143999929, 0.0 ], [ 113.648521423, -8.33185100599991, 0.0 ], [ 113.648368836, -8.33185195899989, 0.0 ], [ 113.647285462, -8.33162689099993, 0.0 ], [ 113.646766663, -8.331642150999871, 0.0 ], [ 113.646003723, -8.33166503799993, 0.0 ], [ 113.644920349, -8.33158206899998, 0.0 ], [ 113.644111634, -8.33128070699996, 0.0 ], [ 113.643974305, -8.3314666739999, 0.0 ], [ 113.643241883, -8.332022666999929, 0.0 ], [ 113.643226623, -8.332129478999949, 0.0 ], [ 113.643188476, -8.33239364699995, 0.0 ], [ 113.643066407, -8.3324003219999, 0.0 ], [ 113.642921448, -8.332747458999849, 0.0 ], [ 113.641021729, -8.333127975999959, 0.0 ], [ 113.639472962, -8.332662581999839, 0.0 ], [ 113.638679504, -8.331658362999971, 0.0 ], [ 113.638565064, -8.330846786999871, 0.0 ], [ 113.637687683, -8.33054447199993, 0.0 ], [ 113.635086059, -8.32882308899997, 0.0 ], [ 113.633979797, -8.32726097099993, 0.0 ], [ 113.634140014, -8.326699256999969, 0.0 ], [ 113.632957459, -8.326118469999811, 0.0 ], [ 113.629226684, -8.323947905999891, 0.0 ], [ 113.629180909, -8.323730467999949, 0.0 ], [ 113.629142762, -8.323604582999909, 0.0 ], [ 113.628997803, -8.32312965299997, 0.0 ], [ 113.628791809, -8.32252025599996, 0.0 ], [ 113.628601075, -8.3220567699999, 0.0 ], [ 113.625289917, -8.31989097599995, 0.0 ], [ 113.623710633, -8.31920146899995, 0.0 ], [ 113.623901367, -8.31875133499989, 0.0 ], [ 113.623001099, -8.318505285999951, 0.0 ], [ 113.623085021, -8.318140028999951, 0.0 ], [ 113.622238159, -8.317781446999961, 0.0 ], [ 113.622344971, -8.31716537499995, 0.0 ], [ 113.622398376, -8.3168268199999, 0.0 ], [ 113.622283936, -8.315847395999979, 0.0 ], [ 113.622329711, -8.315531730999959, 0.0 ], [ 113.622390746, -8.315174101999959, 0.0 ], [ 113.622627257, -8.314320564999949, 0.0 ], [ 113.622665406, -8.314190863999951, 0.0 ], [ 113.622604371, -8.313602445999949, 0.0 ], [ 113.6227417, -8.31304073299998, 0.0 ], [ 113.622779847, -8.312696455999911, 0.0 ], [ 113.622344971, -8.312547683999981, 0.0 ], [ 113.622116088, -8.312469482999971, 0.0 ], [ 113.62173462, -8.312340736999889, 0.0 ], [ 113.621238709, -8.312170981999881, 0.0 ], [ 113.621040345, -8.31210422599997, 0.0 ], [ 113.620491027, -8.311919211999911, 0.0 ], [ 113.618530273, -8.311287879999901, 0.0 ], [ 113.618400574, -8.311247825999891, 0.0 ], [ 113.615364074, -8.310275077999959, 0.0 ], [ 113.6150589, -8.310178755999971, 0.0 ], [ 113.613967896, -8.309730529999911, 0.0 ], [ 113.613548279, -8.309596060999979, 0.0 ], [ 113.612472534, -8.309256552999949, 0.0 ], [ 113.612495422, -8.30917644399995, 0.0 ], [ 113.610038757, -8.308282851999881, 0.0 ], [ 113.609367371, -8.30803680299994, 0.0 ], [ 113.608207702, -8.307615280999871, 0.0 ], [ 113.608024598, -8.30759048499988, 0.0 ], [ 113.604415894, -8.30710315699997, 0.0 ], [ 113.603034974, -8.30691718999987, 0.0 ], [ 113.600990296, -8.30664062499989, 0.0 ], [ 113.599617004, -8.307882307999931, 0.0 ], [ 113.598861694, -8.307606697999971, 0.0 ], [ 113.598457337, -8.307332991999891, 0.0 ], [ 113.598327636, -8.307356833999901, 0.0 ], [ 113.597961426, -8.30713939599997, 0.0 ], [ 113.597145081, -8.30668926199991, 0.0 ], [ 113.596420289, -8.30632686499996, 0.0 ], [ 113.595771789, -8.3060331339999, 0.0 ], [ 113.59552765, -8.30597114599993, 0.0 ], [ 113.594909668, -8.305811880999951, 0.0 ], [ 113.594291687, -8.305727957999981, 0.0 ], [ 113.593749999, -8.30574417099996, 0.0 ], [ 113.593536377, -8.30575084599997, 0.0 ], [ 113.592727661, -8.30579089999992, 0.0 ], [ 113.591606141, -8.30600833799997, 0.0 ], [ 113.59046936, -8.3062953939999, 0.0 ], [ 113.58997345, -8.30642700199996, 0.0 ], [ 113.589591979, -8.306529044999881, 0.0 ], [ 113.588920593, -8.30686569299996, 0.0 ], [ 113.588645935, -8.307112693999949, 0.0 ], [ 113.588554383, -8.307310103999949, 0.0 ], [ 113.588439942, -8.307310103999949, 0.0 ], [ 113.588203429, -8.307310103999949, 0.0 ], [ 113.587547303, -8.307259558999929, 0.0 ], [ 113.586669922, -8.30718040499988, 0.0 ], [ 113.585792541, -8.3070497519999, 0.0 ], [ 113.585731506, -8.30700874199988, 0.0 ], [ 113.585639954, -8.306940078999959, 0.0 ], [ 113.585456848, -8.306659697999979, 0.0 ], [ 113.585166932, -8.30609989199991, 0.0 ], [ 113.584976196, -8.305769918999889, 0.0 ], [ 113.584709168, -8.30525016699994, 0.0 ], [ 113.584472657, -8.30480956899993, 0.0 ], [ 113.584243774, -8.30448818199994, 0.0 ], [ 113.584083556, -8.30426025399993, 0.0 ], [ 113.583518982, -8.3035202019999, 0.0 ], [ 113.583183289, -8.30309009599995, 0.0 ], [ 113.582763672, -8.30249977099993, 0.0 ], [ 113.582283019, -8.301859855999909, 0.0 ], [ 113.581848144, -8.30125045699987, 0.0 ], [ 113.581542969, -8.30074977899983, 0.0 ], [ 113.581306458, -8.30031013599995, 0.0 ], [ 113.581069947, -8.299885748999939, 0.0 ], [ 113.580718994, -8.299269676999931, 0.0 ], [ 113.580657958, -8.299156188999969, 0.0 ], [ 113.580482482, -8.29881000499989, 0.0 ], [ 113.580162047, -8.298210144999929, 0.0 ], [ 113.579856873, -8.297530172999871, 0.0 ], [ 113.579696655, -8.29718017599987, 0.0 ], [ 113.579612732, -8.296951293999941, 0.0 ], [ 113.57952118, -8.29669952399991, 0.0 ], [ 113.579673767, -8.29631996099994, 0.0 ], [ 113.579826354, -8.295700072999979, 0.0 ], [ 113.579841615, -8.29557990899997, 0.0 ], [ 113.579963683, -8.295363425999939, 0.0 ], [ 113.58039093, -8.29458999599996, 0.0 ], [ 113.58065033, -8.294030188999949, 0.0 ], [ 113.581001282, -8.29349994699993, 0.0 ], [ 113.581237793, -8.293219565999831, 0.0 ], [ 113.581489562, -8.292989729999929, 0.0 ], [ 113.581886291, -8.292587278999919, 0.0 ], [ 113.58203125, -8.292436598999871, 0.0 ], [ 113.582489014, -8.29193019799993, 0.0 ], [ 113.582656859, -8.291760444999969, 0.0 ], [ 113.583488463, -8.290900229999981, 0.0 ], [ 113.583572387, -8.290829658999879, 0.0 ], [ 113.584129333, -8.28822803499992, 0.0 ], [ 113.584182738, -8.287987708999941, 0.0 ], [ 113.584480285, -8.286605833999889, 0.0 ], [ 113.584373475, -8.28645324699988, 0.0 ], [ 113.584579467, -8.285426138999981, 0.0 ], [ 113.584709168, -8.28425407399993, 0.0 ], [ 113.585060119, -8.284017561999971, 0.0 ], [ 113.585426331, -8.283652304999981, 0.0 ], [ 113.586120606, -8.283452033999881, 0.0 ], [ 113.586906433, -8.283447265999939, 0.0 ], [ 113.587722779, -8.28344154299992, 0.0 ], [ 113.588279725, -8.28356361399989, 0.0 ], [ 113.588905334, -8.28376960799989, 0.0 ], [ 113.589492797, -8.284156798999961, 0.0 ], [ 113.589622498, -8.28415584599998, 0.0 ], [ 113.590362548, -8.28415107599994, 0.0 ], [ 113.591011048, -8.28414630899988, 0.0 ], [ 113.591514587, -8.284143447999901, 0.0 ], [ 113.592300416, -8.28413867799998, 0.0 ], [ 113.592445373, -8.284137725999869, 0.0 ], [ 113.592720031, -8.28413581799998, 0.0 ], [ 113.593307496, -8.28429889599988, 0.0 ], [ 113.593437194, -8.28436088599994, 0.0 ], [ 113.593757629, -8.28452014899989, 0.0 ], [ 113.594291687, -8.28451633399993, 0.0 ], [ 113.594764709, -8.28417777999994, 0.0 ], [ 113.595191956, -8.283981322999979, 0.0 ], [ 113.595436096, -8.283865927999949, 0.0 ], [ 113.596000672, -8.2841949459999, 0.0 ], [ 113.596755982, -8.28436088599994, 0.0 ], [ 113.597084045, -8.28435897799989, 0.0 ], [ 113.597351075, -8.284357070999929, 0.0 ], [ 113.598464965, -8.28415393899996, 0.0 ], [ 113.599250794, -8.283953666999929, 0.0 ], [ 113.599830627, -8.283574103999969, 0.0 ], [ 113.599937439, -8.28350639299987, 0.0 ], [ 113.600067138, -8.283345222999969, 0.0 ], [ 113.600898742, -8.282964705999969, 0.0 ], [ 113.601715087, -8.283071517999931, 0.0 ], [ 113.60218811, -8.28301238999995, 0.0 ], [ 113.602447509, -8.283088683999949, 0.0 ], [ 113.602493286, -8.28295898499988, 0.0 ], [ 113.602653504, -8.283002852999971, 0.0 ], [ 113.602821349, -8.282952307999951, 0.0 ], [ 113.602897645, -8.28293132699997, 0.0 ], [ 113.603126526, -8.282754897999951, 0.0 ], [ 113.603355407, -8.282858847999931, 0.0 ], [ 113.603507996, -8.28275203599998, 0.0 ], [ 113.603805543, -8.282487867999979, 0.0 ], [ 113.604019165, -8.28229427399992, 0.0 ], [ 113.604385375, -8.28215122199992, 0.0 ], [ 113.604629516, -8.282342910999891, 0.0 ], [ 113.604934693, -8.282410621999871, 0.0 ], [ 113.605316161, -8.28247833299997, 0.0 ], [ 113.605567933, -8.28261661399995, 0.0 ], [ 113.605773925, -8.28273773199993, 0.0 ], [ 113.605934143, -8.2826490409999, 0.0 ], [ 113.606201172, -8.282629966999931, 0.0 ], [ 113.606391906, -8.28273391699997, 0.0 ], [ 113.60647583, -8.28261089399996, 0.0 ], [ 113.606582643, -8.282364844999901, 0.0 ], [ 113.606704711, -8.28217124899987, 0.0 ], [ 113.606918336, -8.282275200999949, 0.0 ], [ 113.607017518, -8.28211689099993, 0.0 ], [ 113.607162475, -8.281853675999971, 0.0 ], [ 113.607177733, -8.281695365999949, 0.0 ], [ 113.607261657, -8.281677244999971, 0.0 ], [ 113.607582092, -8.28185081399994, 0.0 ], [ 113.60774231, -8.281831739999969, 0.0 ], [ 113.60786438, -8.281691550999881, 0.0 ], [ 113.607986451, -8.28151511999994, 0.0 ], [ 113.60810852, -8.281322478999931, 0.0 ], [ 113.608299256, -8.281110763999891, 0.0 ], [ 113.608528137, -8.28116130799998, 0.0 ], [ 113.60887909, -8.28129958999989, 0.0 ], [ 113.609138488, -8.281297682999931, 0.0 ], [ 113.609420776, -8.28112125399997, 0.0 ], [ 113.609565735, -8.28115463299997, 0.0 ], [ 113.609779358, -8.28109836599992, 0.0 ], [ 113.609848023, -8.2812204359999, 0.0 ], [ 113.610031127, -8.281490325999931, 0.0 ], [ 113.610351562, -8.28180027099995, 0.0 ], [ 113.610778809, -8.28211975099987, 0.0 ], [ 113.611228943, -8.28238010299992, 0.0 ], [ 113.611511231, -8.282487867999979, 0.0 ], [ 113.611976623, -8.28256988499993, 0.0 ], [ 113.612052917, -8.28257846799994, 0.0 ], [ 113.612197876, -8.28271579699998, 0.0 ], [ 113.612571716, -8.283089636999931, 0.0 ], [ 113.613166809, -8.28326034499992, 0.0 ], [ 113.613723755, -8.283359526999959, 0.0 ], [ 113.61467743, -8.28349971799992, 0.0 ], [ 113.615386963, -8.28359985299994, 0.0 ], [ 113.61618042, -8.28369998999989, 0.0 ], [ 113.617050171, -8.283789633999961, 0.0 ], [ 113.617927552, -8.28386974299991, 0.0 ], [ 113.61858368, -8.28394031399989, 0.0 ], [ 113.619102477, -8.283989905999929, 0.0 ], [ 113.62007141, -8.28404808099992, 0.0 ], [ 113.620185853, -8.28405380199996, 0.0 ], [ 113.620498657, -8.284070014999941, 0.0 ], [ 113.620689392, -8.284070014999941, 0.0 ], [ 113.621231079, -8.28411102199988, 0.0 ], [ 113.621360778, -8.284175871999929, 0.0 ], [ 113.621902466, -8.284470558999891, 0.0 ], [ 113.622627257, -8.284920691999901, 0.0 ], [ 113.623176575, -8.28545951799993, 0.0 ], [ 113.623687744, -8.28606891599998, 0.0 ], [ 113.62411499, -8.28648662599988, 0.0 ], [ 113.624557495, -8.286850929999961, 0.0 ], [ 113.625160218, -8.28733730299996, 0.0 ], [ 113.626121521, -8.28759384199992, 0.0 ], [ 113.626319885, -8.28761291599994, 0.0 ], [ 113.627113342, -8.28769206999988, 0.0 ], [ 113.628356933, -8.287771225999959, 0.0 ], [ 113.628982545, -8.287753104999981, 0.0 ], [ 113.629051208, -8.28779983499993, 0.0 ], [ 113.629180909, -8.28789043399996, 0.0 ], [ 113.629539489, -8.28814601799996, 0.0 ], [ 113.62978363, -8.28847122099995, 0.0 ], [ 113.630119323, -8.288664817999919, 0.0 ], [ 113.630378723, -8.28871345499994, 0.0 ], [ 113.630546571, -8.28895759599988, 0.0 ], [ 113.630813598, -8.28916454299997, 0.0 ], [ 113.631111145, -8.28946208999997, 0.0 ], [ 113.631233215, -8.289579390999901, 0.0 ], [ 113.631599425, -8.28989028999996, 0.0 ], [ 113.631759643, -8.29010391299988, 0.0 ], [ 113.631980896, -8.290396690999961, 0.0 ], [ 113.632148743, -8.290617941999869, 0.0 ], [ 113.632484436, -8.290878295999899, 0.0 ], [ 113.632972717, -8.291256903999971, 0.0 ], [ 113.633422851, -8.29143237999995, 0.0 ], [ 113.633850098, -8.2916135779999, 0.0 ], [ 113.63420868, -8.291760444999969, 0.0 ], [ 113.634544373, -8.291907309999941, 0.0 ], [ 113.634529115, -8.29202270499991, 0.0 ], [ 113.635047912, -8.292167663999919, 0.0 ], [ 113.634834289, -8.292617797999981, 0.0 ], [ 113.635238648, -8.29277324699996, 0.0 ], [ 113.635986328, -8.29287242999987, 0.0 ], [ 113.636131287, -8.292854308999891, 0.0 ], [ 113.637023927, -8.29277896799988, 0.0 ], [ 113.637542724, -8.292601584999939, 0.0 ], [ 113.637557984, -8.292304992999901, 0.0 ], [ 113.637908936, -8.292407035999929, 0.0 ], [ 113.638008118, -8.29143237999995, 0.0 ], [ 113.638916015, -8.29166984599993, 0.0 ], [ 113.639343263, -8.29165553999991, 0.0 ], [ 113.639564513, -8.291647909999821, 0.0 ], [ 113.639671326, -8.29165553999991, 0.0 ], [ 113.640266419, -8.291695594999959, 0.0 ], [ 113.640487671, -8.291711807999951, 0.0 ], [ 113.640960694, -8.29191684699987, 0.0 ], [ 113.641471863, -8.291983602999951, 0.0 ], [ 113.64199829, -8.2920322409999, 0.0 ], [ 113.642517089, -8.292011259999869, 0.0 ], [ 113.642959595, -8.292095183999949, 0.0 ], [ 113.643356323, -8.292075156999889, 0.0 ], [ 113.643547058, -8.29170894499981, 0.0 ], [ 113.64364624, -8.291460035999931, 0.0 ], [ 113.643722533, -8.29146575899995, 0.0 ], [ 113.643882751, -8.291194915999821, 0.0 ], [ 113.644065857, -8.291008949999879, 0.0 ], [ 113.644256591, -8.29085063999992, 0.0 ], [ 113.644378662, -8.290606498999979, 0.0 ], [ 113.644584656, -8.290291785999949, 0.0 ], [ 113.644920349, -8.29009818999992, 0.0 ], [ 113.645339966, -8.289886474999831, 0.0 ], [ 113.645370483, -8.289363860999909, 0.0 ], [ 113.645393371, -8.28873443599997, 0.0 ], [ 113.645309448, -8.288680075999929, 0.0 ], [ 113.645141602, -8.28849983199996, 0.0 ], [ 113.645027162, -8.288395881999969, 0.0 ], [ 113.644927979, -8.288310050999939, 0.0 ], [ 113.644836425, -8.28824806099988, 0.0 ], [ 113.644577026, -8.288080214999921, 0.0 ], [ 113.644386292, -8.28791046199996, 0.0 ], [ 113.644180297, -8.28756046299992, 0.0 ], [ 113.644149781, -8.287400245999891, 0.0 ], [ 113.64414215, -8.28719043599995, 0.0 ], [ 113.644119262, -8.28705024699997, 0.0 ], [ 113.644180297, -8.28692913099991, 0.0 ], [ 113.644340515, -8.28658008499997, 0.0 ], [ 113.644592284, -8.28617000599991, 0.0 ], [ 113.644821167, -8.28551959999993, 0.0 ], [ 113.644958496, -8.28494358099994, 0.0 ], [ 113.645072937, -8.284529685999869, 0.0 ], [ 113.645217896, -8.28423976799996, 0.0 ], [ 113.64541626, -8.28400039699989, 0.0 ], [ 113.645729065, -8.283790588999921, 0.0 ], [ 113.645942687, -8.283679961999949, 0.0 ], [ 113.646263122, -8.283630371999889, 0.0 ], [ 113.646492005, -8.28361034299996, 0.0 ], [ 113.646728516, -8.28351974399993, 0.0 ], [ 113.646827698, -8.28345966399991, 0.0 ], [ 113.647346496, -8.283140181999951, 0.0 ], [ 113.647537232, -8.282983778999951, 0.0 ], [ 113.647628784, -8.282910345999939, 0.0 ], [ 113.647743224, -8.282799719999961, 0.0 ], [ 113.648071289, -8.28234958699989, 0.0 ], [ 113.64819336, -8.282199859999929, 0.0 ], [ 113.648719787, -8.28177642799989, 0.0 ], [ 113.648887635, -8.281640052999821, 0.0 ], [ 113.649017334, -8.28153991599987, 0.0 ], [ 113.649147035, -8.28143978099996, 0.0 ], [ 113.649490356, -8.28104019099993, 0.0 ], [ 113.649673462, -8.280699729999981, 0.0 ], [ 113.649726867, -8.28055953999996, 0.0 ], [ 113.649833679, -8.28047180099998, 0.0 ], [ 113.650070191, -8.280282974999979, 0.0 ], [ 113.650177003, -8.28019046799994, 0.0 ], [ 113.651031493, -8.279299735999871, 0.0 ], [ 113.651260376, -8.278989791999891, 0.0 ], [ 113.651428222, -8.278710365999871, 0.0 ], [ 113.651679993, -8.2785100939999, 0.0 ], [ 113.651817322, -8.278450011999951, 0.0 ], [ 113.651908874, -8.278411864999949, 0.0 ], [ 113.652030945, -8.27836036699995, 0.0 ], [ 113.653320313, -8.278089521999959, 0.0 ], [ 113.653495789, -8.27805709799992, 0.0 ], [ 113.653686523, -8.27801990399996, 0.0 ], [ 113.654441833, -8.277939794999901, 0.0 ], [ 113.654823303, -8.27787971499993, 0.0 ], [ 113.65511322, -8.277959823999939, 0.0 ], [ 113.65586853, -8.27715969099984, 0.0 ], [ 113.656181335, -8.276860236999941, 0.0 ], [ 113.656448364, -8.276619910999949, 0.0 ], [ 113.656356812, -8.276470183999891, 0.0 ], [ 113.656478881, -8.27630996599987, 0.0 ], [ 113.656692506, -8.276149748999959, 0.0 ], [ 113.656761169, -8.276062011999951, 0.0 ], [ 113.656814574, -8.27599906899991, 0.0 ], [ 113.65699768, -8.27577972399996, 0.0 ], [ 113.657447814, -8.27513027099997, 0.0 ], [ 113.657737732, -8.274769781999961, 0.0 ], [ 113.658493043, -8.27402019399995, 0.0 ], [ 113.658508301, -8.273855208999979, 0.0 ], [ 113.658538818, -8.27359485599993, 0.0 ], [ 113.658805847, -8.2731170639999, 0.0 ], [ 113.659179687, -8.272676467999871, 0.0 ], [ 113.659545899, -8.27244567799988, 0.0 ], [ 113.659729003, -8.272397994999951, 0.0 ], [ 113.660156251, -8.272288322999939, 0.0 ], [ 113.660514832, -8.27211475399997, 0.0 ], [ 113.660804749, -8.271789549999941, 0.0 ], [ 113.661140442, -8.271348953999899, 0.0 ], [ 113.661407472, -8.27096652899996, 0.0 ], [ 113.661674499, -8.270468711999911, 0.0 ], [ 113.66190338, -8.27015972099991, 0.0 ], [ 113.661926269, -8.26998042999992, 0.0 ], [ 113.662071228, -8.26922988899997, 0.0 ], [ 113.662239076, -8.268871307999969, 0.0 ], [ 113.662277222, -8.268790243999939, 0.0 ], [ 113.662490845, -8.268509865999929, 0.0 ], [ 113.662597655, -8.268547057999969, 0.0 ], [ 113.662834168, -8.26818084799987, 0.0 ], [ 113.663040161, -8.26802158299995, 0.0 ], [ 113.663253784, -8.26789760499997, 0.0 ], [ 113.66355133, -8.26784705999995, 0.0 ], [ 113.663955689, -8.26790523499989, 0.0 ], [ 113.664421081, -8.26807308299993, 0.0 ], [ 113.664741516, -8.268217086999931, 0.0 ], [ 113.665130616, -8.268239020999889, 0.0 ], [ 113.665252685, -8.268171309999961, 0.0 ], [ 113.665390014, -8.26842498699995, 0.0 ], [ 113.665351867, -8.268901823999951, 0.0 ], [ 113.665351867, -8.269263265999941, 0.0 ], [ 113.665229798, -8.269634245999949, 0.0 ], [ 113.66531372, -8.2698202119999, 0.0 ], [ 113.665367127, -8.27027034799994, 0.0 ], [ 113.665367127, -8.270719526999869, 0.0 ], [ 113.665420532, -8.27118968899987, 0.0 ], [ 113.665557861, -8.2717504499999, 0.0 ], [ 113.665649413, -8.27208519099997, 0.0 ], [ 113.665756226, -8.272123336999931, 0.0 ], [ 113.665855408, -8.272160528999899, 0.0 ], [ 113.665939332, -8.27219104799997, 0.0 ], [ 113.666275025, -8.27253341699986, 0.0 ], [ 113.666603088, -8.27289295099996, 0.0 ], [ 113.666664123, -8.273349761999899, 0.0 ], [ 113.666717528, -8.273682592999929, 0.0 ], [ 113.66708374, -8.27365207699995, 0.0 ], [ 113.667640686, -8.273667334999971, 0.0 ], [ 113.668197632, -8.27366351999984, 0.0 ], [ 113.668479919, -8.273680685999921, 0.0 ], [ 113.668655396, -8.273851393999911, 0.0 ], [ 113.668884277, -8.27400207499994, 0.0 ], [ 113.668983459, -8.27419185699995, 0.0 ], [ 113.669174194, -8.274495123999881, 0.0 ], [ 113.669349671, -8.27493190699988, 0.0 ], [ 113.669410705, -8.27550315799982, 0.0 ], [ 113.669418335, -8.27607440999992, 0.0 ], [ 113.669380188, -8.27636051099995, 0.0 ], [ 113.669380188, -8.276874542999961, 0.0 ], [ 113.669357299, -8.27719783799995, 0.0 ], [ 113.66947937, -8.27725505799998, 0.0 ], [ 113.669570922, -8.27726078099994, 0.0 ], [ 113.669982911, -8.277289389999909, 0.0 ], [ 113.670440673, -8.27734374999994, 0.0 ], [ 113.670783996, -8.27724647499991, 0.0 ], [ 113.67112732, -8.277149200999929, 0.0 ], [ 113.671295165, -8.277135849999979, 0.0 ], [ 113.671737671, -8.27710247099998, 0.0 ], [ 113.672447204, -8.277045250999951, 0.0 ], [ 113.67337799, -8.27707672199989, 0.0 ], [ 113.674583434, -8.277049063999931, 0.0 ], [ 113.675903321, -8.27702140699995, 0.0 ], [ 113.677284241, -8.277138709999971, 0.0 ], [ 113.677757263, -8.27723407699995, 0.0 ], [ 113.677345276, -8.278716086999911, 0.0 ], [ 113.676605224, -8.28116607599992, 0.0 ], [ 113.67641449, -8.28176307699994, 0.0 ], [ 113.676574707, -8.28217029599989, 0.0 ], [ 113.676551819, -8.282515524999949, 0.0 ], [ 113.67667389, -8.28273391699997, 0.0 ], [ 113.677024841, -8.282825468999929, 0.0 ], [ 113.677307129, -8.28288650499991, 0.0 ], [ 113.677528382, -8.28284168199986, 0.0 ], [ 113.677940369, -8.2830076219999, 0.0 ], [ 113.678131103, -8.283226012999931, 0.0 ], [ 113.678222657, -8.28347587499991, 0.0 ], [ 113.678260804, -8.283883093999981, 0.0 ], [ 113.67854309, -8.28413200299997, 0.0 ], [ 113.678855897, -8.28438091199985, 0.0 ], [ 113.67893219, -8.284612654999931, 0.0 ], [ 113.679023742, -8.28488159099987, 0.0 ], [ 113.679435729, -8.285287856999901, 0.0 ], [ 113.679496765, -8.28534889199989, 0.0 ], [ 113.6798172, -8.28581714699993, 0.0 ], [ 113.6798172, -8.286192893999949, 0.0 ], [ 113.679885865, -8.28666305599995, 0.0 ], [ 113.679832458, -8.28716468799996, 0.0 ], [ 113.67982483, -8.28725910199995, 0.0 ], [ 113.679733276, -8.28791808999995, 0.0 ], [ 113.679458618, -8.288672447999939, 0.0 ], [ 113.6792984, -8.28914356299993, 0.0 ], [ 113.679023742, -8.289615629999959, 0.0 ], [ 113.678741454, -8.29005622799991, 0.0 ], [ 113.67855072, -8.290433882999929, 0.0 ], [ 113.678749084, -8.290808677999911, 0.0 ], [ 113.67855835, -8.29112434299992, 0.0 ], [ 113.678153992, -8.291460035999931, 0.0 ], [ 113.678131103, -8.291580198999901, 0.0 ], [ 113.678009032, -8.29174995499983, 0.0 ], [ 113.677772521, -8.292030334999939, 0.0 ], [ 113.677558899, -8.292189597999879, 0.0 ], [ 113.677627564, -8.292666434999891, 0.0 ], [ 113.677467347, -8.29288673299993, 0.0 ], [ 113.677185059, -8.29307746899997, 0.0 ], [ 113.67716217, -8.293516159999969, 0.0 ], [ 113.677314757, -8.293797492999939, 0.0 ], [ 113.67741394, -8.29407882599997, 0.0 ], [ 113.677345276, -8.294398306999939, 0.0 ], [ 113.677330018, -8.29448699999989, 0.0 ], [ 113.677253722, -8.29456043199991, 0.0 ], [ 113.677139282, -8.29473972299991, 0.0 ], [ 113.676948548, -8.294989585999931, 0.0 ], [ 113.676811219, -8.295049666999891, 0.0 ], [ 113.67640686, -8.29504013099989, 0.0 ], [ 113.676200867, -8.29508972099995, 0.0 ], [ 113.67604065, -8.29516982999991, 0.0 ], [ 113.675888061, -8.295330047999929, 0.0 ], [ 113.67578125, -8.29557990899997, 0.0 ], [ 113.675697327, -8.29586028999984, 0.0 ], [ 113.675720215, -8.29598045299991, 0.0 ], [ 113.675727845, -8.29615020799991, 0.0 ], [ 113.675628663, -8.296400069999891, 0.0 ], [ 113.675437927, -8.29687023199989, 0.0 ], [ 113.675430299, -8.297069548999961, 0.0 ], [ 113.675506592, -8.29734992999988, 0.0 ], [ 113.675567628, -8.29769039099989, 0.0 ], [ 113.675460815, -8.29790973599995, 0.0 ], [ 113.675178527, -8.298430442999971, 0.0 ], [ 113.675201416, -8.29858970499987, 0.0 ], [ 113.675247193, -8.298970222999911, 0.0 ], [ 113.675079345, -8.29926013899995, 0.0 ], [ 113.674873353, -8.299480436999939, 0.0 ], [ 113.674636842, -8.299739836999951, 0.0 ], [ 113.674560546, -8.299917219999941, 0.0 ], [ 113.674430847, -8.300230026999881, 0.0 ], [ 113.674423217, -8.300490378999941, 0.0 ], [ 113.674499513, -8.300729750999951, 0.0 ], [ 113.674621581, -8.30111980399988, 0.0 ], [ 113.674598695, -8.30129814199989, 0.0 ], [ 113.674591065, -8.30136966799995, 0.0 ], [ 113.674461364, -8.30183315199992, 0.0 ], [ 113.674369812, -8.30196952899996, 0.0 ], [ 113.674209594, -8.302229880999899, 0.0 ], [ 113.673912048, -8.302630424999901, 0.0 ], [ 113.673812866, -8.30292034099983, 0.0 ], [ 113.673721314, -8.30356025599991, 0.0 ], [ 113.67363739, -8.303700446999869, 0.0 ], [ 113.673568726, -8.30381965599997, 0.0 ], [ 113.67352295, -8.30389976399994, 0.0 ], [ 113.673294067, -8.30416870199991, 0.0 ], [ 113.673202515, -8.304280281999979, 0.0 ], [ 113.673088074, -8.304459572999971, 0.0 ], [ 113.672752381, -8.30500030599995, 0.0 ], [ 113.672042848, -8.305740355999941, 0.0 ], [ 113.671676636, -8.30613040899993, 0.0 ], [ 113.671302796, -8.306619643999911, 0.0 ], [ 113.671218872, -8.30672168599995, 0.0 ], [ 113.670921325, -8.307109831999981, 0.0 ], [ 113.670440673, -8.307999610999961, 0.0 ], [ 113.670478822, -8.308170318999879, 0.0 ], [ 113.670692444, -8.30862998899994, 0.0 ], [ 113.670852662, -8.30904960599997, 0.0 ], [ 113.67086029, -8.30912494599994, 0.0 ], [ 113.670951844, -8.30967044699992, 0.0 ], [ 113.671203613, -8.31033038999993, 0.0 ], [ 113.671211244, -8.31075477499996, 0.0 ], [ 113.671218872, -8.31118965099995, 0.0 ], [ 113.671279907, -8.311710357999971, 0.0 ], [ 113.671318054, -8.31215000099991, 0.0 ], [ 113.67124176, -8.31262969999983, 0.0 ], [ 113.671211244, -8.31276321399997, 0.0 ], [ 113.671157836, -8.31297969699995, 0.0 ], [ 113.671142578, -8.313329695999929, 0.0 ], [ 113.671157836, -8.313425062999899, 0.0 ], [ 113.671173095, -8.313509941999939, 0.0 ], [ 113.671226502, -8.313650130999971, 0.0 ], [ 113.671340942, -8.31377029399988, 0.0 ], [ 113.671577453, -8.31389045699996, 0.0 ], [ 113.671829223, -8.314009665999951, 0.0 ], [ 113.671997071, -8.314145088999959, 0.0 ], [ 113.672088623, -8.31422042799989, 0.0 ], [ 113.672233582, -8.31443404999993, 0.0 ], [ 113.672348022, -8.31460952799995, 0.0 ], [ 113.672500609, -8.31492042499991, 0.0 ], [ 113.672538758, -8.31515026099993, 0.0 ], [ 113.672523498, -8.315380096999951, 0.0 ], [ 113.672439576, -8.315569877999909, 0.0 ], [ 113.671958924, -8.31608962999991, 0.0 ], [ 113.671852111, -8.31619834799994, 0.0 ], [ 113.671783448, -8.3162717809999, 0.0 ], [ 113.671707154, -8.316349982999901, 0.0 ], [ 113.671539307, -8.316610336999929, 0.0 ], [ 113.671470641, -8.31678008999995, 0.0 ], [ 113.671630859, -8.317580222999879, 0.0 ], [ 113.671730041, -8.31805038499988, 0.0 ], [ 113.671737671, -8.318329809999909, 0.0 ], [ 113.671669005, -8.318671225999941, 0.0 ], [ 113.671630859, -8.318840026999959, 0.0 ], [ 113.671531676, -8.319210051999899, 0.0 ], [ 113.67149353, -8.31951045999989, 0.0 ], [ 113.671951294, -8.320810318999969, 0.0 ], [ 113.672012329, -8.321040152999901, 0.0 ], [ 113.672012329, -8.321350096999881, 0.0 ], [ 113.671737671, -8.322250365999929, 0.0 ], [ 113.671638489, -8.322569846999899, 0.0 ], [ 113.671600342, -8.322879790999879, 0.0 ], [ 113.671669005, -8.323369978999949, 0.0 ], [ 113.671669005, -8.323513982999939, 0.0 ], [ 113.671661377, -8.324179648999969, 0.0 ], [ 113.671699524, -8.324410437999971, 0.0 ], [ 113.671798706, -8.324680327999941, 0.0 ], [ 113.672027587, -8.3249797819999, 0.0 ], [ 113.672317505, -8.32528972599988, 0.0 ], [ 113.672439576, -8.32536983499995, 0.0 ], [ 113.672576905, -8.32538032599984, 0.0 ], [ 113.672698974, -8.32532978099994, 0.0 ], [ 113.672760009, -8.32520007999995, 0.0 ], [ 113.672752381, -8.32509994499998, 0.0 ], [ 113.673072816, -8.325308799999959, 0.0 ], [ 113.67325592, -8.32563400299995, 0.0 ], [ 113.673492431, -8.32585048699991, 0.0 ], [ 113.673561096, -8.326204298999871, 0.0 ], [ 113.673576355, -8.326613425999881, 0.0 ], [ 113.67375183, -8.32670688499991, 0.0 ], [ 113.673988342, -8.326992033999939, 0.0 ], [ 113.674125671, -8.327372550999939, 0.0 ], [ 113.674087524, -8.327604292999981, 0.0 ], [ 113.673942567, -8.327877044999919, 0.0 ], [ 113.673599243, -8.327879904999969, 0.0 ], [ 113.673240661, -8.3279905309999, 0.0 ], [ 113.673141479, -8.32808208499983, 0.0 ], [ 113.673065186, -8.328142164999919, 0.0 ], [ 113.673042297, -8.32852363499995, 0.0 ], [ 113.673225403, -8.32879447799996, 0.0 ], [ 113.673240661, -8.32914924499994, 0.0 ], [ 113.673217773, -8.329571723999891, 0.0 ], [ 113.672821044, -8.32996940599992, 0.0 ], [ 113.67263794, -8.33000755299997, 0.0 ], [ 113.672538758, -8.330027580999969, 0.0 ], [ 113.671852111, -8.330300330999879, 0.0 ], [ 113.671279907, -8.33045005799994, 0.0 ], [ 113.671073915, -8.330530166999949, 0.0 ], [ 113.670913697, -8.330744741999981, 0.0 ], [ 113.67086029, -8.330855369999879, 0.0 ], [ 113.670745849, -8.33109951099993, 0.0 ], [ 113.670722961, -8.331210135999919, 0.0 ], [ 113.670639037, -8.33152294099995, 0.0 ], [ 113.670616151, -8.33194541799992, 0.0 ], [ 113.670837401, -8.33221626299996, 0.0 ], [ 113.671104431, -8.33269119299996, 0.0 ], [ 113.671173095, -8.333058357999899, 0.0 ], [ 113.671310426, -8.333520889999869, 0.0 ], [ 113.671524048, -8.334036825999929, 0.0 ], [ 113.671661377, -8.334444044999881, 0.0 ], [ 113.671691894, -8.334703444999951, 0.0 ], [ 113.671646119, -8.33505821199998, 0.0 ], [ 113.671531676, -8.335562704999971, 0.0 ], [ 113.671531676, -8.33582115199988, 0.0 ], [ 113.671592712, -8.33607959699992, 0.0 ], [ 113.671592712, -8.33627033099998, 0.0 ], [ 113.671539307, -8.33647537299993, 0.0 ], [ 113.671363831, -8.33673477199989, 0.0 ], [ 113.671157836, -8.33694648799991, 0.0 ], [ 113.670768738, -8.336921691999979, 0.0 ], [ 113.670829773, -8.336783409999899, 0.0 ], [ 113.670143126, -8.336439131999949, 0.0 ], [ 113.669494628, -8.33599948799997, 0.0 ], [ 113.669227601, -8.33581256899987, 0.0 ], [ 113.669052125, -8.33567714599997, 0.0 ], [ 113.668952943, -8.335602759999921, 0.0 ], [ 113.668403625, -8.335394859999949, 0.0 ], [ 113.66808319, -8.33520889299996, 0.0 ], [ 113.667869567, -8.33507633199997, 0.0 ], [ 113.667510986, -8.33486747799992, 0.0 ], [ 113.666923523, -8.334541319999859, 0.0 ], [ 113.666816711, -8.334483146999901, 0.0 ], [ 113.666099549, -8.334121702999941, 0.0 ], [ 113.666015625, -8.33408451099996, 0.0 ], [ 113.66531372, -8.333770750999969, 0.0 ], [ 113.664138795, -8.333178520999979, 0.0 ], [ 113.663688659, -8.332959175999971, 0.0 ], [ 113.663429259, -8.332906722999949, 0.0 ], [ 113.663276672, -8.332821846999931, 0.0 ], [ 113.66318512, -8.332769393999969, 0.0 ] ] ] ] } }
]
}
