{
"type": "FeatureCollection",
"name": "TALANG_DOWNSTREAM",
"crs": { "type": "name", "properties": { "name": "urn:ogc:def:crs:OGC:1.3:CRS84" } },
"features": [
{ "type": "Feature", "properties": { "Name": "Downsream", "descriptio": null, "timestamp": null, "begin": null, "end": null, "altitudeMo": null, "tessellate": -1, "extrude": 0, "visibility": -1, "drawOrder": null, "icon": null, "GID_4": "IDN.11.8.29.6_1", "GID_0": "IDN", "COUNTRY": "Indonesia", "GID_1": "IDN.11_1", "NAME_1": "Jawa Timur", "GID_2": "IDN.11.8_1", "NAME_2": "Jember", "GID_3": "IDN.11.8.29_1", "NAME_3": "Tempurejo", "NAME_4": "Sidodadi", "VARNAME_4": "NA", "TYPE_4": "Desa", "ENGTYPE_4": "Village", "CC_4": "3509060005", "layer": "ADM_SIDODADI", "path": "/home/shohibul/KERJA/DATA/Irigasi Talang 2023/TALANG MAP/TEMPUREJO/Sukodadi/ADM_SIDODADI.shp" }, "geometry": { "type": "MultiPolygon", "coordinates": [ [ [ [ 113.663688659, -8.332959175999971, 0.0 ], [ 113.664138795, -8.333178520999979, 0.0 ], [ 113.66531372, -8.333770750999969, 0.0 ], [ 113.666015625, -8.33408451099996, 0.0 ], [ 113.666099549, -8.334121702999941, 0.0 ], [ 113.666816711, -8.334483146999901, 0.0 ], [ 113.666923523, -8.334541319999859, 0.0 ], [ 113.667510986, -8.33486747799992, 0.0 ], [ 113.667869567, -8.33507633199997, 0.0 ], [ 113.66808319, -8.33520889299996, 0.0 ], [ 113.668403625, -8.335394859999949, 0.0 ], [ 113.668952943, -8.335602759999921, 0.0 ], [ 113.669052125, -8.33567714599997, 0.0 ], [ 113.669227601, -8.33581256899987, 0.0 ], [ 113.669494628, -8.33599948799997, 0.0 ], [ 113.670143126, -8.336439131999949, 0.0 ], [ 113.670829773, -8.336783409999899, 0.0 ], [ 113.670768738, -8.336921691999979, 0.0 ], [ 113.671157836, -8.33694648799991, 0.0 ], [ 113.67112732, -8.337206839999959, 0.0 ], [ 113.670616151, -8.337860107999919, 0.0 ], [ 113.670356751, -8.33842468199998, 0.0 ], [ 113.670188903, -8.339031219999979, 0.0 ], [ 113.669929504, -8.339769362999959, 0.0 ], [ 113.669761658, -8.34050559899987, 0.0 ], [ 113.669593811, -8.341242788999921, 0.0 ], [ 113.669990539, -8.341586112999829, 0.0 ], [ 113.66973114, -8.342367171999969, 0.0 ], [ 113.66947174, -8.342931747999961, 0.0 ], [ 113.669487, -8.3430242529999, 0.0 ], [ 113.669563294, -8.343667029999949, 0.0 ], [ 113.669532775, -8.34373855599995, 0.0 ], [ 113.669334411, -8.344174383999929, 0.0 ], [ 113.668922424, -8.344709395999869, 0.0 ], [ 113.668922424, -8.34522914799987, 0.0 ], [ 113.668975829, -8.345834731999901, 0.0 ], [ 113.668930054, -8.34644126799998, 0.0 ], [ 113.668510437, -8.347097395999921, 0.0 ], [ 113.668457032, -8.347180366999959, 0.0 ], [ 113.668159486, -8.348091124999829, 0.0 ], [ 113.667816162, -8.348526, 0.0 ], [ 113.667388917, -8.349265097999879, 0.0 ], [ 113.667175292, -8.349872587999871, 0.0 ], [ 113.667221069, -8.35021781899991, 0.0 ], [ 113.667663575, -8.35086440999987, 0.0 ], [ 113.667884828, -8.35151195499998, 0.0 ], [ 113.668006896, -8.35196304399989, 0.0 ], [ 113.668106078, -8.352333068999879, 0.0 ], [ 113.66797638, -8.352506636999919, 0.0 ], [ 113.667289735, -8.35346412699994, 0.0 ], [ 113.667114257, -8.354201315999941, 0.0 ], [ 113.666732789, -8.35511207599995, 0.0 ], [ 113.666503906, -8.35547351799994, 0.0 ], [ 113.666641235, -8.355489730999921, 0.0 ], [ 113.666419982, -8.356271742999979, 0.0 ], [ 113.665992737, -8.3566646569999, 0.0 ], [ 113.665885924, -8.356762885999959, 0.0 ], [ 113.66569519, -8.357318876999949, 0.0 ], [ 113.66568756, -8.35781383499994, 0.0 ], [ 113.665679932, -8.3583822249999, 0.0 ], [ 113.665931701, -8.359421730999941, 0.0 ], [ 113.666534424, -8.359506606999959, 0.0 ], [ 113.667198181, -8.359635352999931, 0.0 ], [ 113.668205261, -8.360005377999929, 0.0 ], [ 113.668563842, -8.360179900999981, 0.0 ], [ 113.670951844, -8.36082363099996, 0.0 ], [ 113.672119141, -8.359601973999929, 0.0 ], [ 113.672233582, -8.35903453799995, 0.0 ], [ 113.672286987, -8.358758926999879, 0.0 ], [ 113.671905519, -8.357403753999961, 0.0 ], [ 113.671531676, -8.356037139999961, 0.0 ], [ 113.671150208, -8.355323790999879, 0.0 ], [ 113.671043396, -8.354938505999881, 0.0 ], [ 113.670982361, -8.35470867199996, 0.0 ], [ 113.670829773, -8.354152678999981, 0.0 ], [ 113.670288086, -8.352416037999889, 0.0 ], [ 113.670372009, -8.352141379999919, 0.0 ], [ 113.670783996, -8.35088825099996, 0.0 ], [ 113.671592712, -8.348966597999951, 0.0 ], [ 113.672096253, -8.347770689999949, 0.0 ], [ 113.672134399, -8.34757423299993, 0.0 ], [ 113.672668457, -8.34815788299994, 0.0 ], [ 113.673126221, -8.348213195999961, 0.0 ], [ 113.673515319, -8.34832763599996, 0.0 ], [ 113.674171448, -8.348295211999931, 0.0 ], [ 113.674438477, -8.34828281399996, 0.0 ], [ 113.676063538, -8.34815406799987, 0.0 ], [ 113.67742157, -8.348106382999839, 0.0 ], [ 113.677658081, -8.34814357699997, 0.0 ], [ 113.679321289, -8.34811210599997, 0.0 ], [ 113.682563781, -8.34805202499996, 0.0 ], [ 113.682609558, -8.34818363199992, 0.0 ], [ 113.687690736, -8.34833431099997, 0.0 ], [ 113.691947938, -8.34872531899987, 0.0 ], [ 113.693405151, -8.34860038599993, 0.0 ], [ 113.694396973, -8.34840297699998, 0.0 ], [ 113.69493103, -8.34809398699997, 0.0 ], [ 113.695281982, -8.348167418999941, 0.0 ], [ 113.695846558, -8.34805488599994, 0.0 ], [ 113.696273803, -8.34797000899994, 0.0 ], [ 113.696411132, -8.348010062999951, 0.0 ], [ 113.696556091, -8.348051070999871, 0.0 ], [ 113.696662904, -8.34808158899995, 0.0 ], [ 113.696662904, -8.348214147999951, 0.0 ], [ 113.696662904, -8.348387718999961, 0.0 ], [ 113.696434021, -8.348809240999911, 0.0 ], [ 113.696357727, -8.349191665999911, 0.0 ], [ 113.696365357, -8.34964942799996, 0.0 ], [ 113.696365357, -8.349916457999941, 0.0 ], [ 113.69632721, -8.35022258699996, 0.0 ], [ 113.696334839, -8.350642203999939, 0.0 ], [ 113.695953368, -8.35125637099998, 0.0 ], [ 113.695770264, -8.352135656999961, 0.0 ], [ 113.695686341, -8.352570534999931, 0.0 ], [ 113.696441651, -8.352499961999911, 0.0 ], [ 113.697921753, -8.352370262999949, 0.0 ], [ 113.698257446, -8.352399826999889, 0.0 ], [ 113.698623658, -8.35245990699997, 0.0 ], [ 113.69947052, -8.35268974299993, 0.0 ], [ 113.700187684, -8.352769851999939, 0.0 ], [ 113.700538635, -8.352769851999939, 0.0 ], [ 113.70149231, -8.352950094999869, 0.0 ], [ 113.702430724, -8.353030203999939, 0.0 ], [ 113.70324707, -8.35305976799998, 0.0 ], [ 113.703712464, -8.35313034099994, 0.0 ], [ 113.704460144, -8.353520393999871, 0.0 ], [ 113.704711914, -8.353569983999931, 0.0 ], [ 113.705047607, -8.353540419999939, 0.0 ], [ 113.705368042, -8.353449820999909, 0.0 ], [ 113.705917358, -8.35336971199996, 0.0 ], [ 113.70639038, -8.353489874999919, 0.0 ], [ 113.706710815, -8.353710172999969, 0.0 ], [ 113.706832886, -8.353870390999869, 0.0 ], [ 113.70702362, -8.354120254999939, 0.0 ], [ 113.707366943, -8.35490989699991, 0.0 ], [ 113.707550049, -8.35534953999996, 0.0 ], [ 113.707870484, -8.355819701999961, 0.0 ], [ 113.708030701, -8.356260299999921, 0.0 ], [ 113.707962036, -8.35661029899995, 0.0 ], [ 113.70751953, -8.357399940999811, 0.0 ], [ 113.707122802, -8.357990263999969, 0.0 ], [ 113.706619263, -8.35877036999995, 0.0 ], [ 113.706352233, -8.359430313999949, 0.0 ], [ 113.706253051, -8.36025047199996, 0.0 ], [ 113.706336975, -8.361189840999939, 0.0 ], [ 113.706420899, -8.361700057999879, 0.0 ], [ 113.706703187, -8.362030027999941, 0.0 ], [ 113.708076476, -8.362930297999981, 0.0 ], [ 113.708618164, -8.363120078999939, 0.0 ], [ 113.708808898, -8.363200187999951, 0.0 ], [ 113.709396363, -8.36349010399994, 0.0 ], [ 113.709617616, -8.363650321999961, 0.0 ], [ 113.709327697, -8.36421966599988, 0.0 ], [ 113.709289551, -8.36460971899993, 0.0 ], [ 113.709266662, -8.36538982299993, 0.0 ], [ 113.709297181, -8.36600971199994, 0.0 ], [ 113.709533692, -8.366999625999879, 0.0 ], [ 113.709754945, -8.36758136799995, 0.0 ], [ 113.709793091, -8.36767959499991, 0.0 ], [ 113.710052491, -8.368359564999929, 0.0 ], [ 113.710289002, -8.36882972699993, 0.0 ], [ 113.708839417, -8.368913650999961, 0.0 ], [ 113.705307007, -8.36873054499995, 0.0 ], [ 113.704589843, -8.36904621199994, 0.0 ], [ 113.702972412, -8.36975574499991, 0.0 ], [ 113.702064514, -8.37025356299989, 0.0 ], [ 113.699272156, -8.37141036999998, 0.0 ], [ 113.698806762, -8.371904372999889, 0.0 ], [ 113.700431823, -8.374013899999911, 0.0 ], [ 113.702575683, -8.376534462999929, 0.0 ], [ 113.703727722, -8.37781906099997, 0.0 ], [ 113.703913301, -8.37797905899987, 0.0 ], [ 113.70387442, -8.37801335599988, 0.0 ], [ 113.703651, -8.37821, 0.0 ], [ 113.70345, -8.378386, 0.0 ], [ 113.703422546, -8.378410337999981, 0.0 ], [ 113.703409765, -8.37842078999995, 0.0 ], [ 113.703239, -8.37856, 0.0 ], [ 113.703119, -8.37858, 0.0 ], [ 113.70282, -8.37863, 0.0 ], [ 113.702713, -8.37864899999988, 0.0 ], [ 113.702648229, -8.378661646999889, 0.0 ], [ 113.702438523, -8.378753183999891, 0.0 ], [ 113.7024, -8.37877, 0.0 ], [ 113.702110001, -8.37880999999982, 0.0 ], [ 113.701752, -8.37872999899986, 0.0 ], [ 113.701606971, -8.37868999199992, 0.0 ], [ 113.701460619, -8.378650038999981, 0.0 ], [ 113.701251785, -8.37865585499992, 0.0 ], [ 113.701102999, -8.37866, 0.0 ], [ 113.700508001, -8.378909998999919, 0.0 ], [ 113.700429802, -8.378945383999911, 0.0 ], [ 113.700287, -8.37901, 0.0 ], [ 113.700209, -8.379014, 0.0 ], [ 113.700146191, -8.379017844999961, 0.0 ], [ 113.700111388, -8.379019736999849, 0.0 ], [ 113.70007245, -8.379012656999979, 0.0 ], [ 113.700026534, -8.379003900999979, 0.0 ], [ 113.699966, -8.37899099999987, 0.0 ], [ 113.699912122, -8.378980202999969, 0.0 ], [ 113.699844201, -8.378995875999919, 0.0 ], [ 113.699782969, -8.37901002599995, 0.0 ], [ 113.699659687, -8.379115696999969, 0.0 ], [ 113.699608, -8.379159999999899, 0.0 ], [ 113.699532, -8.379255, 0.0 ], [ 113.699416999, -8.37940000099996, 0.0 ], [ 113.699327, -8.379477, 0.0 ], [ 113.699301247, -8.37949911699997, 0.0 ], [ 113.699241637, -8.379549978999931, 0.0 ], [ 113.698852539, -8.37959957099997, 0.0 ], [ 113.698509216, -8.37959957099997, 0.0 ], [ 113.698387813, -8.37963787099994, 0.0 ], [ 113.698349, -8.37965, 0.0 ], [ 113.698241307, -8.37977083099997, 0.0 ], [ 113.698126, -8.379908999999881, 0.0 ], [ 113.698100292, -8.379939935999969, 0.0 ], [ 113.698066712, -8.37998008699998, 0.0 ], [ 113.69791459, -8.380089703999831, 0.0 ], [ 113.697678, -8.38026, 0.0 ], [ 113.697550793, -8.38034586699996, 0.0 ], [ 113.697441101, -8.38041972999997, 0.0 ], [ 113.696868896, -8.380629539999971, 0.0 ], [ 113.696640015, -8.380669593999929, 0.0 ], [ 113.696540833, -8.380649565999869, 0.0 ], [ 113.696489467, -8.380582414999941, 0.0 ], [ 113.696358, -8.38041, 0.0 ], [ 113.696091, -8.38016, 0.0 ], [ 113.695923983, -8.380059605999969, 0.0 ], [ 113.695908, -8.38005, 0.0 ], [ 113.695648, -8.37996, 0.0 ], [ 113.695472863, -8.379940027999959, 0.0 ], [ 113.694969177, -8.380129813999931, 0.0 ], [ 113.694580079, -8.38029956899987, 0.0 ], [ 113.694229125, -8.380379675999899, 0.0 ], [ 113.693870545, -8.380399703999901, 0.0 ], [ 113.693698124, -8.380345822999971, 0.0 ], [ 113.69352, -8.38029, 0.0 ], [ 113.693313881, -8.38018998799993, 0.0 ], [ 113.693122704, -8.38017009599997, 0.0 ], [ 113.692702014, -8.38030653499993, 0.0 ], [ 113.692383, -8.38041, 0.0 ], [ 113.69227, -8.380441, 0.0 ], [ 113.692174168, -8.38046788799994, 0.0 ], [ 113.692131042, -8.380479812999971, 0.0 ], [ 113.692015697, -8.38046791199986, 0.0 ], [ 113.691883, -8.380454, 0.0 ], [ 113.69165, -8.38043, 0.0 ], [ 113.691415, -8.380406999999879, 0.0 ], [ 113.691350976, -8.380400756999959, 0.0 ], [ 113.690933228, -8.38035964899996, 0.0 ], [ 113.690200712, -8.380380011999931, 0.0 ], [ 113.690033536, -8.38038686399989, 0.0 ], [ 113.689956665, -8.38039016599993, 0.0 ], [ 113.689453126, -8.38014030399995, 0.0 ], [ 113.688918031, -8.379977664999959, 0.0 ], [ 113.688725896, -8.379919936999899, 0.0 ], [ 113.688392639, -8.379910467999929, 0.0 ], [ 113.688150965, -8.379989138999919, 0.0 ], [ 113.688026429, -8.3800296789999, 0.0 ], [ 113.687667847, -8.3799295419999, 0.0 ], [ 113.687580967, -8.37980872499992, 0.0 ], [ 113.687423706, -8.379590033999881, 0.0 ], [ 113.686538697, -8.37919998199993, 0.0 ], [ 113.686027528, -8.378860473999911, 0.0 ], [ 113.685836792, -8.37858009299987, 0.0 ], [ 113.685730017, -8.378586088999951, 0.0 ], [ 113.685310001, -8.378609998999879, 0.0 ], [ 113.684677001, -8.37871000099989, 0.0 ], [ 113.684059, -8.37854999899997, 0.0 ], [ 113.683906992, -8.37858000699987, 0.0 ], [ 113.683830911, -8.37864864499994, 0.0 ], [ 113.683815002, -8.37866306299998, 0.0 ], [ 113.683763728, -8.37870714999991, 0.0 ], [ 113.683563233, -8.37887954699988, 0.0 ], [ 113.683185019, -8.37907354499993, 0.0 ], [ 113.682899474, -8.37922000899988, 0.0 ], [ 113.682777525, -8.379286186999931, 0.0 ], [ 113.682586669, -8.379389761999899, 0.0 ], [ 113.682182313, -8.37948989899985, 0.0 ], [ 113.681442261, -8.37919998199993, 0.0 ], [ 113.681266785, -8.379139899999929, 0.0 ], [ 113.681212128, -8.37914210999992, 0.0 ], [ 113.681007385, -8.379150389999889, 0.0 ], [ 113.680746793, -8.379386551999909, 0.0 ], [ 113.680610657, -8.379509924999979, 0.0 ], [ 113.680343627, -8.3798599239999, 0.0 ], [ 113.680054931, -8.37995209299987, 0.0 ], [ 113.679779053, -8.38004016899993, 0.0 ], [ 113.679445672, -8.380036587999941, 0.0 ], [ 113.67880249, -8.3800296789999, 0.0 ], [ 113.678424178, -8.37997782799988, 0.0 ], [ 113.677932739, -8.379910467999929, 0.0 ], [ 113.677420381, -8.379686311999929, 0.0 ], [ 113.677383423, -8.37967014199995, 0.0 ], [ 113.676902879, -8.379489937999949, 0.0 ], [ 113.676691672, -8.37916899399994, 0.0 ], [ 113.676666, -8.379130000999909, 0.0 ], [ 113.676436999, -8.37877000099996, 0.0 ], [ 113.67585, -8.37875, 0.0 ], [ 113.675796758, -8.37875316899982, 0.0 ], [ 113.675682068, -8.37876033699996, 0.0 ], [ 113.675376892, -8.378780364999949, 0.0 ], [ 113.675117492, -8.37872028299995, 0.0 ], [ 113.674827576, -8.37866020199993, 0.0 ], [ 113.674425292, -8.37875518599998, 0.0 ], [ 113.67427826, -8.37878990099995, 0.0 ], [ 113.67401497, -8.378775873999929, 0.0 ], [ 113.673347474, -8.378740310999889, 0.0 ], [ 113.672943115, -8.378820419999951, 0.0 ], [ 113.672653199, -8.37904739299989, 0.0 ], [ 113.672474434, -8.379185811999889, 0.0 ], [ 113.672378637, -8.379259987999941, 0.0 ], [ 113.672130901, -8.379179643999921, 0.0 ], [ 113.671638, -8.37902, 0.0 ], [ 113.67136368, -8.379014284999929, 0.0 ], [ 113.671157836, -8.37901020099997, 0.0 ], [ 113.670849151, -8.378991439999879, 0.0 ], [ 113.670326001, -8.37896, 0.0 ], [ 113.669804076, -8.37901573899995, 0.0 ], [ 113.669296264, -8.37907028199993, 0.0 ], [ 113.668556312, -8.37923704099995, 0.0 ], [ 113.66848, -8.379253, 0.0 ], [ 113.668164, -8.37932399999988, 0.0 ], [ 113.668062249, -8.379347056999899, 0.0 ], [ 113.667961121, -8.379369735999941, 0.0 ], [ 113.667880614, -8.379381236999899, 0.0 ], [ 113.667868, -8.379383, 0.0 ], [ 113.667747, -8.3794, 0.0 ], [ 113.667408, -8.379915, 0.0 ], [ 113.667327207, -8.380038194999941, 0.0 ], [ 113.667266846, -8.380129813999931, 0.0 ], [ 113.666679382, -8.380629539999971, 0.0 ], [ 113.666304777, -8.38074759299997, 0.0 ], [ 113.666138, -8.3808, 0.0 ], [ 113.665497001, -8.3808, 0.0 ], [ 113.665336991, -8.38076609099994, 0.0 ], [ 113.664742, -8.38064, 0.0 ], [ 113.664436505, -8.380605000999941, 0.0 ], [ 113.664130999, -8.380569998999929, 0.0 ], [ 113.66348371, -8.380648663999979, 0.0 ], [ 113.662979126, -8.380709647999939, 0.0 ], [ 113.662873198, -8.38071714299997, 0.0 ], [ 113.662742, -8.380726, 0.0 ], [ 113.662575, -8.380737999999891, 0.0 ], [ 113.662535862, -8.380740795999939, 0.0 ], [ 113.661987, -8.380779998999911, 0.0 ], [ 113.661652, -8.380779998999911, 0.0 ], [ 113.661147973, -8.380803000999951, 0.0 ], [ 113.660925, -8.380812999999881, 0.0 ], [ 113.660681897, -8.38082457599995, 0.0 ], [ 113.660568237, -8.380829810999961, 0.0 ], [ 113.659812324, -8.380763553999881, 0.0 ], [ 113.659316365, -8.38072007599993, 0.0 ], [ 113.659026, -8.380755, 0.0 ], [ 113.658731425, -8.38079109699993, 0.0 ], [ 113.658569336, -8.38081073799998, 0.0 ], [ 113.658451026, -8.38082463099988, 0.0 ], [ 113.658318001, -8.38083999899993, 0.0 ], [ 113.657181, -8.38113, 0.0 ], [ 113.656912161, -8.3812866049999, 0.0 ], [ 113.656356812, -8.381609915999951, 0.0 ], [ 113.655792236, -8.38216972399988, 0.0 ], [ 113.655403138, -8.38255977499983, 0.0 ], [ 113.65483884, -8.382799984999959, 0.0 ], [ 113.654661, -8.382783, 0.0 ], [ 113.654090882, -8.38272998899987, 0.0 ], [ 113.653730734, -8.38269669399995, 0.0 ], [ 113.653442, -8.38267, 0.0 ], [ 113.652634, -8.382899999999889, 0.0 ], [ 113.652519, -8.382963, 0.0 ], [ 113.652078, -8.383208, 0.0 ], [ 113.652039, -8.38323, 0.0 ], [ 113.650840823, -8.38418013399996, 0.0 ], [ 113.65064355, -8.38432850099997, 0.0 ], [ 113.650481892, -8.384450047999909, 0.0 ], [ 113.650351876, -8.38450653299998, 0.0 ], [ 113.649193, -8.38501, 0.0 ], [ 113.647852241, -8.385584110999959, 0.0 ], [ 113.647277999, -8.38583, 0.0 ], [ 113.645637562, -8.386646779999859, 0.0 ], [ 113.64536771, -8.38678145699993, 0.0 ], [ 113.644416, -8.387387, 0.0 ], [ 113.644302368, -8.387459754999901, 0.0 ], [ 113.643821716, -8.387740134999889, 0.0 ], [ 113.643432617, -8.38798999699998, 0.0 ], [ 113.642868043, -8.38834953399987, 0.0 ], [ 113.642524719, -8.38857078399997, 0.0 ], [ 113.641647339, -8.389129637999931, 0.0 ], [ 113.639328002, -8.39072990299991, 0.0 ], [ 113.638771056, -8.391559601999919, 0.0 ], [ 113.638542175, -8.391657828999939, 0.0 ], [ 113.637817384, -8.391969680999919, 0.0 ], [ 113.637163466, -8.392163638999881, 0.0 ], [ 113.636467, -8.39237, 0.0 ], [ 113.636003, -8.392772, 0.0 ], [ 113.634605652, -8.393983366999979, 0.0 ], [ 113.634598, -8.39399, 0.0 ], [ 113.633331, -8.3951, 0.0 ], [ 113.633054, -8.39535699999988, 0.0 ], [ 113.631042, -8.39723, 0.0 ], [ 113.630894, -8.397365, 0.0 ], [ 113.630691999, -8.397549998999979, 0.0 ], [ 113.630534658, -8.397733809999981, 0.0 ], [ 113.630476328, -8.39780195899993, 0.0 ], [ 113.629686, -8.39872799999989, 0.0 ], [ 113.629495484, -8.39895183399994, 0.0 ], [ 113.629463195, -8.398989676999969, 0.0 ], [ 113.627411, -8.4014, 0.0 ], [ 113.627721034, -8.400029155999899, 0.0 ], [ 113.6278, -8.399679999999879, 0.0 ], [ 113.627909597, -8.39894623399994, 0.0 ], [ 113.628151, -8.39733, 0.0 ], [ 113.628160262, -8.397266382999931, 0.0 ], [ 113.628349, -8.39597, 0.0 ], [ 113.628236859, -8.394579455999921, 0.0 ], [ 113.628174, -8.3938, 0.0 ], [ 113.628139664, -8.393381992999879, 0.0 ], [ 113.628036001, -8.392120010999919, 0.0 ], [ 113.627787761, -8.391950597999941, 0.0 ], [ 113.62727356, -8.391599655999929, 0.0 ], [ 113.627151489, -8.39153957299993, 0.0 ], [ 113.626970866, -8.391416749999911, 0.0 ], [ 113.626961, -8.39141, 0.0 ], [ 113.626846, -8.39134, 0.0 ], [ 113.626671, -8.39124, 0.0 ], [ 113.62645, -8.391099999999881, 0.0 ], [ 113.626248544, -8.390947986999951, 0.0 ], [ 113.626190186, -8.390899657999849, 0.0 ], [ 113.626105406, -8.390825979999869, 0.0 ], [ 113.62603, -8.39076, 0.0 ], [ 113.625809, -8.39064, 0.0 ], [ 113.625596578, -8.39049441499998, 0.0 ], [ 113.625488281, -8.39041996099996, 0.0 ], [ 113.625450638, -8.390389374999931, 0.0 ], [ 113.625427, -8.39037, 0.0 ], [ 113.625377112, -8.390339034999901, 0.0 ], [ 113.625282287, -8.39027976899996, 0.0 ], [ 113.625058135, -8.390115774999909, 0.0 ], [ 113.625023, -8.39009, 0.0 ], [ 113.624916669, -8.390004755999881, 0.0 ], [ 113.624786376, -8.389900206999931, 0.0 ], [ 113.62471, -8.389819999999871, 0.0 ], [ 113.624619, -8.38974, 0.0 ], [ 113.624512, -8.38967, 0.0 ], [ 113.624268, -8.38949, 0.0 ], [ 113.624001, -8.389319999999881, 0.0 ], [ 113.623845619, -8.38923051399996, 0.0 ], [ 113.623809815, -8.38920974699994, 0.0 ], [ 113.623336793, -8.388959884999849, 0.0 ], [ 113.62322235, -8.38891982999991, 0.0 ], [ 113.623123168, -8.38887977599995, 0.0 ], [ 113.622844268, -8.38877673699994, 0.0 ], [ 113.622704, -8.38868, 0.0 ], [ 113.622597, -8.38857, 0.0 ], [ 113.622575835, -8.388542393999961, 0.0 ], [ 113.622551, -8.38851, 0.0 ], [ 113.622485027, -8.38847214599997, 0.0 ], [ 113.622429, -8.388439999999891, 0.0 ], [ 113.622368296, -8.38841937299998, 0.0 ], [ 113.622223, -8.38837, 0.0 ], [ 113.622120088, -8.388334915999909, 0.0 ], [ 113.622047, -8.38830999999988, 0.0 ], [ 113.621758, -8.388257, 0.0 ], [ 113.621582, -8.38817, 0.0 ], [ 113.621483, -8.388149999999881, 0.0 ], [ 113.621423771, -8.38811971299998, 0.0 ], [ 113.621307, -8.38805999999988, 0.0 ], [ 113.62105798, -8.38798961099997, 0.0 ], [ 113.620934, -8.38798, 0.0 ], [ 113.620846018, -8.38798921299991, 0.0 ], [ 113.620742799, -8.387999534999951, 0.0 ], [ 113.620543119, -8.388009339999879, 0.0 ], [ 113.620529, -8.38801, 0.0 ], [ 113.620422272, -8.38801, 0.0 ], [ 113.620391165, -8.388001574999979, 0.0 ], [ 113.620239, -8.38796, 0.0 ], [ 113.620022171, -8.387969187999939, 0.0 ], [ 113.620002747, -8.387969970999899, 0.0 ], [ 113.619827271, -8.387969970999899, 0.0 ], [ 113.61979547, -8.38796170299986, 0.0 ], [ 113.619637, -8.38792, 0.0 ], [ 113.619395398, -8.38781214199992, 0.0 ], [ 113.619301, -8.387769999999881, 0.0 ], [ 113.619141, -8.38771, 0.0 ], [ 113.619041712, -8.38767367499992, 0.0 ], [ 113.618813, -8.38759, 0.0 ], [ 113.618668, -8.38754, 0.0 ], [ 113.618532682, -8.38747366799987, 0.0 ], [ 113.618362427, -8.38739013599991, 0.0 ], [ 113.618068419, -8.38718188099989, 0.0 ], [ 113.617699, -8.38692, 0.0 ], [ 113.617538, -8.38681, 0.0 ], [ 113.617264, -8.38672999999989, 0.0 ], [ 113.617132013, -8.386705813999921, 0.0 ], [ 113.616882325, -8.38665962199997, 0.0 ], [ 113.616149901, -8.386289596999969, 0.0 ], [ 113.615997314, -8.38621997899997, 0.0 ], [ 113.615940783, -8.38618817899993, 0.0 ], [ 113.615891, -8.38616, 0.0 ], [ 113.61573035, -8.38606761299997, 0.0 ], [ 113.615577697, -8.38597965299982, 0.0 ], [ 113.614768982, -8.38537979199992, 0.0 ], [ 113.614242924, -8.38484991999997, 0.0 ], [ 113.614128, -8.38472999999988, 0.0 ], [ 113.613869, -8.38439, 0.0 ], [ 113.613738403, -8.38415283499984, 0.0 ], [ 113.613724, -8.383979999999839, 0.0 ], [ 113.613756925, -8.383899241999931, 0.0 ], [ 113.61377716, -8.383850097999931, 0.0 ], [ 113.613998413, -8.3836297979999, 0.0 ], [ 113.614143372, -8.383449553999981, 0.0 ], [ 113.614158136, -8.38339566699989, 0.0 ], [ 113.614182, -8.38330999999982, 0.0 ], [ 113.614245611, -8.382613876999869, 0.0 ], [ 113.614288, -8.38215, 0.0 ], [ 113.614265721, -8.38208563799992, 0.0 ], [ 113.614243, -8.38202, 0.0 ], [ 113.614133052, -8.38184753199994, 0.0 ], [ 113.614089965, -8.381779670999951, 0.0 ], [ 113.614048394, -8.381691330999899, 0.0 ], [ 113.613968, -8.38152, 0.0 ], [ 113.613991, -8.38127999999989, 0.0 ], [ 113.614182, -8.38108, 0.0 ], [ 113.61425838, -8.38097342299994, 0.0 ], [ 113.614311, -8.38089999999988, 0.0 ], [ 113.614300077, -8.38080532999987, 0.0 ], [ 113.614281, -8.38064, 0.0 ], [ 113.614250309, -8.38042402799994, 0.0 ], [ 113.614227296, -8.380260466999911, 0.0 ], [ 113.614261447, -8.38013026399989, 0.0 ], [ 113.614304, -8.37997, 0.0 ], [ 113.614315381, -8.37991309399996, 0.0 ], [ 113.614326, -8.379859999999891, 0.0 ], [ 113.614349, -8.37946, 0.0 ], [ 113.614372, -8.37893999999989, 0.0 ], [ 113.614288, -8.3787, 0.0 ], [ 113.61425363, -8.378682221999901, 0.0 ], [ 113.613998, -8.37855, 0.0 ], [ 113.613566684, -8.37839918999993, 0.0 ], [ 113.613426, -8.37835, 0.0 ], [ 113.613136, -8.378269999999871, 0.0 ], [ 113.611977, -8.37792, 0.0 ], [ 113.610313415, -8.37753009699998, 0.0 ], [ 113.610256945, -8.37749931299982, 0.0 ], [ 113.610039, -8.37738, 0.0 ], [ 113.609856039, -8.37727941899993, 0.0 ], [ 113.609657287, -8.37716960999995, 0.0 ], [ 113.609485951, -8.37706473899993, 0.0 ], [ 113.609436233, -8.37703414299995, 0.0 ], [ 113.609555643, -8.37700836199997, 0.0 ], [ 113.609688, -8.37698, 0.0 ], [ 113.609806269, -8.376923886999981, 0.0 ], [ 113.609962, -8.37685, 0.0 ], [ 113.610029452, -8.37668136999997, 0.0 ], [ 113.610062, -8.3766, 0.0 ], [ 113.610077, -8.37623999999988, 0.0 ], [ 113.610077, -8.37598999999989, 0.0 ], [ 113.609944057, -8.375778781999941, 0.0 ], [ 113.609863281, -8.375650405999981, 0.0 ], [ 113.60979139, -8.37552279799996, 0.0 ], [ 113.609711, -8.37538, 0.0 ], [ 113.609731569, -8.3752634409999, 0.0 ], [ 113.6097412, -8.375209868999949, 0.0 ], [ 113.610062, -8.375, 0.0 ], [ 113.610066011, -8.374954158999969, 0.0 ], [ 113.610069274, -8.37491989199998, 0.0 ], [ 113.610160828, -8.374810218999871, 0.0 ], [ 113.610258154, -8.37475602499995, 0.0 ], [ 113.610413, -8.37467, 0.0 ], [ 113.610462702, -8.37465367499993, 0.0 ], [ 113.610687255, -8.374580383999961, 0.0 ], [ 113.611228943, -8.37450027499983, 0.0 ], [ 113.611495628, -8.374456290999939, 0.0 ], [ 113.611778, -8.37441, 0.0 ], [ 113.611834631, -8.374386480999931, 0.0 ], [ 113.611961, -8.374334, 0.0 ], [ 113.612106, -8.37427, 0.0 ], [ 113.612253982, -8.37415244399989, 0.0 ], [ 113.61232, -8.3741, 0.0 ], [ 113.612400652, -8.373994226999971, 0.0 ], [ 113.612503, -8.37386, 0.0 ], [ 113.612534664, -8.37379219699994, 0.0 ], [ 113.612595, -8.373663, 0.0 ], [ 113.612648, -8.37354, 0.0 ], [ 113.612839, -8.37303, 0.0 ], [ 113.612984416, -8.372706852999951, 0.0 ], [ 113.613037, -8.37259, 0.0 ], [ 113.613182, -8.37218, 0.0 ], [ 113.613113, -8.37198, 0.0 ], [ 113.613091067, -8.37191200699988, 0.0 ], [ 113.613083, -8.371887, 0.0 ], [ 113.613075014, -8.371858919999969, 0.0 ], [ 113.613052368, -8.37177753499998, 0.0 ], [ 113.613026926, -8.371654301999969, 0.0 ], [ 113.613022, -8.37163, 0.0 ], [ 113.613003884, -8.371582739999949, 0.0 ], [ 113.612930298, -8.37139034199993, 0.0 ], [ 113.612907409, -8.371069908999971, 0.0 ], [ 113.612902468, -8.37078512699992, 0.0 ], [ 113.6129, -8.37063, 0.0 ], [ 113.612885, -8.370382, 0.0 ], [ 113.612877, -8.37028, 0.0 ], [ 113.612961, -8.370241, 0.0 ], [ 113.613243, -8.3701, 0.0 ], [ 113.61322, -8.36935, 0.0 ], [ 113.613129, -8.36935, 0.0 ], [ 113.613104166, -8.369152926999959, 0.0 ], [ 113.613098145, -8.369104384999959, 0.0 ], [ 113.61309163, -8.36903435799991, 0.0 ], [ 113.613083, -8.36894, 0.0 ], [ 113.612876044, -8.368962016999889, 0.0 ], [ 113.612800993, -8.36896987699993, 0.0 ], [ 113.612792487, -8.36881783899997, 0.0 ], [ 113.612785, -8.368684, 0.0 ], [ 113.61277, -8.368419999999899, 0.0 ], [ 113.612746573, -8.36816106999987, 0.0 ], [ 113.612732, -8.368, 0.0 ], [ 113.612717068, -8.36792425899989, 0.0 ], [ 113.61266327, -8.36765003099987, 0.0 ], [ 113.612617493, -8.36732959699998, 0.0 ], [ 113.612549539, -8.36682722199993, 0.0 ], [ 113.612511, -8.36654, 0.0 ], [ 113.61248893, -8.366313607999871, 0.0 ], [ 113.61248, -8.366222, 0.0 ], [ 113.612381, -8.36523, 0.0 ], [ 113.611457824, -8.365550040999951, 0.0 ], [ 113.610771, -8.36571, 0.0 ], [ 113.610657, -8.36573, 0.0 ], [ 113.610148845, -8.365788216999929, 0.0 ], [ 113.610046387, -8.36579990399991, 0.0 ], [ 113.60961914, -8.36577987599992, 0.0 ], [ 113.609557892, -8.36576908799992, 0.0 ], [ 113.609451, -8.36575, 0.0 ], [ 113.608429, -8.36561, 0.0 ], [ 113.608269, -8.36559, 0.0 ], [ 113.608162, -8.36531999999988, 0.0 ], [ 113.608109, -8.36501, 0.0 ], [ 113.608098743, -8.36470229099996, 0.0 ], [ 113.608093261, -8.36452960999998, 0.0 ], [ 113.608192443, -8.363789557999951, 0.0 ], [ 113.608201166, -8.36374703599995, 0.0 ], [ 113.608208, -8.363715, 0.0 ], [ 113.608223685, -8.36361827299987, 0.0 ], [ 113.60823822, -8.36353015799995, 0.0 ], [ 113.608252786, -8.36345368399992, 0.0 ], [ 113.608269, -8.363369999999859, 0.0 ], [ 113.608283164, -8.36328879399997, 0.0 ], [ 113.608298951, -8.36319828199993, 0.0 ], [ 113.608360291, -8.36281967199989, 0.0 ], [ 113.608367919, -8.362429618999951, 0.0 ], [ 113.608352661, -8.36213016499994, 0.0 ], [ 113.608352661, -8.362039565999909, 0.0 ], [ 113.608345033, -8.36193084599995, 0.0 ], [ 113.608329772, -8.361720085999931, 0.0 ], [ 113.608261109, -8.36133003299989, 0.0 ], [ 113.608169555, -8.36108016899993, 0.0 ], [ 113.60811615, -8.36096954299995, 0.0 ], [ 113.608032226, -8.36079978999993, 0.0 ], [ 113.607818603, -8.36052989999996, 0.0 ], [ 113.607582092, -8.360210417999889, 0.0 ], [ 113.607376098, -8.35997962899989, 0.0 ], [ 113.607315064, -8.35989761299987, 0.0 ], [ 113.607200622, -8.359689712999909, 0.0 ], [ 113.607177733, -8.359539985999961, 0.0 ], [ 113.607192994, -8.359319685999941, 0.0 ], [ 113.607215882, -8.359239576999871, 0.0 ], [ 113.607162475, -8.35896491999989, 0.0 ], [ 113.606864929, -8.358474730999941, 0.0 ], [ 113.606758118, -8.358161926999969, 0.0 ], [ 113.606712341, -8.358039855999889, 0.0 ], [ 113.606658936, -8.35787487099992, 0.0 ], [ 113.606544494, -8.35738372799989, 0.0 ], [ 113.60636139, -8.35702133099994, 0.0 ], [ 113.606063843, -8.3563308709999, 0.0 ], [ 113.606063843, -8.356144904999949, 0.0 ], [ 113.606063843, -8.356039046999911, 0.0 ], [ 113.60609436, -8.355865478999929, 0.0 ], [ 113.606025697, -8.35573482499996, 0.0 ], [ 113.605957031, -8.35560893999997, 0.0 ], [ 113.605735778, -8.35564136399995, 0.0 ], [ 113.605606079, -8.355599403999969, 0.0 ], [ 113.605392457, -8.35530757799995, 0.0 ], [ 113.605209351, -8.35504341099994, 0.0 ], [ 113.605033875, -8.35454177699995, 0.0 ], [ 113.605117797, -8.35412216199995, 0.0 ], [ 113.604698182, -8.353845596999969, 0.0 ], [ 113.604324342, -8.35320567999997, 0.0 ], [ 113.604438782, -8.35284232999993, 0.0 ], [ 113.604209899, -8.352542875999919, 0.0 ], [ 113.603477477, -8.352305411999909, 0.0 ], [ 113.603713989, -8.351007460999879, 0.0 ], [ 113.604095459, -8.35031604699998, 0.0 ], [ 113.604011535, -8.350221633999981, 0.0 ], [ 113.60396576, -8.35016345999998, 0.0 ], [ 113.603729249, -8.34988594099991, 0.0 ], [ 113.603721619, -8.349791526999979, 0.0 ], [ 113.603645325, -8.34916591499996, 0.0 ], [ 113.603599548, -8.348536490999891, 0.0 ], [ 113.603370667, -8.347174643999949, 0.0 ], [ 113.603363037, -8.347011566999919, 0.0 ], [ 113.603355407, -8.34689140399996, 0.0 ], [ 113.603385925, -8.346777915999949, 0.0 ], [ 113.603408814, -8.34670066699988, 0.0 ], [ 113.603660583, -8.346192360999909, 0.0 ], [ 113.603752135, -8.34589195199993, 0.0 ], [ 113.60369873, -8.345777510999881, 0.0 ], [ 113.60358429, -8.345524786999929, 0.0 ], [ 113.603538513, -8.34517955799987, 0.0 ], [ 113.603538513, -8.34476470899995, 0.0 ], [ 113.603637695, -8.34466457399998, 0.0 ], [ 113.603645325, -8.34453392099994, 0.0 ], [ 113.603889464, -8.34436797999996, 0.0 ], [ 113.604087829, -8.344202041999891, 0.0 ], [ 113.6043396, -8.34408855499993, 0.0 ], [ 113.604812622, -8.343857763999949, 0.0 ], [ 113.605171204, -8.343708991999961, 0.0 ], [ 113.605430604, -8.34358596899995, 0.0 ], [ 113.605529786, -8.343586920999829, 0.0 ], [ 113.605804444, -8.34359073599995, 0.0 ], [ 113.606018066, -8.343532560999961, 0.0 ], [ 113.606147765, -8.34349059999994, 0.0 ], [ 113.606246947, -8.34345817499991, 0.0 ], [ 113.606536866, -8.343220710999899, 0.0 ], [ 113.606597901, -8.34296798699995, 0.0 ], [ 113.606636048, -8.34284591699998, 0.0 ], [ 113.606658936, -8.342690466999899, 0.0 ], [ 113.606613159, -8.34244251299998, 0.0 ], [ 113.606567382, -8.341958044999959, 0.0 ], [ 113.6064682, -8.34153079999987, 0.0 ], [ 113.606338501, -8.34095859599995, 0.0 ], [ 113.606208801, -8.340507506999931, 0.0 ], [ 113.606124879, -8.34019660999996, 0.0 ], [ 113.605621338, -8.339256285999969, 0.0 ], [ 113.605270386, -8.338708877999981, 0.0 ], [ 113.604881286, -8.338120459999971, 0.0 ], [ 113.604804992, -8.337997436999901, 0.0 ], [ 113.604652405, -8.33742523199993, 0.0 ], [ 113.604621888, -8.337286948999919, 0.0 ], [ 113.604652405, -8.33688259199994, 0.0 ], [ 113.604743957, -8.336190223999949, 0.0 ], [ 113.604782104, -8.335773467999839, 0.0 ], [ 113.60470581, -8.335759161999871, 0.0 ], [ 113.604309081, -8.33568000799994, 0.0 ], [ 113.6040802, -8.33563995399987, 0.0 ], [ 113.603942872, -8.335610389999941, 0.0 ], [ 113.603538513, -8.335539816999869, 0.0 ], [ 113.602981567, -8.3353300089999, 0.0 ], [ 113.602867126, -8.33533096199989, 0.0 ], [ 113.602058411, -8.335339544999901, 0.0 ], [ 113.601699829, -8.33531761099994, 0.0 ], [ 113.601432801, -8.335300444999969, 0.0 ], [ 113.600936891, -8.335350035999969, 0.0 ], [ 113.600219727, -8.335320471999919, 0.0 ], [ 113.600120545, -8.33531475099988, 0.0 ], [ 113.600013733, -8.33530998099997, 0.0 ], [ 113.599716186, -8.33524036299997, 0.0 ], [ 113.59942627, -8.33509445099997, 0.0 ], [ 113.598991394, -8.33503055499995, 0.0 ], [ 113.598014831, -8.334745406999961, 0.0 ], [ 113.597793579, -8.33468627899992, 0.0 ], [ 113.598129272, -8.33370971599987, 0.0 ], [ 113.598297119, -8.333250044999939, 0.0 ], [ 113.598533631, -8.3326196669999, 0.0 ], [ 113.598648071, -8.331839560999869, 0.0 ], [ 113.598625183, -8.331568717999909, 0.0 ], [ 113.598617554, -8.331494331999981, 0.0 ], [ 113.598579408, -8.33104991899989, 0.0 ], [ 113.598358155, -8.330390929999909, 0.0 ], [ 113.598320008, -8.330269812999919, 0.0 ], [ 113.598022462, -8.329489707999929, 0.0 ], [ 113.597480774, -8.32849025699994, 0.0 ], [ 113.596588135, -8.3273296349999, 0.0 ], [ 113.595939637, -8.326549529999969, 0.0 ], [ 113.595161438, -8.32553958799997, 0.0 ], [ 113.594436646, -8.3244600299999, 0.0 ], [ 113.594047546, -8.32371997799993, 0.0 ], [ 113.593597412, -8.32275009199998, 0.0 ], [ 113.59324646, -8.32176017799998, 0.0 ], [ 113.592796327, -8.32024955799994, 0.0 ], [ 113.592658996, -8.31931018899996, 0.0 ], [ 113.592689514, -8.31849002799993, 0.0 ], [ 113.592880248, -8.31783008499997, 0.0 ], [ 113.593208313, -8.317319869999951, 0.0 ], [ 113.593673706, -8.316720009999869, 0.0 ], [ 113.594291687, -8.31602954799996, 0.0 ], [ 113.594833375, -8.315560340999919, 0.0 ], [ 113.595420837, -8.31515026099993, 0.0 ], [ 113.596191406, -8.3146200189999, 0.0 ], [ 113.596992493, -8.31400012999995, 0.0 ], [ 113.597747804, -8.31336021499988, 0.0 ], [ 113.598358155, -8.31268024299993, 0.0 ], [ 113.598648071, -8.31214046499991, 0.0 ], [ 113.598716737, -8.311570167999889, 0.0 ], [ 113.598548889, -8.31124019599997, 0.0 ], [ 113.598327636, -8.310979842999931, 0.0 ], [ 113.597900391, -8.310649870999949, 0.0 ], [ 113.597419739, -8.310390472999931, 0.0 ], [ 113.596748352, -8.31005000999988, 0.0 ], [ 113.596061707, -8.30980014799991, 0.0 ], [ 113.595558166, -8.309659956999949, 0.0 ], [ 113.594947815, -8.30957031199989, 0.0 ], [ 113.594329834, -8.30961990199995, 0.0 ], [ 113.593917847, -8.309701918999959, 0.0 ], [ 113.593681336, -8.30974960299983, 0.0 ], [ 113.592819213, -8.30988979199998, 0.0 ], [ 113.592102052, -8.310000419999881, 0.0 ], [ 113.591453552, -8.31007957399993, 0.0 ], [ 113.590583801, -8.31025028199997, 0.0 ], [ 113.590118409, -8.31060981799993, 0.0 ], [ 113.589576721, -8.310919760999919, 0.0 ], [ 113.58945465, -8.310943603999929, 0.0 ], [ 113.588836669, -8.31105995199988, 0.0 ], [ 113.588043214, -8.31114959599995, 0.0 ], [ 113.586891175, -8.31124019599997, 0.0 ], [ 113.585792541, -8.31130027799998, 0.0 ], [ 113.585083008, -8.3112897879999, 0.0 ], [ 113.584480285, -8.31130027799998, 0.0 ], [ 113.583877564, -8.31114006099995, 0.0 ], [ 113.583511352, -8.31083011599998, 0.0 ], [ 113.583389281, -8.310449600999901, 0.0 ], [ 113.583526612, -8.31011009199989, 0.0 ], [ 113.583892822, -8.309829711999949, 0.0 ], [ 113.584121705, -8.30970954899988, 0.0 ], [ 113.584350586, -8.30959033899995, 0.0 ], [ 113.584663391, -8.30930042199998, 0.0 ], [ 113.584953309, -8.308830259999979, 0.0 ], [ 113.585273742, -8.30832958199994, 0.0 ], [ 113.585403443, -8.307970046999911, 0.0 ], [ 113.585449218, -8.307760237999959, 0.0 ], [ 113.585586549, -8.30735969599988, 0.0 ], [ 113.585792541, -8.3070497519999, 0.0 ], [ 113.586669922, -8.30718040499988, 0.0 ], [ 113.587547303, -8.307259558999929, 0.0 ], [ 113.588203429, -8.307310103999949, 0.0 ], [ 113.588439942, -8.307310103999949, 0.0 ], [ 113.588554383, -8.307310103999949, 0.0 ], [ 113.588645935, -8.307112693999949, 0.0 ], [ 113.588920593, -8.30686569299996, 0.0 ], [ 113.589591979, -8.306529044999881, 0.0 ], [ 113.58997345, -8.30642700199996, 0.0 ], [ 113.59046936, -8.3062953939999, 0.0 ], [ 113.591606141, -8.30600833799997, 0.0 ], [ 113.592727661, -8.30579089999992, 0.0 ], [ 113.593536377, -8.30575084599997, 0.0 ], [ 113.593749999, -8.30574417099996, 0.0 ], [ 113.594291687, -8.305727957999981, 0.0 ], [ 113.594909668, -8.305811880999951, 0.0 ], [ 113.59552765, -8.30597114599993, 0.0 ], [ 113.595771789, -8.3060331339999, 0.0 ], [ 113.596420289, -8.30632686499996, 0.0 ], [ 113.597145081, -8.30668926199991, 0.0 ], [ 113.597961426, -8.30713939599997, 0.0 ], [ 113.598327636, -8.307356833999901, 0.0 ], [ 113.598457337, -8.307332991999891, 0.0 ], [ 113.598861694, -8.307606697999971, 0.0 ], [ 113.599617004, -8.307882307999931, 0.0 ], [ 113.600990296, -8.30664062499989, 0.0 ], [ 113.603034974, -8.30691718999987, 0.0 ], [ 113.604415894, -8.30710315699997, 0.0 ], [ 113.608024598, -8.30759048499988, 0.0 ], [ 113.608207702, -8.307615280999871, 0.0 ], [ 113.609367371, -8.30803680299994, 0.0 ], [ 113.610038757, -8.308282851999881, 0.0 ], [ 113.612495422, -8.30917644399995, 0.0 ], [ 113.612472534, -8.309256552999949, 0.0 ], [ 113.613548279, -8.309596060999979, 0.0 ], [ 113.613967896, -8.309730529999911, 0.0 ], [ 113.6150589, -8.310178755999971, 0.0 ], [ 113.615364074, -8.310275077999959, 0.0 ], [ 113.618400574, -8.311247825999891, 0.0 ], [ 113.618530273, -8.311287879999901, 0.0 ], [ 113.620491027, -8.311919211999911, 0.0 ], [ 113.621040345, -8.31210422599997, 0.0 ], [ 113.621238709, -8.312170981999881, 0.0 ], [ 113.62173462, -8.312340736999889, 0.0 ], [ 113.622116088, -8.312469482999971, 0.0 ], [ 113.622344971, -8.312547683999981, 0.0 ], [ 113.622779847, -8.312696455999911, 0.0 ], [ 113.6227417, -8.31304073299998, 0.0 ], [ 113.622604371, -8.313602445999949, 0.0 ], [ 113.622665406, -8.314190863999951, 0.0 ], [ 113.622627257, -8.314320564999949, 0.0 ], [ 113.622390746, -8.315174101999959, 0.0 ], [ 113.622329711, -8.315531730999959, 0.0 ], [ 113.622283936, -8.315847395999979, 0.0 ], [ 113.622398376, -8.3168268199999, 0.0 ], [ 113.622344971, -8.31716537499995, 0.0 ], [ 113.622238159, -8.317781446999961, 0.0 ], [ 113.623085021, -8.318140028999951, 0.0 ], [ 113.623001099, -8.318505285999951, 0.0 ], [ 113.623901367, -8.31875133499989, 0.0 ], [ 113.623710633, -8.31920146899995, 0.0 ], [ 113.625289917, -8.31989097599995, 0.0 ], [ 113.628601075, -8.3220567699999, 0.0 ], [ 113.628791809, -8.32252025599996, 0.0 ], [ 113.628997803, -8.32312965299997, 0.0 ], [ 113.629142762, -8.323604582999909, 0.0 ], [ 113.629180909, -8.323730467999949, 0.0 ], [ 113.629226684, -8.323947905999891, 0.0 ], [ 113.632957459, -8.326118469999811, 0.0 ], [ 113.634140014, -8.326699256999969, 0.0 ], [ 113.633979797, -8.32726097099993, 0.0 ], [ 113.635086059, -8.32882308899997, 0.0 ], [ 113.637687683, -8.33054447199993, 0.0 ], [ 113.638565064, -8.330846786999871, 0.0 ], [ 113.638679504, -8.331658362999971, 0.0 ], [ 113.639472962, -8.332662581999839, 0.0 ], [ 113.641021729, -8.333127975999959, 0.0 ], [ 113.642921448, -8.332747458999849, 0.0 ], [ 113.643066407, -8.3324003219999, 0.0 ], [ 113.643188476, -8.33239364699995, 0.0 ], [ 113.643226623, -8.332129478999949, 0.0 ], [ 113.643241883, -8.332022666999929, 0.0 ], [ 113.643974305, -8.3314666739999, 0.0 ], [ 113.644111634, -8.33128070699996, 0.0 ], [ 113.644920349, -8.33158206899998, 0.0 ], [ 113.646003723, -8.33166503799993, 0.0 ], [ 113.646766663, -8.331642150999871, 0.0 ], [ 113.647285462, -8.33162689099993, 0.0 ], [ 113.648368836, -8.33185195899989, 0.0 ], [ 113.648521423, -8.33185100599991, 0.0 ], [ 113.649040222, -8.331848143999929, 0.0 ], [ 113.649635315, -8.33184337599994, 0.0 ], [ 113.649734497, -8.33184337599994, 0.0 ], [ 113.650527954, -8.33183765299998, 0.0 ], [ 113.651107789, -8.331833837999911, 0.0 ], [ 113.651893616, -8.33203220299993, 0.0 ], [ 113.65209198, -8.332067488999879, 0.0 ], [ 113.65283203, -8.33220004999993, 0.0 ], [ 113.653068543, -8.33221817099991, 0.0 ], [ 113.653533935, -8.33225345499983, 0.0 ], [ 113.654403686, -8.33233451899997, 0.0 ], [ 113.655250549, -8.33244514399996, 0.0 ], [ 113.656097413, -8.332555769999891, 0.0 ], [ 113.65700531, -8.332550048999961, 0.0 ], [ 113.657760621, -8.33242797799994, 0.0 ], [ 113.658172608, -8.33239650699994, 0.0 ], [ 113.659103394, -8.332307814999981, 0.0 ], [ 113.659622193, -8.332096099999941, 0.0 ], [ 113.659996033, -8.33202075899993, 0.0 ], [ 113.660354615, -8.33194637299982, 0.0 ], [ 113.661087037, -8.332116125999899, 0.0 ], [ 113.661956787, -8.3324003219999, 0.0 ], [ 113.66318512, -8.332769393999969, 0.0 ], [ 113.663276672, -8.332821846999931, 0.0 ], [ 113.663429259, -8.332906722999949, 0.0 ], [ 113.663688659, -8.332959175999971, 0.0 ] ] ] ] } }
]
}
