{
"type": "FeatureCollection",
"name": "TALANG_UPSTREAM",
"crs": { "type": "name", "properties": { "name": "urn:ogc:def:crs:OGC:1.3:CRS84" } },
"features": [
{ "type": "Feature", "properties": { "Name": "Upstream", "descriptio": null, "timestamp": null, "begin": null, "end": null, "altitudeMo": null, "tessellate": -1, "extrude": 0, "visibility": -1, "drawOrder": null, "icon": null, "GID_4": "IDN.11.8.20.3_1", "GID_0": "IDN", "COUNTRY": "Indonesia", "GID_1": "IDN.11_1", "NAME_1": "Jawa Timur", "GID_2": "IDN.11.8_1", "NAME_2": "Jember", "GID_3": "IDN.11.8.20_1", "NAME_3": "Rambipuji", "NAME_4": "Kaliwining", "VARNAME_4": "NA", "TYPE_4": "Desa", "ENGTYPE_4": "Village", "CC_4": "3509120006", "layer": "ADM_KALIWINING", "path": "/home/shohibul/KERJA/DATA/Irigasi Talang 2023/TALANG MAP/RAMBIPUJI/Kaliwining/ADM_KALIWINING.shp" }, "geometry": { "type": "MultiPolygon", "coordinates": [ [ [ [ 113.664741516, -8.268217086999931, 0.0 ], [ 113.664421081, -8.26807308299993, 0.0 ], [ 113.663955689, -8.26790523499989, 0.0 ], [ 113.66355133, -8.26784705999995, 0.0 ], [ 113.663253784, -8.26789760499997, 0.0 ], [ 113.663040161, -8.26802158299995, 0.0 ], [ 113.662834168, -8.26818084799987, 0.0 ], [ 113.662597655, -8.268547057999969, 0.0 ], [ 113.662490845, -8.268509865999929, 0.0 ], [ 113.662277222, -8.268790243999939, 0.0 ], [ 113.662239076, -8.268871307999969, 0.0 ], [ 113.662071228, -8.26922988899997, 0.0 ], [ 113.661926269, -8.26998042999992, 0.0 ], [ 113.66190338, -8.27015972099991, 0.0 ], [ 113.661674499, -8.270468711999911, 0.0 ], [ 113.661407472, -8.27096652899996, 0.0 ], [ 113.661140442, -8.271348953999899, 0.0 ], [ 113.660804749, -8.271789549999941, 0.0 ], [ 113.660514832, -8.27211475399997, 0.0 ], [ 113.660156251, -8.272288322999939, 0.0 ], [ 113.659729003, -8.272397994999951, 0.0 ], [ 113.659545899, -8.27244567799988, 0.0 ], [ 113.659179687, -8.272676467999871, 0.0 ], [ 113.658805847, -8.2731170639999, 0.0 ], [ 113.658538818, -8.27359485599993, 0.0 ], [ 113.658508301, -8.273855208999979, 0.0 ], [ 113.658493043, -8.27402019399995, 0.0 ], [ 113.657737732, -8.274769781999961, 0.0 ], [ 113.657447814, -8.27513027099997, 0.0 ], [ 113.65699768, -8.27577972399996, 0.0 ], [ 113.656814574, -8.27599906899991, 0.0 ], [ 113.656761169, -8.276062011999951, 0.0 ], [ 113.656692506, -8.276149748999959, 0.0 ], [ 113.656478881, -8.27630996599987, 0.0 ], [ 113.656356812, -8.276470183999891, 0.0 ], [ 113.656448364, -8.276619910999949, 0.0 ], [ 113.656181335, -8.276860236999941, 0.0 ], [ 113.65586853, -8.27715969099984, 0.0 ], [ 113.65511322, -8.277959823999939, 0.0 ], [ 113.654823303, -8.27787971499993, 0.0 ], [ 113.654441833, -8.277939794999901, 0.0 ], [ 113.653686523, -8.27801990399996, 0.0 ], [ 113.653495789, -8.27805709799992, 0.0 ], [ 113.653320313, -8.278089521999959, 0.0 ], [ 113.652030945, -8.27836036699995, 0.0 ], [ 113.651908874, -8.278411864999949, 0.0 ], [ 113.651817322, -8.278450011999951, 0.0 ], [ 113.651679993, -8.2785100939999, 0.0 ], [ 113.651428222, -8.278710365999871, 0.0 ], [ 113.651260376, -8.278989791999891, 0.0 ], [ 113.651031493, -8.279299735999871, 0.0 ], [ 113.650177003, -8.28019046799994, 0.0 ], [ 113.650070191, -8.280282974999979, 0.0 ], [ 113.649833679, -8.28047180099998, 0.0 ], [ 113.649726867, -8.28055953999996, 0.0 ], [ 113.649673462, -8.280699729999981, 0.0 ], [ 113.649490356, -8.28104019099993, 0.0 ], [ 113.649147035, -8.28143978099996, 0.0 ], [ 113.649017334, -8.28153991599987, 0.0 ], [ 113.648887635, -8.281640052999821, 0.0 ], [ 113.648719787, -8.28177642799989, 0.0 ], [ 113.64819336, -8.282199859999929, 0.0 ], [ 113.648071289, -8.28234958699989, 0.0 ], [ 113.647743224, -8.282799719999961, 0.0 ], [ 113.647628784, -8.282910345999939, 0.0 ], [ 113.647537232, -8.282983778999951, 0.0 ], [ 113.647346496, -8.283140181999951, 0.0 ], [ 113.646827698, -8.28345966399991, 0.0 ], [ 113.646728516, -8.28351974399993, 0.0 ], [ 113.646492005, -8.28361034299996, 0.0 ], [ 113.646263122, -8.283630371999889, 0.0 ], [ 113.645942687, -8.283679961999949, 0.0 ], [ 113.645729065, -8.283790588999921, 0.0 ], [ 113.64541626, -8.28400039699989, 0.0 ], [ 113.645217896, -8.28423976799996, 0.0 ], [ 113.645072937, -8.284529685999869, 0.0 ], [ 113.644958496, -8.28494358099994, 0.0 ], [ 113.644821167, -8.28551959999993, 0.0 ], [ 113.644592284, -8.28617000599991, 0.0 ], [ 113.644340515, -8.28658008499997, 0.0 ], [ 113.644180297, -8.28692913099991, 0.0 ], [ 113.644119262, -8.28705024699997, 0.0 ], [ 113.64414215, -8.28719043599995, 0.0 ], [ 113.644149781, -8.287400245999891, 0.0 ], [ 113.644180297, -8.28756046299992, 0.0 ], [ 113.644386292, -8.28791046199996, 0.0 ], [ 113.644577026, -8.288080214999921, 0.0 ], [ 113.644836425, -8.28824806099988, 0.0 ], [ 113.644927979, -8.288310050999939, 0.0 ], [ 113.645027162, -8.288395881999969, 0.0 ], [ 113.645141602, -8.28849983199996, 0.0 ], [ 113.645309448, -8.288680075999929, 0.0 ], [ 113.645393371, -8.28873443599997, 0.0 ], [ 113.645370483, -8.289363860999909, 0.0 ], [ 113.645339966, -8.289886474999831, 0.0 ], [ 113.644920349, -8.29009818999992, 0.0 ], [ 113.644584656, -8.290291785999949, 0.0 ], [ 113.644378662, -8.290606498999979, 0.0 ], [ 113.644256591, -8.29085063999992, 0.0 ], [ 113.644065857, -8.291008949999879, 0.0 ], [ 113.643882751, -8.291194915999821, 0.0 ], [ 113.643722533, -8.29146575899995, 0.0 ], [ 113.64364624, -8.291460035999931, 0.0 ], [ 113.643547058, -8.29170894499981, 0.0 ], [ 113.643356323, -8.292075156999889, 0.0 ], [ 113.642959595, -8.292095183999949, 0.0 ], [ 113.642517089, -8.292011259999869, 0.0 ], [ 113.64199829, -8.2920322409999, 0.0 ], [ 113.641471863, -8.291983602999951, 0.0 ], [ 113.640960694, -8.29191684699987, 0.0 ], [ 113.640487671, -8.291711807999951, 0.0 ], [ 113.640266419, -8.291695594999959, 0.0 ], [ 113.639671326, -8.29165553999991, 0.0 ], [ 113.639564513, -8.291647909999821, 0.0 ], [ 113.639343263, -8.29165553999991, 0.0 ], [ 113.638916015, -8.29166984599993, 0.0 ], [ 113.638008118, -8.29143237999995, 0.0 ], [ 113.637908936, -8.292407035999929, 0.0 ], [ 113.637557984, -8.292304992999901, 0.0 ], [ 113.637542724, -8.292601584999939, 0.0 ], [ 113.637023927, -8.29277896799988, 0.0 ], [ 113.636131287, -8.292854308999891, 0.0 ], [ 113.635986328, -8.29287242999987, 0.0 ], [ 113.635238648, -8.29277324699996, 0.0 ], [ 113.634834289, -8.292617797999981, 0.0 ], [ 113.635047912, -8.292167663999919, 0.0 ], [ 113.634529115, -8.29202270499991, 0.0 ], [ 113.634544373, -8.291907309999941, 0.0 ], [ 113.63420868, -8.291760444999969, 0.0 ], [ 113.633850098, -8.2916135779999, 0.0 ], [ 113.633422851, -8.29143237999995, 0.0 ], [ 113.632972717, -8.291256903999971, 0.0 ], [ 113.632484436, -8.290878295999899, 0.0 ], [ 113.632148743, -8.290617941999869, 0.0 ], [ 113.631980896, -8.290396690999961, 0.0 ], [ 113.631759643, -8.29010391299988, 0.0 ], [ 113.631599425, -8.28989028999996, 0.0 ], [ 113.631233215, -8.289579390999901, 0.0 ], [ 113.631111145, -8.28946208999997, 0.0 ], [ 113.630813598, -8.28916454299997, 0.0 ], [ 113.630546571, -8.28895759599988, 0.0 ], [ 113.630378723, -8.28871345499994, 0.0 ], [ 113.630119323, -8.288664817999919, 0.0 ], [ 113.62978363, -8.28847122099995, 0.0 ], [ 113.629539489, -8.28814601799996, 0.0 ], [ 113.629180909, -8.28789043399996, 0.0 ], [ 113.629051208, -8.28779983499993, 0.0 ], [ 113.628982545, -8.287753104999981, 0.0 ], [ 113.628356933, -8.287771225999959, 0.0 ], [ 113.627113342, -8.28769206999988, 0.0 ], [ 113.626319885, -8.28761291599994, 0.0 ], [ 113.626121521, -8.28759384199992, 0.0 ], [ 113.625160218, -8.28733730299996, 0.0 ], [ 113.624557495, -8.286850929999961, 0.0 ], [ 113.62411499, -8.28648662599988, 0.0 ], [ 113.623687744, -8.28606891599998, 0.0 ], [ 113.623176575, -8.28545951799993, 0.0 ], [ 113.622627257, -8.284920691999901, 0.0 ], [ 113.621902466, -8.284470558999891, 0.0 ], [ 113.621360778, -8.284175871999929, 0.0 ], [ 113.621231079, -8.28411102199988, 0.0 ], [ 113.620689392, -8.284070014999941, 0.0 ], [ 113.620498657, -8.284070014999941, 0.0 ], [ 113.620185853, -8.28405380199996, 0.0 ], [ 113.62007141, -8.28404808099992, 0.0 ], [ 113.619102477, -8.283989905999929, 0.0 ], [ 113.61858368, -8.28394031399989, 0.0 ], [ 113.617927552, -8.28386974299991, 0.0 ], [ 113.617050171, -8.283789633999961, 0.0 ], [ 113.61618042, -8.28369998999989, 0.0 ], [ 113.615386963, -8.28359985299994, 0.0 ], [ 113.61467743, -8.28349971799992, 0.0 ], [ 113.613723755, -8.283359526999959, 0.0 ], [ 113.613166809, -8.28326034499992, 0.0 ], [ 113.612571716, -8.283089636999931, 0.0 ], [ 113.612197876, -8.28271579699998, 0.0 ], [ 113.612052917, -8.28257846799994, 0.0 ], [ 113.611976623, -8.28256988499993, 0.0 ], [ 113.611511231, -8.282487867999979, 0.0 ], [ 113.611228943, -8.28238010299992, 0.0 ], [ 113.610778809, -8.28211975099987, 0.0 ], [ 113.610351562, -8.28180027099995, 0.0 ], [ 113.610031127, -8.281490325999931, 0.0 ], [ 113.609848023, -8.2812204359999, 0.0 ], [ 113.609779358, -8.28109836599992, 0.0 ], [ 113.609565735, -8.28115463299997, 0.0 ], [ 113.609420776, -8.28112125399997, 0.0 ], [ 113.609138488, -8.281297682999931, 0.0 ], [ 113.60887909, -8.28129958999989, 0.0 ], [ 113.608528137, -8.28116130799998, 0.0 ], [ 113.608299256, -8.281110763999891, 0.0 ], [ 113.60810852, -8.281322478999931, 0.0 ], [ 113.607986451, -8.28151511999994, 0.0 ], [ 113.60786438, -8.281691550999881, 0.0 ], [ 113.60774231, -8.281831739999969, 0.0 ], [ 113.607582092, -8.28185081399994, 0.0 ], [ 113.607261657, -8.281677244999971, 0.0 ], [ 113.607177733, -8.281695365999949, 0.0 ], [ 113.607162475, -8.281853675999971, 0.0 ], [ 113.607017518, -8.28211689099993, 0.0 ], [ 113.606918336, -8.282275200999949, 0.0 ], [ 113.606704711, -8.28217124899987, 0.0 ], [ 113.606582643, -8.282364844999901, 0.0 ], [ 113.60647583, -8.28261089399996, 0.0 ], [ 113.606391906, -8.28273391699997, 0.0 ], [ 113.606201172, -8.282629966999931, 0.0 ], [ 113.605934143, -8.2826490409999, 0.0 ], [ 113.605773925, -8.28273773199993, 0.0 ], [ 113.605567933, -8.28261661399995, 0.0 ], [ 113.605316161, -8.28247833299997, 0.0 ], [ 113.604934693, -8.282410621999871, 0.0 ], [ 113.604629516, -8.282342910999891, 0.0 ], [ 113.604385375, -8.28215122199992, 0.0 ], [ 113.604019165, -8.28229427399992, 0.0 ], [ 113.603805543, -8.282487867999979, 0.0 ], [ 113.603507996, -8.28275203599998, 0.0 ], [ 113.603355407, -8.282858847999931, 0.0 ], [ 113.603126526, -8.282754897999951, 0.0 ], [ 113.602897645, -8.28293132699997, 0.0 ], [ 113.602821349, -8.282952307999951, 0.0 ], [ 113.602653504, -8.283002852999971, 0.0 ], [ 113.602493286, -8.28295898499988, 0.0 ], [ 113.602447509, -8.283088683999949, 0.0 ], [ 113.60218811, -8.28301238999995, 0.0 ], [ 113.601715087, -8.283071517999931, 0.0 ], [ 113.600898742, -8.282964705999969, 0.0 ], [ 113.600067138, -8.283345222999969, 0.0 ], [ 113.599937439, -8.28350639299987, 0.0 ], [ 113.599830627, -8.283574103999969, 0.0 ], [ 113.599250794, -8.283953666999929, 0.0 ], [ 113.598464965, -8.28415393899996, 0.0 ], [ 113.597351075, -8.284357070999929, 0.0 ], [ 113.597084045, -8.28435897799989, 0.0 ], [ 113.596755982, -8.28436088599994, 0.0 ], [ 113.596000672, -8.2841949459999, 0.0 ], [ 113.595436096, -8.283865927999949, 0.0 ], [ 113.595191956, -8.283981322999979, 0.0 ], [ 113.594764709, -8.28417777999994, 0.0 ], [ 113.594291687, -8.28451633399993, 0.0 ], [ 113.593757629, -8.28452014899989, 0.0 ], [ 113.593437194, -8.28436088599994, 0.0 ], [ 113.593307496, -8.28429889599988, 0.0 ], [ 113.592720031, -8.28413581799998, 0.0 ], [ 113.592445373, -8.284137725999869, 0.0 ], [ 113.592300416, -8.28413867799998, 0.0 ], [ 113.591514587, -8.284143447999901, 0.0 ], [ 113.591011048, -8.28414630899988, 0.0 ], [ 113.590362548, -8.28415107599994, 0.0 ], [ 113.589622498, -8.28415584599998, 0.0 ], [ 113.589492797, -8.284156798999961, 0.0 ], [ 113.588905334, -8.28376960799989, 0.0 ], [ 113.588279725, -8.28356361399989, 0.0 ], [ 113.587722779, -8.28344154299992, 0.0 ], [ 113.586906433, -8.283447265999939, 0.0 ], [ 113.586120606, -8.283452033999881, 0.0 ], [ 113.585426331, -8.283652304999981, 0.0 ], [ 113.585060119, -8.284017561999971, 0.0 ], [ 113.584709168, -8.28425407399993, 0.0 ], [ 113.584724426, -8.28413486499983, 0.0 ], [ 113.584518432, -8.28406238499997, 0.0 ], [ 113.584373475, -8.28397178599994, 0.0 ], [ 113.584228515, -8.283789633999961, 0.0 ], [ 113.583938599, -8.28359985299994, 0.0 ], [ 113.583686828, -8.28345489399987, 0.0 ], [ 113.583496094, -8.28333663799992, 0.0 ], [ 113.583251952, -8.283219336999929, 0.0 ], [ 113.582962036, -8.28319358899995, 0.0 ], [ 113.582626343, -8.28315925499993, 0.0 ], [ 113.582557677, -8.283049581999929, 0.0 ], [ 113.582534791, -8.28285789499995, 0.0 ], [ 113.58229828, -8.28272247199993, 0.0 ], [ 113.58203125, -8.28278827699995, 0.0 ], [ 113.581809997, -8.282999991999869, 0.0 ], [ 113.581710815, -8.282872198999881, 0.0 ], [ 113.581558228, -8.28274726799992, 0.0 ], [ 113.581375122, -8.282590865999961, 0.0 ], [ 113.581253051, -8.282599448999971, 0.0 ], [ 113.581069947, -8.28261089399996, 0.0 ], [ 113.580856322, -8.282859802999949, 0.0 ], [ 113.580711365, -8.28279685999996, 0.0 ], [ 113.580436707, -8.28264236499996, 0.0 ], [ 113.580200196, -8.282461166999891, 0.0 ], [ 113.579978944, -8.28242587999989, 0.0 ], [ 113.579856873, -8.28255462599998, 0.0 ], [ 113.579780579, -8.28274726799992, 0.0 ], [ 113.579666137, -8.28282451599995, 0.0 ], [ 113.579505921, -8.28271579699998, 0.0 ], [ 113.578018189, -8.28167915299986, 0.0 ], [ 113.577934265, -8.28161716499994, 0.0 ], [ 113.577110291, -8.28106403399994, 0.0 ], [ 113.573417664, -8.27856349899997, 0.0 ], [ 113.572143554, -8.27770328399987, 0.0 ], [ 113.571556091, -8.277309417999961, 0.0 ], [ 113.570396422, -8.27649783999988, 0.0 ], [ 113.569900514, -8.276154518999871, 0.0 ], [ 113.569824218, -8.276089667999941, 0.0 ], [ 113.569541932, -8.27586460099997, 0.0 ], [ 113.568664551, -8.275150298999851, 0.0 ], [ 113.568450928, -8.27497768399996, 0.0 ], [ 113.566986085, -8.274175643999911, 0.0 ], [ 113.566390992, -8.27382278499994, 0.0 ], [ 113.566230774, -8.27372550999991, 0.0 ], [ 113.565116882, -8.27306365899994, 0.0 ], [ 113.564872741, -8.272930144999981, 0.0 ], [ 113.563980102, -8.272412300999971, 0.0 ], [ 113.561798097, -8.271142958999921, 0.0 ], [ 113.561317444, -8.270878791999911, 0.0 ], [ 113.56036377, -8.270346641999939, 0.0 ], [ 113.559585571, -8.27081584899986, 0.0 ], [ 113.559707641, -8.27050113699994, 0.0 ], [ 113.559860229, -8.27006435399994, 0.0 ], [ 113.559112548, -8.269621847999931, 0.0 ], [ 113.557411194, -8.268766402999921, 0.0 ], [ 113.557258606, -8.268699644999909, 0.0 ], [ 113.557617188, -8.267605780999929, 0.0 ], [ 113.557823181, -8.26696681899989, 0.0 ], [ 113.557907104, -8.266994476999971, 0.0 ], [ 113.558197021, -8.265619277999861, 0.0 ], [ 113.559257508, -8.263329505999931, 0.0 ], [ 113.560050965, -8.26342773499988, 0.0 ], [ 113.56009674, -8.26329803399989, 0.0 ], [ 113.560577392, -8.26329517399995, 0.0 ], [ 113.561317444, -8.26298618199996, 0.0 ], [ 113.561660768, -8.26257705799992, 0.0 ], [ 113.561820983, -8.262596130999899, 0.0 ], [ 113.56187439, -8.26237297099993, 0.0 ], [ 113.56250763, -8.26181125699998, 0.0 ], [ 113.563400269, -8.261932372999979, 0.0 ], [ 113.563499451, -8.262047767999951, 0.0 ], [ 113.56363678, -8.26194953799995, 0.0 ], [ 113.563858033, -8.26208972999996, 0.0 ], [ 113.564361572, -8.261590956999949, 0.0 ], [ 113.564483643, -8.26146984099989, 0.0 ], [ 113.565528869, -8.26013851099998, 0.0 ], [ 113.565582276, -8.26006698499998, 0.0 ], [ 113.565849304, -8.259719848999961, 0.0 ], [ 113.565986633, -8.259539602999951, 0.0 ], [ 113.56629181, -8.25912952399989, 0.0 ], [ 113.566360473, -8.259059905999891, 0.0 ], [ 113.566497802, -8.258908270999941, 0.0 ], [ 113.566719055, -8.258656501999891, 0.0 ], [ 113.566947938, -8.258290289999881, 0.0 ], [ 113.567169189, -8.258016585999879, 0.0 ], [ 113.567306518, -8.257829664999971, 0.0 ], [ 113.567588806, -8.25745963999992, 0.0 ], [ 113.567863464, -8.25716972399994, 0.0 ], [ 113.568206787, -8.256930350999941, 0.0 ], [ 113.568649293, -8.256679533999939, 0.0 ], [ 113.568939209, -8.25650978099992, 0.0 ], [ 113.568893432, -8.25639724799993, 0.0 ], [ 113.56880188, -8.256259918999939, 0.0 ], [ 113.568641662, -8.25601959299996, 0.0 ], [ 113.568489075, -8.255729674999939, 0.0 ], [ 113.568473817, -8.25535869699991, 0.0 ], [ 113.568466187, -8.255160331999949, 0.0 ], [ 113.568679809, -8.254719733999879, 0.0 ], [ 113.569221497, -8.2543401719999, 0.0 ], [ 113.569961547, -8.254079818999969, 0.0 ], [ 113.570869447, -8.25382995499996, 0.0 ], [ 113.57196045, -8.25345039299992, 0.0 ], [ 113.572647095, -8.253129959999971, 0.0 ], [ 113.573562623, -8.25263976999992, 0.0 ], [ 113.573783874, -8.25245285099982, 0.0 ], [ 113.574279784, -8.25203704899997, 0.0 ], [ 113.57472229, -8.25166988399997, 0.0 ], [ 113.574951173, -8.25094985999988, 0.0 ], [ 113.574996948, -8.250000000999879, 0.0 ], [ 113.575027466, -8.249456404999931, 0.0 ], [ 113.575218201, -8.24938201899994, 0.0 ], [ 113.57584381, -8.248865127999981, 0.0 ], [ 113.57536316, -8.248196600999901, 0.0 ], [ 113.575767516, -8.247849464999939, 0.0 ], [ 113.575599671, -8.24771022799996, 0.0 ], [ 113.575927734, -8.247251509999961, 0.0 ], [ 113.575531005, -8.24697399199988, 0.0 ], [ 113.575698853, -8.24674892399992, 0.0 ], [ 113.575302124, -8.24623203199997, 0.0 ], [ 113.57521057, -8.24606037099988, 0.0 ], [ 113.575248717, -8.24580573999998, 0.0 ], [ 113.575881959, -8.245311735999961, 0.0 ], [ 113.575942992, -8.24526500699989, 0.0 ], [ 113.575805663, -8.24499511699997, 0.0 ], [ 113.576087951, -8.24458312999997, 0.0 ], [ 113.576316834, -8.244329452999921, 0.0 ], [ 113.576637267, -8.2445793149999, 0.0 ], [ 113.57723236, -8.243717193999879, 0.0 ], [ 113.577278137, -8.243649482999899, 0.0 ], [ 113.577568053, -8.24322128299991, 0.0 ], [ 113.577713013, -8.24293136499989, 0.0 ], [ 113.577766418, -8.242697715999951, 0.0 ], [ 113.578056336, -8.242331503999941, 0.0 ], [ 113.5782547, -8.24208831799996, 0.0 ], [ 113.578170776, -8.242032049999921, 0.0 ], [ 113.578102111, -8.241986274999929, 0.0 ], [ 113.577980042, -8.24191284199992, 0.0 ], [ 113.577835083, -8.24178314099993, 0.0 ], [ 113.57775879, -8.24173164299992, 0.0 ], [ 113.577941895, -8.24164104399989, 0.0 ], [ 113.578109741, -8.24160957299995, 0.0 ], [ 113.578277589, -8.24152755699993, 0.0 ], [ 113.578453065, -8.241394994999951, 0.0 ], [ 113.578689576, -8.241171836999969, 0.0 ], [ 113.578971864, -8.240828513999929, 0.0 ], [ 113.57914734, -8.240603445999851, 0.0 ], [ 113.579513549, -8.24035930699989, 0.0 ], [ 113.579803468, -8.24020576399988, 0.0 ], [ 113.580108642, -8.240094183999821, 0.0 ], [ 113.580169678, -8.23998165099994, 0.0 ], [ 113.580139161, -8.23964881799998, 0.0 ], [ 113.580139161, -8.238882064999871, 0.0 ], [ 113.58026886, -8.238669394999871, 0.0 ], [ 113.580413819, -8.23840617999997, 0.0 ], [ 113.580589295, -8.23801135899987, 0.0 ], [ 113.5806427, -8.237910269999929, 0.0 ], [ 113.580886841, -8.23742866399988, 0.0 ], [ 113.581237793, -8.23723983799988, 0.0 ], [ 113.581436157, -8.23720455099993, 0.0 ], [ 113.58177185, -8.237146377999981, 0.0 ], [ 113.582214356, -8.23714351599995, 0.0 ], [ 113.582595826, -8.23721122699993, 0.0 ], [ 113.582969666, -8.2371883379999, 0.0 ], [ 113.583175659, -8.23714733099996, 0.0 ], [ 113.583755493, -8.236855506999969, 0.0 ], [ 113.583770751, -8.236760139999889, 0.0 ], [ 113.583808898, -8.23641967699996, 0.0 ], [ 113.583869934, -8.235946654999911, 0.0 ], [ 113.583915711, -8.235632894999981, 0.0 ], [ 113.583930969, -8.23552036199993, 0.0 ], [ 113.583976746, -8.23521041799995, 0.0 ], [ 113.583992004, -8.23490047399997, 0.0 ], [ 113.583930969, -8.234689712999909, 0.0 ], [ 113.583808898, -8.23445033999991, 0.0 ], [ 113.583473205, -8.23423957799997, 0.0 ], [ 113.582550049, -8.23404979599991, 0.0 ], [ 113.582061769, -8.23396015199995, 0.0 ], [ 113.581588744, -8.23377036999989, 0.0 ], [ 113.581527709, -8.23371982599997, 0.0 ], [ 113.581497192, -8.23365020699981, 0.0 ], [ 113.581420899, -8.233621595999921, 0.0 ], [ 113.581199646, -8.23346042599991, 0.0 ], [ 113.581138611, -8.233335494999951, 0.0 ], [ 113.581008912, -8.23304557899996, 0.0 ], [ 113.581008912, -8.23297309799983, 0.0 ], [ 113.58101654, -8.232758522999919, 0.0 ], [ 113.581153869, -8.23267650599996, 0.0 ], [ 113.581253051, -8.232619285999929, 0.0 ], [ 113.581497192, -8.23260784099989, 0.0 ], [ 113.58177948, -8.23260593299989, 0.0 ], [ 113.582191467, -8.232674598999891, 0.0 ], [ 113.582435609, -8.232810972999911, 0.0 ], [ 113.582534791, -8.232859609999929, 0.0 ], [ 113.582626343, -8.232830046999879, 0.0 ], [ 113.58380127, -8.232493400999941, 0.0 ], [ 113.583930969, -8.23247909499997, 0.0 ], [ 113.58416748, -8.232348440999941, 0.0 ], [ 113.584335328, -8.23215293899989, 0.0 ], [ 113.584449768, -8.23190689099988, 0.0 ], [ 113.58443451, -8.23171329399997, 0.0 ], [ 113.584396363, -8.231415747999961, 0.0 ], [ 113.584297181, -8.23097705699996, 0.0 ], [ 113.584236146, -8.23062801299994, 0.0 ], [ 113.584243774, -8.23044013899994, 0.0 ], [ 113.584411621, -8.23033618899996, 0.0 ], [ 113.584526062, -8.23026943099995, 0.0 ], [ 113.585243225, -8.229840278999969, 0.0 ], [ 113.585357666, -8.229761122999889, 0.0 ], [ 113.585647582, -8.229578971999841, 0.0 ], [ 113.586761474, -8.22943019899998, 0.0 ], [ 113.587356567, -8.229539871999981, 0.0 ], [ 113.587738037, -8.2298698429999, 0.0 ], [ 113.587890625, -8.22999000599992, 0.0 ], [ 113.588317872, -8.229948996999889, 0.0 ], [ 113.588409424, -8.229940413999881, 0.0 ], [ 113.590393067, -8.22902965599997, 0.0 ], [ 113.590950013, -8.22869300799988, 0.0 ], [ 113.591445923, -8.228396415999949, 0.0 ], [ 113.591812133, -8.22817993099989, 0.0 ], [ 113.591957092, -8.22809028699993, 0.0 ], [ 113.592720031, -8.22741985299996, 0.0 ], [ 113.593177795, -8.22689056299987, 0.0 ], [ 113.593452453, -8.226570127999929, 0.0 ], [ 113.594200135, -8.225629805999921, 0.0 ], [ 113.594963073, -8.225330351999959, 0.0 ], [ 113.595573425, -8.225040435999921, 0.0 ], [ 113.596038819, -8.224499702999941, 0.0 ], [ 113.596443175, -8.224113464999959, 0.0 ], [ 113.596229553, -8.223852157999939, 0.0 ], [ 113.596481324, -8.22364139599989, 0.0 ], [ 113.596893311, -8.223420142999879, 0.0 ], [ 113.597244263, -8.223060607999971, 0.0 ], [ 113.59741211, -8.22278594999989, 0.0 ], [ 113.597717285, -8.222509382999929, 0.0 ], [ 113.597930908, -8.222371100999959, 0.0 ], [ 113.598175049, -8.22212219199997, 0.0 ], [ 113.598510742, -8.222023962999909, 0.0 ], [ 113.598587036, -8.22200107599997, 0.0 ], [ 113.598579408, -8.22192764299996, 0.0 ], [ 113.598899841, -8.22184371899993, 0.0 ], [ 113.5990448, -8.22184944199995, 0.0 ], [ 113.599266052, -8.22185897699995, 0.0 ], [ 113.599700928, -8.22162818899994, 0.0 ], [ 113.600402833, -8.22121238699992, 0.0 ], [ 113.600669861, -8.221146583999881, 0.0 ], [ 113.601051331, -8.221052168999959, 0.0 ], [ 113.601249695, -8.22104167899994, 0.0 ], [ 113.601577758, -8.220952986999979, 0.0 ], [ 113.601776123, -8.22091102499996, 0.0 ], [ 113.601867677, -8.2209062579999, 0.0 ], [ 113.602005006, -8.22089958199996, 0.0 ], [ 113.602279664, -8.220952986999979, 0.0 ], [ 113.602745056, -8.220932005999879, 0.0 ], [ 113.603034974, -8.22088432399994, 0.0 ], [ 113.603340148, -8.220699309999929, 0.0 ], [ 113.603477477, -8.220524786999871, 0.0 ], [ 113.604026795, -8.220036506999969, 0.0 ], [ 113.604179383, -8.21987056699993, 0.0 ], [ 113.604362489, -8.219696045999971, 0.0 ], [ 113.604599, -8.21952056799989, 0.0 ], [ 113.604858399, -8.219491958999919, 0.0 ], [ 113.605072022, -8.21953582799995, 0.0 ], [ 113.605186462, -8.219619749999939, 0.0 ], [ 113.60597992, -8.21942043299987, 0.0 ], [ 113.6064682, -8.21928977899989, 0.0 ], [ 113.606811524, -8.21912956199998, 0.0 ], [ 113.607200622, -8.21889018999997, 0.0 ], [ 113.607498168, -8.218629835999931, 0.0 ], [ 113.607772826, -8.218310355999961, 0.0 ], [ 113.607826233, -8.21815872099995, 0.0 ], [ 113.60785675, -8.218079566999959, 0.0 ], [ 113.607963562, -8.217889785999891, 0.0 ], [ 113.608337402, -8.217650412999889, 0.0 ], [ 113.60861206, -8.217499732999951, 0.0 ], [ 113.609153748, -8.21697998099995, 0.0 ], [ 113.609291077, -8.216790199999931, 0.0 ], [ 113.609352112, -8.21660995399998, 0.0 ], [ 113.609397887, -8.21640968199989, 0.0 ], [ 113.609458923, -8.216329572999941, 0.0 ], [ 113.610092162, -8.216139793999959, 0.0 ], [ 113.610328674, -8.21605014799991, 0.0 ], [ 113.610496521, -8.21594047499997, 0.0 ], [ 113.610610962, -8.21584987599994, 0.0 ], [ 113.610778809, -8.215800285999929, 0.0 ], [ 113.611213685, -8.215829849999979, 0.0 ], [ 113.611679077, -8.21570968599997, 0.0 ], [ 113.611862183, -8.21566963199996, 0.0 ], [ 113.612121582, -8.215700148999931, 0.0 ], [ 113.612419129, -8.215800285999929, 0.0 ], [ 113.612983703, -8.21576023099993, 0.0 ], [ 113.613113404, -8.21572017699998, 0.0 ], [ 113.613212586, -8.21531963299998, 0.0 ], [ 113.61329651, -8.215109825999949, 0.0 ], [ 113.613693238, -8.214810371999929, 0.0 ], [ 113.613891603, -8.214429853999951, 0.0 ], [ 113.614112853, -8.21432971899992, 0.0 ], [ 113.614257812, -8.214269636999971, 0.0 ], [ 113.614479065, -8.21370029499991, 0.0 ], [ 113.614562989, -8.21347999499989, 0.0 ], [ 113.614517212, -8.213259696999961, 0.0 ], [ 113.614341736, -8.212849616999961, 0.0 ], [ 113.614227296, -8.21243953599998, 0.0 ], [ 113.614250182, -8.21216010999996, 0.0 ], [ 113.614257812, -8.211919783999919, 0.0 ], [ 113.614196777, -8.21173953999994, 0.0 ], [ 113.614089965, -8.211560249999931, 0.0 ], [ 113.613922119, -8.211290358999969, 0.0 ], [ 113.613868714, -8.211050032999941, 0.0 ], [ 113.613800049, -8.210749626999929, 0.0 ], [ 113.613693238, -8.210610389999941, 0.0 ], [ 113.61351776, -8.21033954499995, 0.0 ], [ 113.613578796, -8.21012019999989, 0.0 ], [ 113.614181519, -8.20825004499989, 0.0 ], [ 113.614303589, -8.20773982999992, 0.0 ], [ 113.614303589, -8.207560539999861, 0.0 ], [ 113.614303589, -8.2074699399999, 0.0 ], [ 113.614280701, -8.20730972299998, 0.0 ], [ 113.614120483, -8.20709419299993, 0.0 ], [ 113.614517212, -8.20699596299994, 0.0 ], [ 113.614562989, -8.20676326699987, 0.0 ], [ 113.614349364, -8.206555364999931, 0.0 ], [ 113.614257812, -8.20609092599994, 0.0 ], [ 113.613883972, -8.205725668999831, 0.0 ], [ 113.614204407, -8.20548629699994, 0.0 ], [ 113.614509582, -8.20562362599998, 0.0 ], [ 113.614692688, -8.204975127999891, 0.0 ], [ 113.614997864, -8.204996108999859, 0.0 ], [ 113.6150589, -8.204957007999891, 0.0 ], [ 113.615089416, -8.204720496999871, 0.0 ], [ 113.615081786, -8.20445346899993, 0.0 ], [ 113.615074158, -8.20424747399983, 0.0 ], [ 113.6150589, -8.203377723999891, 0.0 ], [ 113.61541748, -8.203234671999949, 0.0 ], [ 113.615524292, -8.20316982199984, 0.0 ], [ 113.617210388, -8.20257282299991, 0.0 ], [ 113.618774414, -8.202018737999881, 0.0 ], [ 113.61969757, -8.201688766999951, 0.0 ], [ 113.620384217, -8.201442717999949, 0.0 ], [ 113.621284484, -8.201154708999979, 0.0 ], [ 113.622879029, -8.200617789999971, 0.0 ], [ 113.623191834, -8.20050716399987, 0.0 ], [ 113.62385559, -8.20027256099991, 0.0 ], [ 113.625068664, -8.19984531299991, 0.0 ], [ 113.625160218, -8.199827194999949, 0.0 ], [ 113.625610352, -8.19967937499996, 0.0 ], [ 113.626510619, -8.1993837359999, 0.0 ], [ 113.628578186, -8.19878864299989, 0.0 ], [ 113.62966919, -8.19847297599995, 0.0 ], [ 113.631752015, -8.197872160999911, 0.0 ], [ 113.631752015, -8.197967529999969, 0.0 ], [ 113.631752015, -8.19806003499991, 0.0 ], [ 113.631752015, -8.19817447699995, 0.0 ], [ 113.631767273, -8.19878959599987, 0.0 ], [ 113.631690979, -8.199139594999959, 0.0 ], [ 113.631660461, -8.199219703999921, 0.0 ], [ 113.631561279, -8.199529647999899, 0.0 ], [ 113.631469727, -8.199640273999931, 0.0 ], [ 113.631355286, -8.19972419699991, 0.0 ], [ 113.631340028, -8.19985198899985, 0.0 ], [ 113.63105774, -8.199853895999921, 0.0 ], [ 113.630859375, -8.199827194999949, 0.0 ], [ 113.630889892, -8.200111387999931, 0.0 ], [ 113.630661011, -8.200041769999929, 0.0 ], [ 113.630516052, -8.20001411399994, 0.0 ], [ 113.630371093, -8.20002937199996, 0.0 ], [ 113.630218505, -8.200271605999941, 0.0 ], [ 113.630134582, -8.20049476599991, 0.0 ], [ 113.629997253, -8.20075607299998, 0.0 ], [ 113.629821777, -8.2009563449999, 0.0 ], [ 113.629615784, -8.20125579899991, 0.0 ], [ 113.629554749, -8.201341627999909, 0.0 ], [ 113.629432678, -8.20155525099989, 0.0 ], [ 113.629455567, -8.20175456999988, 0.0 ], [ 113.629615784, -8.201824187999881, 0.0 ], [ 113.629798888, -8.201893806999861, 0.0 ], [ 113.629730225, -8.202022552999949, 0.0 ], [ 113.629943848, -8.20213508599994, 0.0 ], [ 113.629920959, -8.20221996199996, 0.0 ], [ 113.630485535, -8.202425956999949, 0.0 ], [ 113.630386353, -8.20261001499995, 0.0 ], [ 113.630355834, -8.20269966199993, 0.0 ], [ 113.630607606, -8.20284080599987, 0.0 ], [ 113.630386353, -8.20321273799993, 0.0 ], [ 113.631042481, -8.203534125999971, 0.0 ], [ 113.630775452, -8.20410442299988, 0.0 ], [ 113.631385803, -8.204341888999981, 0.0 ], [ 113.631217957, -8.204854010999901, 0.0 ], [ 113.631874085, -8.20497798899987, 0.0 ], [ 113.631881713, -8.205332754999921, 0.0 ], [ 113.631881713, -8.205744741999981, 0.0 ], [ 113.632095336, -8.20594310699988, 0.0 ], [ 113.632652282, -8.20605277899989, 0.0 ], [ 113.632659912, -8.20652198799991, 0.0 ], [ 113.632644654, -8.206696508999871, 0.0 ], [ 113.632690429, -8.20699024299984, 0.0 ], [ 113.632675171, -8.2074022299999, 0.0 ], [ 113.632690429, -8.207857130999971, 0.0 ], [ 113.632339477, -8.20801544099993, 0.0 ], [ 113.632270814, -8.20849895399988, 0.0 ], [ 113.63230133, -8.208581924999979, 0.0 ], [ 113.632331847, -8.20865345099998, 0.0 ], [ 113.632545472, -8.20919322899994, 0.0 ], [ 113.632522583, -8.20960521599994, 0.0 ], [ 113.632690429, -8.20976066499998, 0.0 ], [ 113.632987975, -8.209758757999911, 0.0 ], [ 113.633049011, -8.21022701199996, 0.0 ], [ 113.633377076, -8.21022510499995, 0.0 ], [ 113.633415223, -8.210921286999911, 0.0 ], [ 113.633369446, -8.21145343699982, 0.0 ], [ 113.63356018, -8.21164417299997, 0.0 ], [ 113.633987427, -8.212203024999949, 0.0 ], [ 113.634307862, -8.2131118769999, 0.0 ], [ 113.634384156, -8.213672637999929, 0.0 ], [ 113.63457489, -8.21383285599995, 0.0 ], [ 113.634635925, -8.21388149299997, 0.0 ], [ 113.634109498, -8.214796065999961, 0.0 ], [ 113.633102418, -8.21764469199996, 0.0 ], [ 113.633117676, -8.21774005899994, 0.0 ], [ 113.633102418, -8.218509672999909, 0.0 ], [ 113.632797241, -8.219559668999979, 0.0 ], [ 113.632614135, -8.220015525999941, 0.0 ], [ 113.632263184, -8.220151901999939, 0.0 ], [ 113.631912232, -8.220295905999929, 0.0 ], [ 113.631500243, -8.22053050999989, 0.0 ], [ 113.631217957, -8.22067451399994, 0.0 ], [ 113.631042481, -8.22084426899994, 0.0 ], [ 113.63117981, -8.22093296099996, 0.0 ], [ 113.631515503, -8.22096919999996, 0.0 ], [ 113.631835938, -8.22101878999996, 0.0 ], [ 113.631965637, -8.220940588999889, 0.0 ], [ 113.63230133, -8.22093772899996, 0.0 ], [ 113.632499695, -8.220871925999971, 0.0 ], [ 113.632743836, -8.22081851899992, 0.0 ], [ 113.633155823, -8.220726013999981, 0.0 ], [ 113.633270263, -8.220647810999941, 0.0 ], [ 113.634048462, -8.220436095999901, 0.0 ], [ 113.634529115, -8.220316886999971, 0.0 ], [ 113.634422302, -8.21996974899997, 0.0 ], [ 113.634353637, -8.21932983399995, 0.0 ], [ 113.634284973, -8.21909332299998, 0.0 ], [ 113.634490966, -8.21896362399991, 0.0 ], [ 113.634643555, -8.21891117099995, 0.0 ], [ 113.634971618, -8.218767164999919, 0.0 ], [ 113.635200501, -8.218648909999899, 0.0 ], [ 113.635459901, -8.218518255999919, 0.0 ], [ 113.635810852, -8.21842956399996, 0.0 ], [ 113.636032105, -8.218370436999979, 0.0 ], [ 113.636421204, -8.218409537999889, 0.0 ], [ 113.636550902, -8.21842956399996, 0.0 ], [ 113.636680603, -8.21829986499989, 0.0 ], [ 113.63683319, -8.21815967599991, 0.0 ], [ 113.637046813, -8.21807002999998, 0.0 ], [ 113.637283326, -8.21739959599995, 0.0 ], [ 113.637489319, -8.21667003599987, 0.0 ], [ 113.637519837, -8.21648979099996, 0.0 ], [ 113.637573242, -8.216232298999961, 0.0 ], [ 113.637603759, -8.21607971099996, 0.0 ], [ 113.637687683, -8.21543979599994, 0.0 ], [ 113.637817384, -8.214610099999961, 0.0 ], [ 113.637908936, -8.21378993899998, 0.0 ], [ 113.638160705, -8.21271991699996, 0.0 ], [ 113.638412477, -8.21172046699996, 0.0 ], [ 113.638549806, -8.21107959699998, 0.0 ], [ 113.638610839, -8.21080017099996, 0.0 ], [ 113.638702393, -8.21035957299989, 0.0 ], [ 113.63874054, -8.21004009299992, 0.0 ], [ 113.638786317, -8.209529876999911, 0.0 ], [ 113.638931274, -8.208640097999931, 0.0 ], [ 113.638969421, -8.208450316999921, 0.0 ], [ 113.638992309, -8.208379745999929, 0.0 ], [ 113.639068603, -8.208224295999971, 0.0 ], [ 113.639068603, -8.207893370999949, 0.0 ], [ 113.63923645, -8.207918166999949, 0.0 ], [ 113.639739989, -8.207940101999901, 0.0 ], [ 113.640281677, -8.20794963799989, 0.0 ], [ 113.640419006, -8.20793723999992, 0.0 ], [ 113.640594482, -8.207921981999901, 0.0 ], [ 113.640594482, -8.207818983999911, 0.0 ], [ 113.640594482, -8.20767688799998, 0.0 ], [ 113.640602112, -8.20757388999988, 0.0 ], [ 113.640602112, -8.207380293999959, 0.0 ], [ 113.640586854, -8.207109450999949, 0.0 ], [ 113.640609742, -8.206876754999939, 0.0 ], [ 113.640678406, -8.20675277699991, 0.0 ], [ 113.640556335, -8.206560134999959, 0.0 ], [ 113.640487671, -8.2064599979999, 0.0 ], [ 113.640365601, -8.20617675699992, 0.0 ], [ 113.640403748, -8.205926895999941, 0.0 ], [ 113.640426636, -8.20567607899989, 0.0 ], [ 113.640426636, -8.20546245599996, 0.0 ], [ 113.640846253, -8.205490112999881, 0.0 ], [ 113.64125061, -8.20545005799994, 0.0 ], [ 113.641571045, -8.205349920999939, 0.0 ], [ 113.641807556, -8.20514964899996, 0.0 ], [ 113.642097472, -8.20479011499998, 0.0 ], [ 113.642608643, -8.20394992799987, 0.0 ], [ 113.642829894, -8.20351981999994, 0.0 ], [ 113.643157959, -8.20294380099995, 0.0 ], [ 113.643211364, -8.202859878999959, 0.0 ], [ 113.643440247, -8.202479361999909, 0.0 ], [ 113.643600465, -8.20221042599997, 0.0 ], [ 113.643913269, -8.20172977399994, 0.0 ], [ 113.643981933, -8.20166969299987, 0.0 ], [ 113.644073487, -8.20158958499991, 0.0 ], [ 113.644317626, -8.20147991199997, 0.0 ], [ 113.644477844, -8.20149040299998, 0.0 ], [ 113.644737243, -8.20162963899992, 0.0 ], [ 113.644973754, -8.20184993699996, 0.0 ], [ 113.645278931, -8.20221996199996, 0.0 ], [ 113.645561219, -8.20244026199987, 0.0 ], [ 113.645759583, -8.202589988999931, 0.0 ], [ 113.645851135, -8.20261955299998, 0.0 ], [ 113.646018981, -8.202639578999939, 0.0 ], [ 113.646179198, -8.20259952499981, 0.0 ], [ 113.64642334, -8.20240020799991, 0.0 ], [ 113.64679718, -8.202139852999951, 0.0 ], [ 113.647071838, -8.20199966399991, 0.0 ], [ 113.647262574, -8.20199966399991, 0.0 ], [ 113.647369384, -8.20204639399998, 0.0 ], [ 113.64755249, -8.20211982699993, 0.0 ], [ 113.647750854, -8.202320098999961, 0.0 ], [ 113.647956849, -8.20265960699987, 0.0 ], [ 113.648117066, -8.202859878999959, 0.0 ], [ 113.64830017, -8.203060148999899, 0.0 ], [ 113.648429871, -8.20316982199984, 0.0 ], [ 113.648651124, -8.20326995899995, 0.0 ], [ 113.648849488, -8.203280448999919, 0.0 ], [ 113.649040222, -8.203229903999899, 0.0 ], [ 113.649269103, -8.20304965899993, 0.0 ], [ 113.649497986, -8.20275020699995, 0.0 ], [ 113.649780274, -8.202360152999971, 0.0 ], [ 113.650070191, -8.20194053599988, 0.0 ], [ 113.650131226, -8.20184993699996, 0.0 ], [ 113.650543213, -8.20141982999996, 0.0 ], [ 113.650741577, -8.201259611999941, 0.0 ], [ 113.650863648, -8.20135974899989, 0.0 ], [ 113.651100159, -8.201569556999861, 0.0 ], [ 113.651206971, -8.201660155999891, 0.0 ], [ 113.65133667, -8.201789856999939, 0.0 ], [ 113.651428222, -8.20188045399993, 0.0 ], [ 113.651580811, -8.202050208999941, 0.0 ], [ 113.651672363, -8.202150343999961, 0.0 ], [ 113.651901244, -8.20242023399987, 0.0 ], [ 113.652076722, -8.2025804509999, 0.0 ], [ 113.652397155, -8.202779769999889, 0.0 ], [ 113.653388976, -8.202839850999959, 0.0 ], [ 113.654197694, -8.202770232999971, 0.0 ], [ 113.65422821, -8.20284652599997, 0.0 ], [ 113.654357909, -8.20320033999997, 0.0 ], [ 113.654418945, -8.203359602999971, 0.0 ], [ 113.654731751, -8.203995704999951, 0.0 ], [ 113.654777526, -8.20409965499994, 0.0 ], [ 113.654953002, -8.20442867299988, 0.0 ], [ 113.65524292, -8.2048444749999, 0.0 ], [ 113.65576172, -8.20580768499997, 0.0 ], [ 113.655212402, -8.205905914999899, 0.0 ], [ 113.654777526, -8.20590782199997, 0.0 ], [ 113.654724121, -8.206336974999941, 0.0 ], [ 113.654335023, -8.206368445999891, 0.0 ], [ 113.654083251, -8.20645332299989, 0.0 ], [ 113.653686523, -8.20641517599995, 0.0 ], [ 113.65335846, -8.206211088999851, 0.0 ], [ 113.653251647, -8.206970214999959, 0.0 ], [ 113.653266908, -8.20792007399996, 0.0 ], [ 113.653228759, -8.208979605999961, 0.0 ], [ 113.653182984, -8.20946311899996, 0.0 ], [ 113.653152465, -8.209859847999949, 0.0 ], [ 113.653137207, -8.20997047499986, 0.0 ], [ 113.653076172, -8.21036529599991, 0.0 ], [ 113.653038025, -8.21064472199987, 0.0 ], [ 113.653007508, -8.210889815999961, 0.0 ], [ 113.652976989, -8.2111701959999, 0.0 ], [ 113.652770997, -8.21230983699996, 0.0 ], [ 113.652519226, -8.21378993899998, 0.0 ], [ 113.652275086, -8.21495056099997, 0.0 ], [ 113.655197143, -8.215127943999899, 0.0 ], [ 113.656562805, -8.215210912999851, 0.0 ], [ 113.658607483, -8.21527576399995, 0.0 ], [ 113.659317016, -8.215194701999909, 0.0 ], [ 113.659370422, -8.21478843599988, 0.0 ], [ 113.659484864, -8.21478176099987, 0.0 ], [ 113.659873962, -8.214759826999909, 0.0 ], [ 113.659950256, -8.214251517999971, 0.0 ], [ 113.660377503, -8.213936805999939, 0.0 ], [ 113.661140442, -8.21337985999997, 0.0 ], [ 113.661849975, -8.212765693999931, 0.0 ], [ 113.662620544, -8.21301460299992, 0.0 ], [ 113.663108826, -8.213494299999921, 0.0 ], [ 113.663719178, -8.21402358999995, 0.0 ], [ 113.664382934, -8.21437454199992, 0.0 ], [ 113.664367676, -8.215313910999949, 0.0 ], [ 113.664352417, -8.21608734199998, 0.0 ], [ 113.664344787, -8.216202734999911, 0.0 ], [ 113.663253784, -8.21654033599998, 0.0 ], [ 113.663032531, -8.216569899999911, 0.0 ], [ 113.662643432, -8.21662044399994, 0.0 ], [ 113.661651611, -8.21698284099989, 0.0 ], [ 113.66153717, -8.217001914999971, 0.0 ], [ 113.66116333, -8.2170677179999, 0.0 ], [ 113.66104126, -8.21708869899987, 0.0 ], [ 113.660385132, -8.217467308999909, 0.0 ], [ 113.66040039, -8.21756553599988, 0.0 ], [ 113.660385132, -8.217943190999961, 0.0 ], [ 113.660812379, -8.2180242529999, 0.0 ], [ 113.661643983, -8.21815395399989, 0.0 ], [ 113.66190338, -8.21819114799996, 0.0 ], [ 113.661872864, -8.21863746599996, 0.0 ], [ 113.661842347, -8.21886539399998, 0.0 ], [ 113.661544801, -8.21888160799989, 0.0 ], [ 113.661514282, -8.21942043299987, 0.0 ], [ 113.661071776, -8.21941375799997, 0.0 ], [ 113.660797118, -8.219387053999981, 0.0 ], [ 113.660598754, -8.219343184999961, 0.0 ], [ 113.659446717, -8.21925735499997, 0.0 ], [ 113.658950807, -8.219151497999921, 0.0 ], [ 113.658401489, -8.21903610199996, 0.0 ], [ 113.658355714, -8.219328880999971, 0.0 ], [ 113.658050537, -8.219330786999929, 0.0 ], [ 113.657676697, -8.21940326699996, 0.0 ], [ 113.657440186, -8.21969509099995, 0.0 ], [ 113.657386781, -8.22032642299996, 0.0 ], [ 113.657379151, -8.220817565999941, 0.0 ], [ 113.657928466, -8.221184730999941, 0.0 ], [ 113.658073426, -8.22117614799993, 0.0 ], [ 113.660102843, -8.222072601999971, 0.0 ], [ 113.660583496, -8.222335814999949, 0.0 ], [ 113.660354615, -8.222412107999959, 0.0 ], [ 113.660560607, -8.222511290999931, 0.0 ], [ 113.660682678, -8.22256946599992, 0.0 ], [ 113.661407472, -8.22292709199996, 0.0 ], [ 113.661399841, -8.22506046199987, 0.0 ], [ 113.661193847, -8.22539043499995, 0.0 ], [ 113.661148072, -8.225869177999931, 0.0 ], [ 113.661865234, -8.226392744999879, 0.0 ], [ 113.663955689, -8.228033065999909, 0.0 ], [ 113.663986205, -8.228112219999961, 0.0 ], [ 113.66381836, -8.22822952299992, 0.0 ], [ 113.663536072, -8.228743551999971, 0.0 ], [ 113.6639328, -8.228966712999981, 0.0 ], [ 113.664756774, -8.22927760999994, 0.0 ], [ 113.665603638, -8.229462622999961, 0.0 ], [ 113.666137696, -8.2295455929999, 0.0 ], [ 113.666183471, -8.22948360399994, 0.0 ], [ 113.666511536, -8.229565620999891, 0.0 ], [ 113.666770936, -8.22957420399996, 0.0 ], [ 113.666893006, -8.22958564699996, 0.0 ], [ 113.667007447, -8.229481696999869, 0.0 ], [ 113.667167664, -8.22899722899996, 0.0 ], [ 113.667320251, -8.228945731999939, 0.0 ], [ 113.667655945, -8.228833198999951, 0.0 ], [ 113.667945861, -8.228933333999979, 0.0 ], [ 113.668441772, -8.22890949299995, 0.0 ], [ 113.66872406, -8.228918074999971, 0.0 ], [ 113.669021606, -8.228987693999949, 0.0 ], [ 113.669158935, -8.229073524999929, 0.0 ], [ 113.669380188, -8.22907733799997, 0.0 ], [ 113.669509887, -8.22907638499993, 0.0 ], [ 113.66973114, -8.22896194499992, 0.0 ], [ 113.669876099, -8.228899954999971, 0.0 ], [ 113.670028686, -8.22897052799993, 0.0 ], [ 113.670318604, -8.22913169799995, 0.0 ], [ 113.670532227, -8.229253768999911, 0.0 ], [ 113.670578004, -8.22954940799997, 0.0 ], [ 113.670623779, -8.22980499199997, 0.0 ], [ 113.67075348, -8.22995757899997, 0.0 ], [ 113.671058654, -8.23015975899995, 0.0 ], [ 113.671272277, -8.230089187999971, 0.0 ], [ 113.671485901, -8.23017311199987, 0.0 ], [ 113.672073364, -8.230235099999961, 0.0 ], [ 113.672523498, -8.230109213999921, 0.0 ], [ 113.673545838, -8.231237411999929, 0.0 ], [ 113.673851013, -8.231781959999861, 0.0 ], [ 113.673927306, -8.231809615999911, 0.0 ], [ 113.674102784, -8.23213672599991, 0.0 ], [ 113.674209594, -8.232137678999891, 0.0 ], [ 113.674461364, -8.23240852399994, 0.0 ], [ 113.674781799, -8.232797621999961, 0.0 ], [ 113.675132752, -8.233058928999981, 0.0 ], [ 113.675529481, -8.23342418699991, 0.0 ], [ 113.67577362, -8.23371314999997, 0.0 ], [ 113.676071167, -8.233939170999919, 0.0 ], [ 113.676208496, -8.234097480999941, 0.0 ], [ 113.676536561, -8.234249114999949, 0.0 ], [ 113.676483154, -8.234464644999949, 0.0 ], [ 113.676696778, -8.23436832399989, 0.0 ], [ 113.677131654, -8.23416995899993, 0.0 ], [ 113.677307129, -8.23406982399996, 0.0 ], [ 113.677551269, -8.23396015199995, 0.0 ], [ 113.67780304, -8.23381709999995, 0.0 ], [ 113.678161622, -8.233619690999941, 0.0 ], [ 113.678230285, -8.23357963599994, 0.0 ], [ 113.678680419, -8.23331928199997, 0.0 ], [ 113.67945099, -8.232999801999879, 0.0 ], [ 113.679786683, -8.232939718999891, 0.0 ], [ 113.680053711, -8.232950209999959, 0.0 ], [ 113.680557252, -8.233050346999899, 0.0 ], [ 113.681121826, -8.233115196999959, 0.0 ], [ 113.681304932, -8.23312091799988, 0.0 ], [ 113.68158722, -8.23307990999996, 0.0 ], [ 113.681838989, -8.23297023799995, 0.0 ], [ 113.682678223, -8.23258972199989, 0.0 ], [ 113.683181762, -8.23241043099989, 0.0 ], [ 113.683471681, -8.23237991299993, 0.0 ], [ 113.683868409, -8.23243045799995, 0.0 ], [ 113.684219361, -8.23252010399983, 0.0 ], [ 113.684440613, -8.2326498029999, 0.0 ], [ 113.684638978, -8.23270034799998, 0.0 ], [ 113.684913636, -8.232680319999931, 0.0 ], [ 113.685020446, -8.232651709999971, 0.0 ], [ 113.685379028, -8.232560157999959, 0.0 ], [ 113.685913085, -8.232359886999969, 0.0 ], [ 113.68612671, -8.232110022999899, 0.0 ], [ 113.686363221, -8.23176002399993, 0.0 ], [ 113.686462403, -8.23159980799988, 0.0 ], [ 113.686508178, -8.23169326799996, 0.0 ], [ 113.686599732, -8.232276915999931, 0.0 ], [ 113.686683654, -8.232830046999879, 0.0 ], [ 113.686813355, -8.233474730999941, 0.0 ], [ 113.686828613, -8.233545302999911, 0.0 ], [ 113.686988831, -8.2343749989999, 0.0 ], [ 113.687049866, -8.23456096699994, 0.0 ], [ 113.687110901, -8.234779357999971, 0.0 ], [ 113.686950684, -8.234789847999931, 0.0 ], [ 113.6869812, -8.23491001099995, 0.0 ], [ 113.687019347, -8.23526000999993, 0.0 ], [ 113.686973572, -8.23565006299998, 0.0 ], [ 113.686790466, -8.236160277999939, 0.0 ], [ 113.686698914, -8.23641490899996, 0.0 ], [ 113.686508178, -8.23696994799997, 0.0 ], [ 113.686279297, -8.23764991699989, 0.0 ], [ 113.685951232, -8.238699913999939, 0.0 ], [ 113.685966492, -8.23894977599997, 0.0 ], [ 113.68611145, -8.24001979799988, 0.0 ], [ 113.686149596, -8.240870475999939, 0.0 ], [ 113.686172485, -8.24143028199995, 0.0 ], [ 113.686080933, -8.24174022599993, 0.0 ], [ 113.685829163, -8.24258041299993, 0.0 ], [ 113.685752868, -8.243040084999899, 0.0 ], [ 113.685569764, -8.243550300999971, 0.0 ], [ 113.686058044, -8.2435798649999, 0.0 ], [ 113.686805725, -8.243511198999901, 0.0 ], [ 113.686927795, -8.243499755999951, 0.0 ], [ 113.687843323, -8.243419646999881, 0.0 ], [ 113.688652039, -8.243379592999929, 0.0 ], [ 113.689849854, -8.24324035699988, 0.0 ], [ 113.690818787, -8.243260382999949, 0.0 ], [ 113.691276551, -8.24326991999993, 0.0 ], [ 113.691917419, -8.24328994699982, 0.0 ], [ 113.693679809, -8.243149756999969, 0.0 ], [ 113.695030212, -8.243129728999969, 0.0 ], [ 113.696273803, -8.243129728999969, 0.0 ], [ 113.696556091, -8.243106842999961, 0.0 ], [ 113.697120666, -8.243060110999981, 0.0 ], [ 113.698150634, -8.24306964899989, 0.0 ], [ 113.69796753, -8.24370002799998, 0.0 ], [ 113.69796753, -8.24398994399991, 0.0 ], [ 113.698036193, -8.244290350999901, 0.0 ], [ 113.698280335, -8.24512004699989, 0.0 ], [ 113.698318481, -8.245320318999971, 0.0 ], [ 113.698402405, -8.24573993599995, 0.0 ], [ 113.698661805, -8.246935844999941, 0.0 ], [ 113.69870758, -8.24715041999991, 0.0 ], [ 113.698776245, -8.247529982999881, 0.0 ], [ 113.698860169, -8.24790000999997, 0.0 ], [ 113.698921204, -8.248220442999919, 0.0 ], [ 113.698921204, -8.24874973199991, 0.0 ], [ 113.698921204, -8.24927997499992, 0.0 ], [ 113.698806762, -8.249779700999969, 0.0 ], [ 113.698699952, -8.250000000999879, 0.0 ], [ 113.698631286, -8.250149725999959, 0.0 ], [ 113.698486329, -8.250240324999879, 0.0 ], [ 113.697853087, -8.2505798329999, 0.0 ], [ 113.697341918, -8.25109004899986, 0.0 ], [ 113.697143554, -8.251480102999951, 0.0 ], [ 113.697021483, -8.251850127999941, 0.0 ], [ 113.69696045, -8.25218963599997, 0.0 ], [ 113.69696045, -8.2525100709999, 0.0 ], [ 113.697052002, -8.253049850999901, 0.0 ], [ 113.697227478, -8.253459929999909, 0.0 ], [ 113.697418212, -8.25389957399995, 0.0 ], [ 113.697639465, -8.25469970599983, 0.0 ], [ 113.697868348, -8.255539892999879, 0.0 ], [ 113.697929383, -8.255749702999941, 0.0 ], [ 113.697868348, -8.25590991999997, 0.0 ], [ 113.697860718, -8.256219864999929, 0.0 ], [ 113.697929383, -8.256489752999871, 0.0 ], [ 113.697982788, -8.256830215999971, 0.0 ], [ 113.697929383, -8.257010458999959, 0.0 ], [ 113.697792054, -8.25722980499989, 0.0 ], [ 113.697410584, -8.257740020999959, 0.0 ], [ 113.697204589, -8.257867811999921, 0.0 ], [ 113.696891785, -8.25806999199995, 0.0 ], [ 113.69657898, -8.258275985999941, 0.0 ], [ 113.696426393, -8.258625984999981, 0.0 ], [ 113.696395874, -8.259092331999909, 0.0 ], [ 113.696296692, -8.25970649599992, 0.0 ], [ 113.696228028, -8.260437011999951, 0.0 ], [ 113.696296692, -8.261376380999881, 0.0 ], [ 113.696304322, -8.261464117999941, 0.0 ], [ 113.696334839, -8.26181507199993, 0.0 ], [ 113.696365357, -8.262120245999879, 0.0 ], [ 113.696220398, -8.262522697999881, 0.0 ], [ 113.696121216, -8.262617111999869, 0.0 ], [ 113.695968629, -8.26276779199998, 0.0 ], [ 113.695755004, -8.26281261399987, 0.0 ], [ 113.695602417, -8.262932776999889, 0.0 ], [ 113.695533753, -8.26298999699998, 0.0 ], [ 113.695121764, -8.263150214999939, 0.0 ], [ 113.694610595, -8.263283728999969, 0.0 ], [ 113.69429016, -8.26279926299992, 0.0 ], [ 113.693664551, -8.26239585899998, 0.0 ], [ 113.692871094, -8.262087821999961, 0.0 ], [ 113.692718506, -8.262065885999901, 0.0 ], [ 113.692054748, -8.261967658999881, 0.0 ], [ 113.69178009, -8.262292861999979, 0.0 ], [ 113.691390992, -8.262470244999969, 0.0 ], [ 113.690811157, -8.26284026999997, 0.0 ], [ 113.690498352, -8.263099669999921, 0.0 ], [ 113.689956665, -8.263640402999901, 0.0 ], [ 113.689582825, -8.264010429999869, 0.0 ], [ 113.689109802, -8.264399527999901, 0.0 ], [ 113.688720704, -8.26473045399996, 0.0 ], [ 113.688217163, -8.265130041999949, 0.0 ], [ 113.687759399, -8.265609739999951, 0.0 ], [ 113.687561035, -8.265800475999921, 0.0 ], [ 113.686332702, -8.266909597999931, 0.0 ], [ 113.685127258, -8.26807594299993, 0.0 ], [ 113.68473816, -8.268449782999941, 0.0 ], [ 113.684158325, -8.26892566699996, 0.0 ], [ 113.683914184, -8.269124984999911, 0.0 ], [ 113.683799744, -8.26922035199993, 0.0 ], [ 113.683662415, -8.269390106999939, 0.0 ], [ 113.682617188, -8.270420074999951, 0.0 ], [ 113.682006837, -8.27089977299994, 0.0 ], [ 113.681411744, -8.2714500429999, 0.0 ], [ 113.681159973, -8.271710395999889, 0.0 ], [ 113.680976869, -8.27194976699997, 0.0 ], [ 113.680587768, -8.27235031099997, 0.0 ], [ 113.679916382, -8.27299022599993, 0.0 ], [ 113.679367066, -8.273460387999931, 0.0 ], [ 113.678718568, -8.27406978599987, 0.0 ], [ 113.678199769, -8.27410984099993, 0.0 ], [ 113.678260804, -8.27427005799996, 0.0 ], [ 113.678123475, -8.274580001999819, 0.0 ], [ 113.677902222, -8.275079725999939, 0.0 ], [ 113.677490235, -8.27649974799994, 0.0 ], [ 113.677284241, -8.277138709999971, 0.0 ], [ 113.675903321, -8.27702140699995, 0.0 ], [ 113.674583434, -8.277049063999931, 0.0 ], [ 113.67337799, -8.27707672199989, 0.0 ], [ 113.672447204, -8.277045250999951, 0.0 ], [ 113.671737671, -8.27710247099998, 0.0 ], [ 113.671295165, -8.277135849999979, 0.0 ], [ 113.67112732, -8.277149200999929, 0.0 ], [ 113.670783996, -8.27724647499991, 0.0 ], [ 113.670440673, -8.27734374999994, 0.0 ], [ 113.669982911, -8.277289389999909, 0.0 ], [ 113.669570922, -8.27726078099994, 0.0 ], [ 113.66947937, -8.27725505799998, 0.0 ], [ 113.669357299, -8.27719783799995, 0.0 ], [ 113.669380188, -8.276874542999961, 0.0 ], [ 113.669380188, -8.27636051099995, 0.0 ], [ 113.669418335, -8.27607440999992, 0.0 ], [ 113.669410705, -8.27550315799982, 0.0 ], [ 113.669349671, -8.27493190699988, 0.0 ], [ 113.669174194, -8.274495123999881, 0.0 ], [ 113.668983459, -8.27419185699995, 0.0 ], [ 113.668884277, -8.27400207499994, 0.0 ], [ 113.668655396, -8.273851393999911, 0.0 ], [ 113.668479919, -8.273680685999921, 0.0 ], [ 113.668197632, -8.27366351999984, 0.0 ], [ 113.667640686, -8.273667334999971, 0.0 ], [ 113.66708374, -8.27365207699995, 0.0 ], [ 113.666717528, -8.273682592999929, 0.0 ], [ 113.666664123, -8.273349761999899, 0.0 ], [ 113.666603088, -8.27289295099996, 0.0 ], [ 113.666275025, -8.27253341699986, 0.0 ], [ 113.665939332, -8.27219104799997, 0.0 ], [ 113.665855408, -8.272160528999899, 0.0 ], [ 113.665756226, -8.272123336999931, 0.0 ], [ 113.665649413, -8.27208519099997, 0.0 ], [ 113.665557861, -8.2717504499999, 0.0 ], [ 113.665420532, -8.27118968899987, 0.0 ], [ 113.665367127, -8.270719526999869, 0.0 ], [ 113.665367127, -8.27027034799994, 0.0 ], [ 113.66531372, -8.2698202119999, 0.0 ], [ 113.665229798, -8.269634245999949, 0.0 ], [ 113.665351867, -8.269263265999941, 0.0 ], [ 113.665351867, -8.268901823999951, 0.0 ], [ 113.665390014, -8.26842498699995, 0.0 ], [ 113.665252685, -8.268171309999961, 0.0 ], [ 113.665130616, -8.268239020999889, 0.0 ], [ 113.664741516, -8.268217086999931, 0.0 ] ] ] ] } }
]
}
